{
"type": "FeatureCollection",
"name": "command_area",
"crs": { "type": "name", "properties": { "name": "urn:ogc:def:crs:OGC:1.3:CRS84" } },
"features": [
{ "type": "Feature", "properties": { "classification": "Command", "detail": "Left bank" }, "geometry": { "type": "Polygon", "coordinates": [ [ [ 77.666027838782469, 10.086570052976336, 0.0 ], [ 77.667031278442934, 10.087548344953948, 0.0 ], [ 77.66704361808398, 10.08904695313862, 0.0 ], [ 77.666595770791503, 10.09028379730449, 0.0 ], [ 77.666741934169238, 10.091241788564465, 0.0 ], [ 77.668027728746992, 10.089963909683869, 0.0 ], [ 77.66897257642411, 10.087164389553516, 0.0 ], [ 77.669989694287111, 10.086661689904005, 0.0 ], [ 77.672344957302769, 10.083214768817173, 0.0 ], [ 77.67242315093084, 10.082351820771647, 0.0 ], [ 77.67242416784282, 10.082340598089919, 0.0 ], [ 77.672742369251594, 10.078828935606941, 0.0 ], [ 77.676655631273221, 10.077784521048544, 0.0 ], [ 77.676740888377267, 10.077637746680013, 0.0 ], [ 77.676664389250277, 10.077351908563912, 0.0 ], [ 77.676584419735377, 10.077051627630681, 0.0 ], [ 77.676504541051997, 10.076751323315023, 0.0 ], [ 77.676424468114874, 10.076451071160136, 0.0 ], [ 77.676343922134549, 10.07615094491041, 0.0 ], [ 77.67626816774191, 10.075848013675113, 0.0 ], [ 77.67619444491794, 10.07554352211605, 0.0 ], [ 77.676074194768375, 10.075261309461894, 0.0 ], [ 77.675866415402936, 10.075022301138404, 0.0 ], [ 77.675594881298935, 10.074872876981772, 0.0 ], [ 77.67529508869751, 10.074761294498273, 0.0 ], [ 77.675041173211753, 10.074590211968939, 0.0 ], [ 77.674827680453348, 10.074367216973712, 0.0 ], [ 77.674629394331248, 10.074124549308692, 0.0 ], [ 77.674434365553736, 10.073876989331723, 0.0 ], [ 77.67423090563193, 10.073638856048547, 0.0 ], [ 77.674025904272241, 10.073393506605157, 0.0 ], [ 77.673787561446943, 10.073199667630774, 0.0 ], [ 77.673504560986885, 10.073075278801241, 0.0 ], [ 77.673207791006917, 10.072968229800097, 0.0 ], [ 77.67290238573662, 10.072880647523959, 0.0 ], [ 77.672593482103821, 10.072814656171658, 0.0 ], [ 77.672285099178225, 10.072771750416052, 0.0 ], [ 77.671974256606802, 10.072747821255177, 0.0 ], [ 77.671661015543691, 10.072737979074589, 0.0 ], [ 77.671346325672516, 10.072737663412624, 0.0 ], [ 77.671031134879058, 10.072742318303483, 0.0 ], [ 77.670716397343995, 10.072747380587259, 0.0 ], [ 77.670402862202536, 10.072751363684631, 0.0 ], [ 77.670089548294186, 10.072771121790026, 0.0 ], [ 77.669776525766281, 10.072791955484604, 0.0 ], [ 77.669556514422197, 10.072793007475809, 0.0 ], [ 77.669462992423348, 10.072793454654288, 0.0 ], [ 77.669144342837342, 10.072767509213293, 0.0 ], [ 77.668857794551798, 10.07265920206072, 0.0 ], [ 77.668607792915509, 10.072458735981968, 0.0 ], [ 77.668437729317986, 10.072202447185362, 0.0 ], [ 77.66835335191638, 10.07203248207901, 0.0 ], [ 77.668300234668209, 10.071925485672807, 0.0 ], [ 77.668177155251669, 10.071637682832943, 0.0 ], [ 77.668059289204962, 10.071346408610054, 0.0 ], [ 77.667937798890478, 10.071058784735328, 0.0 ], [ 77.667818487633212, 10.070771161759922, 0.0 ], [ 77.667703959870153, 10.070481136695321, 0.0 ], [ 77.667590421361069, 10.070190668264843, 0.0 ], [ 77.667474078765963, 10.069901719688858, 0.0 ], [ 77.667351139643586, 10.069616250589661, 0.0 ], [ 77.667217810653597, 10.069336225986149, 0.0 ], [ 77.667071312890869, 10.069062966083266, 0.0 ], [ 77.666915792230157, 10.068793795397539, 0.0 ], [ 77.66675299155753, 10.068528076309917, 0.0 ], [ 77.6665838065976, 10.068265744968357, 0.0 ], [ 77.666409133974582, 10.06800673572252, 0.0 ], [ 77.666229871211897, 10.067750983821043, 0.0 ], [ 77.666046913134778, 10.067498420915513, 0.0 ], [ 77.665866958748268, 10.067257661286078, 0.0 ], [ 77.664903833502365, 10.06746967751036, 0.0 ], [ 77.664603387073043, 10.067560919947994, 0.0 ], [ 77.664004050313963, 10.067651206481401, 0.0 ], [ 77.663789724836988, 10.067683493345271, 0.0 ], [ 77.663603901338149, 10.067780389259326, 0.0 ], [ 77.663385305505358, 10.067888024104718, 0.0 ], [ 77.663221389752039, 10.067952533280845, 0.0 ], [ 77.66308485896144, 10.067979265308452, 0.0 ], [ 77.663008489976903, 10.067952074925699, 0.0 ], [ 77.662883083682971, 10.067881537192704, 0.0 ], [ 77.662785020037802, 10.067789435468626, 0.0 ], [ 77.662466812846162, 10.067382999854374, 0.0 ], [ 77.662308896527406, 10.067204286905223, 0.0 ], [ 77.662273410564239, 10.067171611221056, 0.0 ], [ 77.662161796921851, 10.067068836721035, 0.0 ], [ 77.661867427072991, 10.066879018463567, 0.0 ], [ 77.661469000737156, 10.066840322430323, 0.0 ], [ 77.660928585884164, 10.066828344165913, 0.0 ], [ 77.660606426234494, 10.066860082526262, 0.0 ], [ 77.660598342054755, 10.066864918618364, 0.0 ], [ 77.660453375377529, 10.066951640119271, 0.0 ], [ 77.660294942674454, 10.06700535155062, 0.0 ], [ 77.660131259240359, 10.066967160916192, 0.0 ], [ 77.659984006084755, 10.066901976769884, 0.0 ], [ 77.659902453029758, 10.066750454128737, 0.0 ], [ 77.659902690662989, 10.066642349300707, 0.0 ], [ 77.659979712346569, 10.066372252256031, 0.0 ], [ 77.66000309731146, 10.066264258361173, 0.0 ], [ 77.660018318877349, 10.06619396378585, 0.0 ], [ 77.659985719430836, 10.066123625317289, 0.0 ], [ 77.659914774013657, 10.066112660139197, 0.0 ], [ 77.659751043954259, 10.066096092801445, 0.0 ], [ 77.658531647412815, 10.066135867107107, 0.0 ], [ 77.658293148076837, 10.066159772698711, 0.0 ], [ 77.658214947450915, 10.06616761101094, 0.0 ], [ 77.657587045027924, 10.066220303865464, 0.0 ], [ 77.657444793509455, 10.066365936128193, 0.0 ], [ 77.657291746745727, 10.066452089275344, 0.0 ], [ 77.657204377296637, 10.06646271126948, 0.0 ], [ 77.657078896458472, 10.066430004672441, 0.0 ], [ 77.65625884681856, 10.066227932914671, 0.0 ], [ 77.656188981179582, 10.066207421596914, 0.0 ], [ 77.656073357153673, 10.066173476425433, 0.0 ], [ 77.655789491578162, 10.066172859562073, 0.0 ], [ 77.655648414463712, 10.066225280881952, 0.0 ], [ 77.655543635254617, 10.066264214655689, 0.0 ], [ 77.65521052929472, 10.066312135095018, 0.0 ], [ 77.654773676669379, 10.066370643461198, 0.0 ], [ 77.654091241843389, 10.066396181814298, 0.0 ], [ 77.653419582352512, 10.066486607657453, 0.0 ], [ 77.653206473496596, 10.066587568962007, 0.0 ], [ 77.653111205734035, 10.066632702504648, 0.0 ], [ 77.653101264775216, 10.066644806745273, 0.0 ], [ 77.653018149158072, 10.066746009399139, 0.0 ], [ 77.65296858411233, 10.066940491437265, 0.0 ], [ 77.652891767691358, 10.067118695344391, 0.0 ], [ 77.652776813147739, 10.067258979876783, 0.0 ], [ 77.652689252056916, 10.067356084156472, 0.0 ], [ 77.652563614448127, 10.067393647169411, 0.0 ], [ 77.652367170629418, 10.067355380582512, 0.0 ], [ 77.652001536753005, 10.067300527868497, 0.0 ], [ 77.65152144945398, 10.067164348732263, 0.0 ], [ 77.65134123872997, 10.067190980470343, 0.0 ], [ 77.651150092397984, 10.06722839902551, 0.0 ], [ 77.650866014097176, 10.067319666966114, 0.0 ], [ 77.650636726854316, 10.067324570260439, 0.0 ], [ 77.650456679158935, 10.06728093355656, 0.0 ], [ 77.65027132285303, 10.067167016838937, 0.0 ], [ 77.649730184548332, 10.066782500882596, 0.0 ], [ 77.649431968355486, 10.066570597782174, 0.0 ], [ 77.649384423098866, 10.066545203651685, 0.0 ], [ 77.649208411130815, 10.06645119488627, 0.0 ], [ 77.648924544900751, 10.066450571481994, 0.0 ], [ 77.648755198209074, 10.066504250807895, 0.0 ], [ 77.648503741909337, 10.066655045417235, 0.0 ], [ 77.648301496203317, 10.066773516751994, 0.0 ], [ 77.648299521103581, 10.06677680954914, 0.0 ], [ 77.648230261441199, 10.066892276133899, 0.0 ], [ 77.648224246062966, 10.067140902657513, 0.0 ], [ 77.648272930563337, 10.067341003799925, 0.0 ], [ 77.648387149520431, 10.067530438234826, 0.0 ], [ 77.648564534479078, 10.067869499841322, 0.0 ], [ 77.648504024324495, 10.068074767140843, 0.0 ], [ 77.648399925561478, 10.068242098896064, 0.0 ], [ 77.648197558187064, 10.068414623678621, 0.0 ], [ 77.647929742233316, 10.068559976253368, 0.0 ], [ 77.647672890952094, 10.068683731975, 0.0 ], [ 77.647416141838903, 10.068758841371903, 0.0 ], [ 77.647255534926444, 10.068763031209528, 0.0 ], [ 77.647033985345104, 10.068768810890788, 0.0 ], [ 77.646987113253431, 10.068766887427785, 0.0 ], [ 77.646477216060191, 10.068745963072786, 0.0 ], [ 77.645342381561079, 10.068456983835574, 0.0 ], [ 77.644695520736093, 10.068369251360991, 0.0 ], [ 77.644427847830059, 10.068449739289633, 0.0 ], [ 77.644322640173584, 10.068481762929196, 0.0 ], [ 77.644039989610519, 10.068567797539743, 0.0 ], [ 77.643586462777932, 10.068755978609602, 0.0 ], [ 77.642963722019431, 10.068938377660288, 0.0 ], [ 77.642853314543004, 10.068963524917933, 0.0 ], [ 77.64218813660699, 10.069115030971318, 0.0 ], [ 77.642002362724838, 10.069190292637359, 0.0 ], [ 77.641832726779, 10.069368291608669, 0.0 ], [ 77.641436452173537, 10.069827875740486, 0.0 ], [ 77.641332921251035, 10.069947946945206, 0.0 ], [ 77.641310883857784, 10.0700618830557, 0.0 ], [ 77.641294255520847, 10.070147853661638, 0.0 ], [ 77.641299116332505, 10.070412723578556, 0.0 ], [ 77.641390331997741, 10.070896794948055, 0.0 ], [ 77.641390822368862, 10.070899397291953, 0.0 ], [ 77.641515424622753, 10.071321282376516, 0.0 ], [ 77.641629395085147, 10.071618822481639, 0.0 ], [ 77.641791730213754, 10.07229768135187, 0.0 ], [ 77.641791022321854, 10.072611183926028, 0.0 ], [ 77.641790447916833, 10.072865227693001, 0.0 ], [ 77.641285925244119, 10.073874886191675, 0.0 ], [ 77.640633626180488, 10.074911182114533, 0.0 ], [ 77.640479998202238, 10.075251369265686, 0.0 ], [ 77.640326130290759, 10.075699662042837, 0.0 ], [ 77.640368745281023, 10.076164606495183, 0.0 ], [ 77.640344161882581, 10.077380729277195, 0.0 ], [ 77.640190041462347, 10.077768095555086, 0.0 ], [ 77.640107847072557, 10.077903042931382, 0.0 ], [ 77.639916584874868, 10.078106955615681, 0.0 ], [ 77.639839700457799, 10.078188925330949, 0.0 ], [ 77.639590107808999, 10.078354658502292, 0.0 ], [ 77.639588199797856, 10.078355925449898, 0.0 ], [ 77.639117875798547, 10.07872243565788, 0.0 ], [ 77.639024877970257, 10.078808710732972, 0.0 ], [ 77.6389481655184, 10.078932860570546, 0.0 ], [ 77.638947711528658, 10.079132853863427, 0.0 ], [ 77.638947086557494, 10.079408516574233, 0.0 ], [ 77.638853725962861, 10.079651545667048, 0.0 ], [ 77.63876063541511, 10.079775659505401, 0.0 ], [ 77.6386492311496, 10.079972066657433, 0.0 ], [ 77.638639117826813, 10.079989896575967, 0.0 ], [ 77.638431082597208, 10.080248883754678, 0.0 ], [ 77.638196006934265, 10.080394299730131, 0.0 ], [ 77.637840789344693, 10.080555665168447, 0.0 ], [ 77.637491141635508, 10.080668394425345, 0.0 ], [ 77.637188380741463, 10.080736481698921, 0.0 ], [ 77.636883919746595, 10.080895796138634, 0.0 ], [ 77.636829766718904, 10.08102366265598, 0.0 ], [ 77.636829212678037, 10.081266894088117, 0.0 ], [ 77.63683897531655, 10.081775009135754, 0.0 ], [ 77.636874257959448, 10.082607025085963, 0.0 ], [ 77.636621404137884, 10.083363191542162, 0.0 ], [ 77.636492046884086, 10.083589235677209, 0.0 ], [ 77.636451494596315, 10.08366009839699, 0.0 ], [ 77.636289187898967, 10.08399738908787, 0.0 ], [ 77.636254028063945, 10.084070454988705, 0.0 ], [ 77.636084146375822, 10.084351146126608, 0.0 ], [ 77.63589248344141, 10.084610167272501, 0.0 ], [ 77.635695514936117, 10.084798908440803, 0.0 ], [ 77.635427690845916, 10.084938846272223, 0.0 ], [ 77.635291721590477, 10.085093906109194, 0.0 ], [ 77.635070832141366, 10.085345809246292, 0.0 ], [ 77.634889975954081, 10.085653502262801, 0.0 ], [ 77.634736470557641, 10.085934227707128, 0.0 ], [ 77.634647638359468, 10.086582655132474, 0.0 ], [ 77.63464703346591, 10.086847510288919, 0.0 ], [ 77.634695489856313, 10.08714490580428, 0.0 ], [ 77.634557612305116, 10.08766717885095, 0.0 ], [ 77.634420434450817, 10.08796956410805, 0.0 ], [ 77.634185018241624, 10.088260916302829, 0.0 ], [ 77.634080782544572, 10.088482299708517, 0.0 ], [ 77.634007702007921, 10.089301644857926, 0.0 ], [ 77.633951983923396, 10.089793394811238, 0.0 ], [ 77.633814836683143, 10.090084970708347, 0.0 ], [ 77.633677916591182, 10.090273845294007, 0.0 ], [ 77.633366251400446, 10.090483947899713, 0.0 ], [ 77.63298612021066, 10.090787689799413, 0.0 ], [ 77.632961512701172, 10.090807352305376, 0.0 ], [ 77.632584010753646, 10.091157839786376, 0.0 ], [ 77.632200960812497, 10.091546154318507, 0.0 ], [ 77.631707101982954, 10.092057036874166, 0.0 ], [ 77.631362627054898, 10.092288685598874, 0.0 ], [ 77.63097942594834, 10.092741858583167, 0.0 ], [ 77.630886067557242, 10.09297947909613, 0.0 ], [ 77.630787038292112, 10.093308972361683, 0.0 ], [ 77.63037580534774, 10.093930526970553, 0.0 ], [ 77.630160519580727, 10.094255918850422, 0.0 ], [ 77.629941797746312, 10.094406771059369, 0.0 ], [ 77.629542810146006, 10.094600456957608, 0.0 ], [ 77.629133064198243, 10.094723851226092, 0.0 ], [ 77.628859869687176, 10.094820526140211, 0.0 ], [ 77.628287083143448, 10.095098353648041, 0.0 ], [ 77.628105618690938, 10.095186372155354, 0.0 ], [ 77.627881496447515, 10.095310185569474, 0.0 ], [ 77.627818690255936, 10.095347036947601, 0.0 ], [ 77.627624548438689, 10.095460949181017, 0.0 ], [ 77.627405636069568, 10.095692877457054, 0.0 ], [ 77.627031499985492, 10.096366038254757, 0.0 ], [ 77.62691067815507, 10.096673861679847, 0.0 ], [ 77.626871698752097, 10.097003490294867, 0.0 ], [ 77.626845875987726, 10.097048903737118, 0.0 ], [ 77.626794959990946, 10.097138447624843, 0.0 ], [ 77.626696450082818, 10.097240922985804, 0.0 ], [ 77.626595574073406, 10.097281872233168, 0.0 ], [ 77.626352177833894, 10.097380675635293, 0.0 ], [ 77.626166264075152, 10.097504574253946, 0.0 ], [ 77.625903723701924, 10.097714782852165, 0.0 ], [ 77.625635759720581, 10.097908761034887, 0.0 ], [ 77.625509994026402, 10.097919207265591, 0.0 ], [ 77.625319048009885, 10.097935067442052, 0.0 ], [ 77.624650293486468, 10.097977620833433, 0.0 ], [ 77.624202538357508, 10.098009031565027, 0.0 ], [ 77.623793075689434, 10.09800809915572, 0.0 ], [ 77.623421855201855, 10.097996442274393, 0.0 ], [ 77.623124452461411, 10.097875878955961, 0.0 ], [ 77.62310004723156, 10.097865985383748, 0.0 ], [ 77.622811147571269, 10.097670738422778, 0.0 ], [ 77.622582253637233, 10.097497251428024, 0.0 ], [ 77.622238658083631, 10.097345122129866, 0.0 ], [ 77.621889314527607, 10.097317295965581, 0.0 ], [ 77.621370749802907, 10.097278274980397, 0.0 ], [ 77.620928575811433, 10.097261049894655, 0.0 ], [ 77.619954427467576, 10.097432089984522, 0.0 ], [ 77.619642979643061, 10.097539484034598, 0.0 ], [ 77.619508856110713, 10.097582258204227, 0.0 ], [ 77.619222289294726, 10.097673649009209, 0.0 ], [ 77.618790610809071, 10.097834816324223, 0.0 ], [ 77.618560898117721, 10.098012659653477, 0.0 ], [ 77.618363911657184, 10.098201389167627, 0.0 ], [ 77.618318727746157, 10.098254602060365, 0.0 ], [ 77.618139456518975, 10.098465728995166, 0.0 ], [ 77.617882103841453, 10.098789452263588, 0.0 ], [ 77.617592225423834, 10.099010399049803, 0.0 ], [ 77.617191201393837, 10.099184028530203, 0.0 ], [ 77.616803398216575, 10.099258809083324, 0.0 ], [ 77.616099135455897, 10.099251786837442, 0.0 ], [ 77.615777114145146, 10.099213208596211, 0.0 ], [ 77.615291400719229, 10.099136417662237, 0.0 ], [ 77.615034901724357, 10.099092585072754, 0.0 ], [ 77.614795078848886, 10.098924468580663, 0.0 ], [ 77.614462926082751, 10.098550745106991, 0.0 ], [ 77.61421241503956, 10.098285313526446, 0.0 ], [ 77.613799068365722, 10.097614116915963, 0.0 ], [ 77.613676811080722, 10.097585449137455, 0.0 ], [ 77.61307675519447, 10.097378664942141, 0.0 ], [ 77.612422001552602, 10.097214997507876, 0.0 ], [ 77.611952460561952, 10.097224718849304, 0.0 ], [ 77.611553843227455, 10.097256227614878, 0.0 ], [ 77.611406326617669, 10.09730453391478, 0.0 ], [ 77.610411646387945, 10.097750859133157, 0.0 ], [ 77.610160149102569, 10.097901621034111, 0.0 ], [ 77.609924843932163, 10.098133498813127, 0.0 ], [ 77.609738829764012, 10.098300628623008, 0.0 ], [ 77.609427237520606, 10.098467465259091, 0.0 ], [ 77.609214179537275, 10.098526429806441, 0.0 ], [ 77.608963032845566, 10.098531251111581, 0.0 ], [ 77.608408532857254, 10.098481569915918, 0.0 ], [ 77.608387674175731, 10.098483165900916, 0.0 ], [ 77.607791491305704, 10.0985287823504, 0.0 ], [ 77.607436324465937, 10.098657681958741, 0.0 ], [ 77.607064682275166, 10.098824375175468, 0.0 ], [ 77.606824177613817, 10.098942730235592, 0.0 ], [ 77.606419969655519, 10.099028272316559, 0.0 ], [ 77.606334109186889, 10.099013455721547, 0.0 ], [ 77.606070704098556, 10.098968000966693, 0.0 ], [ 77.605836309057054, 10.098816106571689, 0.0 ], [ 77.60554192198606, 10.098637048976116, 0.0 ], [ 77.604877460281216, 10.097965257275462, 0.0 ], [ 77.604558485216899, 10.0978992763566, 0.0 ], [ 77.604280386217965, 10.09788842732786, 0.0 ], [ 77.60381646070681, 10.098140836134064, 0.0 ], [ 77.603713943180082, 10.098157256042214, 0.0 ], [ 77.60349300804728, 10.098269742080959, 0.0 ], [ 77.603165299046395, 10.098328433680479, 0.0 ], [ 77.602766796298454, 10.098311283339797, 0.0 ], [ 77.602753193059357, 10.098311136352265, 0.0 ], [ 77.60212805260602, 10.098304381514708, 0.0 ], [ 77.601773187535002, 10.098303550120193, 0.0 ], [ 77.601341707093013, 10.098378210286626, 0.0 ], [ 77.601041088287104, 10.098523444051693, 0.0 ], [ 77.600811514740087, 10.098636416587567, 0.0 ], [ 77.600625611406485, 10.098754892083264, 0.0 ], [ 77.600480146007612, 10.098967940197213, 0.0 ], [ 77.600343779505522, 10.099167662099489, 0.0 ], [ 77.600168542654558, 10.099388861836417, 0.0 ], [ 77.60000941871192, 10.099723608164879, 0.0 ], [ 77.59989948947873, 10.100031445349941, 0.0 ], [ 77.599751601342689, 10.100231088791986, 0.0 ], [ 77.599592761835254, 10.100446921919342, 0.0 ], [ 77.599067985523959, 10.100721351683944, 0.0 ], [ 77.598581783108727, 10.100849931990354, 0.0 ], [ 77.598330733793887, 10.100874669741586, 0.0 ], [ 77.598304539190281, 10.100897906803823, 0.0 ], [ 77.598262966775621, 10.100881347328766, 0.0 ], [ 77.598082278477307, 10.10089915188712, 0.0 ], [ 77.597547365750415, 10.100849246214807, 0.0 ], [ 77.59724180332563, 10.100778259507138, 0.0 ], [ 77.59705633312376, 10.100712956923701, 0.0 ], [ 77.596685899122747, 10.100376963027543, 0.0 ], [ 77.596489717937175, 10.100225155083876, 0.0 ], [ 77.596183960666451, 10.100235243493273, 0.0 ], [ 77.596036487607819, 10.100261920331945, 0.0 ], [ 77.595916110293103, 10.100375144068664, 0.0 ], [ 77.595806735430358, 10.100450557970305, 0.0 ], [ 77.595713792541403, 10.100504391821801, 0.0 ], [ 77.595375264831205, 10.10051980554789, 0.0 ], [ 77.594887961660561, 10.100421056051516, 0.0 ], [ 77.594702880372836, 10.100448370667152, 0.0 ], [ 77.594527503853499, 10.100474253036623, 0.0 ], [ 77.59442906982423, 10.100544286185709, 0.0 ], [ 77.594409063132957, 10.100558519546837, 0.0 ], [ 77.594232184212217, 10.100684356527495, 0.0 ], [ 77.594013494463582, 10.100813560727374, 0.0 ], [ 77.593838564762279, 10.100905035242647, 0.0 ], [ 77.593696466355652, 10.100969560027067, 0.0 ], [ 77.593401477767088, 10.101039127449098, 0.0 ], [ 77.5930136641677, 10.101119285875711, 0.0 ], [ 77.592889995943779, 10.101128001274219, 0.0 ], [ 77.592002247877815, 10.101190564461206, 0.0 ], [ 77.591752291802948, 10.101208179873993, 0.0 ], [ 77.591315537999151, 10.101207142603243, 0.0 ], [ 77.590646427355466, 10.101303147012686, 0.0 ], [ 77.590604491578631, 10.101311347015098, 0.0 ], [ 77.590346005643767, 10.101361890618534, 0.0 ], [ 77.590160425239219, 10.101345231292555, 0.0 ], [ 77.589991386952363, 10.101258345244844, 0.0 ], [ 77.589762483594427, 10.101095647789691, 0.0 ], [ 77.589032275025261, 10.100531771696694, 0.0 ], [ 77.58889829137604, 10.100485391005066, 0.0 ], [ 77.588764986094702, 10.10043924514207, 0.0 ], [ 77.588355798632108, 10.100324760224908, 0.0 ], [ 77.588055527950019, 10.100324043698322, 0.0 ], [ 77.58778234532366, 10.100409875101661, 0.0 ], [ 77.587590996939241, 10.100517521219274, 0.0 ], [ 77.587410310890903, 10.100733295050077, 0.0 ], [ 77.587300606325812, 10.100943835635235, 0.0 ], [ 77.587179633483913, 10.101300285151865, 0.0 ], [ 77.587167885769134, 10.101640782822813, 0.0 ], [ 77.586975200427332, 10.102476770380747, 0.0 ], [ 77.586922887885976, 10.102703734369697, 0.0 ], [ 77.586897736681294, 10.102779208126208, 0.0 ], [ 77.586823897860029, 10.103000783726031, 0.0 ], [ 77.586565978630404, 10.103540681319487, 0.0 ], [ 77.5863358111107, 10.103896871102904, 0.0 ], [ 77.586248114163595, 10.104037195279716, 0.0 ], [ 77.586029142080463, 10.104279904106477, 0.0 ], [ 77.585777529697964, 10.104473887608947, 0.0 ], [ 77.585493351435503, 10.104586715185405, 0.0 ], [ 77.58492343784792, 10.104796943510451, 0.0 ], [ 77.584563015524452, 10.104833915113318, 0.0 ], [ 77.584224577024827, 10.104811481584136, 0.0 ], [ 77.58375530340453, 10.104707657824406, 0.0 ], [ 77.583362242224268, 10.104695902423884, 0.0 ], [ 77.582920037480164, 10.104689436467709, 0.0 ], [ 77.582630595423893, 10.104721171963718, 0.0 ], [ 77.582428304167991, 10.104839599267279, 0.0 ], [ 77.582253038485646, 10.105066193767584, 0.0 ], [ 77.581955730178606, 10.105462723836979, 0.0 ], [ 77.581736938525921, 10.105629758132523, 0.0 ], [ 77.581512808047819, 10.105748132201484, 0.0 ], [ 77.581179483283051, 10.10586624005424, 0.0 ], [ 77.580866132462234, 10.105894241053591, 0.0 ], [ 77.580354900545842, 10.105939924688414, 0.0 ], [ 77.580139869118341, 10.105939406026323, 0.0 ], [ 77.579983649560518, 10.105939029220565, 0.0 ], [ 77.579732364970255, 10.105997880069026, 0.0 ], [ 77.579568323229694, 10.106100182182843, 0.0 ], [ 77.57943685924829, 10.106278233832711, 0.0 ], [ 77.579327226732971, 10.106456339921863, 0.0 ], [ 77.579162917742167, 10.106666743728965, 0.0 ], [ 77.579003372290686, 10.106852500847424, 0.0 ], [ 77.578848595404281, 10.106976853128799, 0.0 ], [ 77.578837063922549, 10.106985459745204, 0.0 ], [ 77.578603100716236, 10.107160080109566, 0.0 ], [ 77.5782644999789, 10.107202504134591, 0.0 ], [ 77.577800280098415, 10.107266241145965, 0.0 ], [ 77.576915664558669, 10.107328959994391, 0.0 ], [ 77.576194545412761, 10.107389282525901, 0.0 ], [ 77.576162080685663, 10.107391998241724, 0.0 ], [ 77.575948999377488, 10.107456343011279, 0.0 ], [ 77.575444403132167, 10.107753619758284, 0.0 ], [ 77.574356141975443, 10.108394755596919, 0.0 ], [ 77.574115470038123, 10.108505823948803, 0.0 ], [ 77.573913410876742, 10.108599072784841, 0.0 ], [ 77.573876365657384, 10.108613998603801, 0.0 ], [ 77.573246669444188, 10.108867708312516, 0.0 ], [ 77.573049986936212, 10.108921282336837, 0.0 ], [ 77.572952759290729, 10.108929065661414, 0.0 ], [ 77.572918925941622, 10.108931774108555, 0.0 ], [ 77.572749843196107, 10.108866498732368, 0.0 ], [ 77.572509850255415, 10.108774028179539, 0.0 ], [ 77.572319256770243, 10.108573572690148, 0.0 ], [ 77.572161576798408, 10.108313742701341, 0.0 ], [ 77.57204173130151, 10.108205348189699, 0.0 ], [ 77.571932564307986, 10.108194270933211, 0.0 ], [ 77.571763186397163, 10.108247910489467, 0.0 ], [ 77.571604599131717, 10.108350220561931, 0.0 ], [ 77.571489389221483, 10.108576955457465, 0.0 ], [ 77.571385063445916, 10.108814527881975, 0.0 ], [ 77.571220708101123, 10.109041142306239, 0.0 ], [ 77.571072927326156, 10.109192125992081, 0.0 ], [ 77.570342238409125, 10.109732955883885, 0.0 ], [ 77.570146856149563, 10.109893746404339, 0.0 ], [ 77.569910038266755, 10.110088636517787, 0.0 ], [ 77.569718510392306, 10.11026653671621, 0.0 ], [ 77.569592546460058, 10.110422978155384, 0.0 ], [ 77.569477454901175, 10.11060106812306, 0.0 ], [ 77.569378640881496, 10.110817030623366, 0.0 ], [ 77.569301341761502, 10.110981286919412, 0.0 ], [ 77.56888258428603, 10.111527621658297, 0.0 ], [ 77.570203298432943, 10.112438995623563, 0.0 ], [ 77.570235395097484, 10.112567825121346, 0.0 ], [ 77.570154352326952, 10.11363873546064, 0.0 ], [ 77.568966814573173, 10.114336178268418, 0.0 ], [ 77.567609628568846, 10.114845123020041, 0.0 ], [ 77.566667138288068, 10.115222119132355, 0.0 ], [ 77.56578119742413, 10.116013810968212, 0.0 ], [ 77.565196853450047, 10.116956301248994, 0.0 ], [ 77.564716183406844, 10.117257898138844, 0.0 ], [ 77.565338226992154, 10.117446396195, 0.0 ], [ 77.566393816106626, 10.116617004747912, 0.0 ], [ 77.567619053471645, 10.115599115244667, 0.0 ], [ 77.569070488504053, 10.115335217966049, 0.0 ], [ 77.57048422392522, 10.115636814855899, 0.0 ], [ 77.571087417704931, 10.115467166605358, 0.0 ], [ 77.571916809152015, 10.115523716022205, 0.0 ], [ 77.572708500987872, 10.115749913689593, 0.0 ], [ 77.575649070663914, 10.115448316799743, 0.0 ], [ 77.577977021657446, 10.115071320687429, 0.0 ], [ 77.578344592866969, 10.115222119132355, 0.0 ], [ 77.578872387424198, 10.115259818743585, 0.0 ], [ 77.580399221679073, 10.115448316799743, 0.0 ], [ 77.581435960987932, 10.114958221853735, 0.0 ], [ 77.583820461398318, 10.114166530017878, 0.0 ], [ 77.585680423013287, 10.113374388917009, 0.0 ], [ 77.587141052417735, 10.113440266055647, 0.0 ], [ 77.589619021900546, 10.112941779939433, 0.0 ], [ 77.59031790214965, 10.112817315566758, 0.0 ], [ 77.59088834841873, 10.113384855226968, 0.0 ], [ 77.592985757187193, 10.112633848473479, 0.0 ], [ 77.592985757187265, 10.112633848473479, 0.0 ], [ 77.593711314900915, 10.112940518568147, 0.0 ], [ 77.594335513551556, 10.113172222753098, 0.0 ], [ 77.595524339803532, 10.113495378711731, 0.0 ], [ 77.597360952095144, 10.113641093550401, 0.0 ], [ 77.598423023073963, 10.113405134406948, 0.0 ], [ 77.598753789600948, 10.113156818300338, 0.0 ], [ 77.599935249679078, 10.112947435976636, 0.0 ], [ 77.601575510018478, 10.112975115690379, 0.0 ], [ 77.603462263779093, 10.113088835652826, 0.0 ], [ 77.604214925536454, 10.113060568617549, 0.0 ], [ 77.604850553701738, 10.113349751924138, 0.0 ], [ 77.606307903794118, 10.113439818804435, 0.0 ], [ 77.607602437191332, 10.113625416126176, 0.0 ], [ 77.60956742587291, 10.113756752420139, 0.0 ], [ 77.610361132627219, 10.113262289380142, 0.0 ], [ 77.612688938698739, 10.112470047512469, 0.0 ], [ 77.615139413428764, 10.113789533905564, 0.0 ], [ 77.617363690491416, 10.114166530017876, 0.0 ], [ 77.619408894400706, 10.114166530017876, 0.0 ], [ 77.618475829022742, 10.112413498095622, 0.0 ], [ 77.61753333874195, 10.111263659953067, 0.0 ], [ 77.62125617535105, 10.112319249067543, 0.0 ], [ 77.624573741139415, 10.112413498095622, 0.0 ], [ 77.62758971003791, 10.113789533905564, 0.0 ], [ 77.628485075804662, 10.114779148700384, 0.0 ], [ 77.628334277359741, 10.115872437426091, 0.0 ], [ 77.626977091355414, 10.117455821097805, 0.0 ], [ 77.626758629372191, 10.117989319547485, 0.0 ], [ 77.626636969021149, 10.118286422080871, 0.0 ], [ 77.626635009398456, 10.118595673751543, 0.0 ], [ 77.626629503748802, 10.118907168331361, 0.0 ], [ 77.626576825959944, 10.119213687861475, 0.0 ], [ 77.626503483549016, 10.119516059718478, 0.0 ], [ 77.626447212968685, 10.119714759528676, 0.0 ], [ 77.626744870579557, 10.119715323403682, 0.0 ], [ 77.627226502501287, 10.119610227729993, 0.0 ], [ 77.627547761020651, 10.119451823842837, 0.0 ], [ 77.628350444617581, 10.119294329170089, 0.0 ], [ 77.628564922133648, 10.119029715349257, 0.0 ], [ 77.628992040750234, 10.119454552385889, 0.0 ], [ 77.629314010633323, 10.118925120598078, 0.0 ], [ 77.630062386869895, 10.119191551049482, 0.0 ], [ 77.632575390342197, 10.119779318261067, 0.0 ], [ 77.632843863153994, 10.119249783051259, 0.0 ], [ 77.633112232543681, 10.118773250285471, 0.0 ], [ 77.634022604559846, 10.118244916569665, 0.0 ], [ 77.634024726060488, 10.117131838263901, 0.0 ], [ 77.634613638109045, 10.116867919618926, 0.0 ], [ 77.634558631975551, 10.117662876240843, 0.0 ], [ 77.635040057053118, 10.117663775562903, 0.0 ], [ 77.635254225202459, 10.11755816817498, 0.0 ], [ 77.63600260503631, 10.117824584237383, 0.0 ], [ 77.6360017992439, 10.118248614582058, 0.0 ], [ 77.636803873100462, 10.118409121983575, 0.0 ], [ 77.637018343421971, 10.118144501867334, 0.0 ], [ 77.637660244424922, 10.118145697066495, 0.0 ], [ 77.637607153847284, 10.11793358206927, 0.0 ], [ 77.638517015048421, 10.117670253379572, 0.0 ], [ 77.638464225743576, 10.117299127452952, 0.0 ], [ 77.638358947507641, 10.116397864669807, 0.0 ], [ 77.637985511222553, 10.11586713066373, 0.0 ], [ 77.638415447415184, 10.114807849802673, 0.0 ], [ 77.638203187627312, 10.113906388269356, 0.0 ], [ 77.638786123680859, 10.112756527691715, 0.0 ], [ 77.638740304121882, 10.112741298572246, 0.0 ], [ 77.638959174826368, 10.11014450886222, 0.0 ], [ 77.638640536931462, 10.108924825820225, 0.0 ], [ 77.639336810045961, 10.10844908086051, 0.0 ], [ 77.639391401592036, 10.107866138511724, 0.0 ], [ 77.63917954200241, 10.106752660906693, 0.0 ], [ 77.639663251358172, 10.105534465343396, 0.0 ], [ 77.639664238815953, 10.105010941779199, 0.0 ], [ 77.639664451053818, 10.104898418927007, 0.0 ], [ 77.640417299618832, 10.102779652159427, 0.0 ], [ 77.640205138756244, 10.101825186383337, 0.0 ], [ 77.640634349196091, 10.101136928026904, 0.0 ], [ 77.640475679109556, 10.100182560277062, 0.0 ], [ 77.640048866262475, 10.099598727599414, 0.0 ], [ 77.638552985232195, 10.098641884015876, 0.0 ], [ 77.637750457218033, 10.098746403224084, 0.0 ], [ 77.637039213988771, 10.098437508584254, 0.0 ], [ 77.636788832838647, 10.096507074242254, 0.0 ], [ 77.636366395193249, 10.096002817176498, 0.0 ], [ 77.6360310236131, 10.094240050638064, 0.0 ], [ 77.635993904095528, 10.094222799842441, 0.0 ], [ 77.635999589609469, 10.094212825461625, 0.0 ], [ 77.636104964972276, 10.093921415441059, 0.0 ], [ 77.636151599317031, 10.093615938225128, 0.0 ], [ 77.636176505141805, 10.093303671127615, 0.0 ], [ 77.636215145412905, 10.092993561503761, 0.0 ], [ 77.636269582275531, 10.092686824337591, 0.0 ], [ 77.636416178963771, 10.09241783081842, 0.0 ], [ 77.636611210439185, 10.092171811380126, 0.0 ], [ 77.636806982056783, 10.091928855032847, 0.0 ], [ 77.636983407458501, 10.091673046474, 0.0 ], [ 77.637134410824615, 10.091400446673447, 0.0 ], [ 77.63727339565088, 10.091121432008606, 0.0 ], [ 77.637419106506741, 10.090847180153389, 0.0 ], [ 77.637611265547775, 10.090596539998558, 0.0 ], [ 77.637896409092093, 10.09047326093247, 0.0 ], [ 77.638197376208041, 10.09053779628232, 0.0 ], [ 77.638488987676851, 10.090662504371153, 0.0 ], [ 77.638771119391834, 10.090797799279244, 0.0 ], [ 77.639051299578114, 10.090937332691965, 0.0 ], [ 77.639330178445107, 10.091079339240196, 0.0 ], [ 77.63961595601171, 10.091213917388473, 0.0 ], [ 77.639920278498209, 10.091260161427442, 0.0 ], [ 77.640208374517044, 10.091144364720833, 0.0 ], [ 77.640337632276044, 10.090863488459377, 0.0 ], [ 77.640342329435157, 10.090553106340963, 0.0 ], [ 77.640328166012182, 10.09024475758963, 0.0 ], [ 77.640181119663055, 10.089971099286856, 0.0 ], [ 77.639965606128044, 10.089742458347985, 0.0 ], [ 77.639755091024881, 10.089511107751548, 0.0 ], [ 77.639598007342329, 10.089245748392671, 0.0 ], [ 77.639479369677474, 10.088954541618989, 0.0 ], [ 77.639395333428013, 10.088654792185139, 0.0 ], [ 77.639372282904787, 10.088345407414749, 0.0 ], [ 77.639404645907916, 10.088034946156085, 0.0 ], [ 77.639535486473676, 10.087750570632409, 0.0 ], [ 77.639787107788891, 10.087588000186258, 0.0 ], [ 77.640108225114716, 10.087574810729052, 0.0 ], [ 77.640402360081055, 10.087657202118407, 0.0 ], [ 77.640664632067399, 10.087831269497599, 0.0 ], [ 77.640939951417806, 10.087980871719935, 0.0 ], [ 77.641224576952879, 10.088116764677125, 0.0 ], [ 77.641512684662814, 10.088246304823201, 0.0 ], [ 77.641805243117631, 10.088357869320362, 0.0 ], [ 77.642103366577203, 10.088439261562826, 0.0 ], [ 77.642412522020493, 10.088465616195435, 0.0 ], [ 77.642569172924311, 10.088461046956752, 0.0 ], [ 77.642729199393216, 10.08845637925873, 0.0 ], [ 77.643045367749778, 10.088449879858217, 0.0 ], [ 77.643359804911199, 10.088466609046918, 0.0 ], [ 77.643673734855156, 10.088479829980258, 0.0 ], [ 77.643983712278782, 10.088456165219952, 0.0 ], [ 77.644288233515454, 10.088372857421632, 0.0 ], [ 77.644574341133023, 10.088245269703634, 0.0 ], [ 77.644840482902111, 10.088075448023744, 0.0 ], [ 77.64503643618275, 10.087839231195744, 0.0 ], [ 77.645214093655625, 10.087586507311642, 0.0 ], [ 77.645497175954063, 10.087448433498594, 0.0 ], [ 77.645810891859412, 10.087433376149477, 0.0 ], [ 77.646125811956836, 10.087427676246364, 0.0 ], [ 77.646404731293558, 10.087564471223459, 0.0 ], [ 77.646648811793341, 10.08776069969656, 0.0 ], [ 77.646913416621032, 10.087923114560169, 0.0 ], [ 77.647226470625242, 10.087985549993164, 0.0 ], [ 77.647539212564766, 10.088004177650816, 0.0 ], [ 77.647819773164258, 10.087870902620182, 0.0 ], [ 77.648006587534098, 10.087625375111088, 0.0 ], [ 77.648094311903208, 10.087320584977135, 0.0 ], [ 77.648151193123283, 10.087015487275039, 0.0 ], [ 77.648194042221405, 10.086707062081359, 0.0 ], [ 77.648251669878903, 10.086402019237937, 0.0 ], [ 77.648334209656241, 10.086098565496513, 0.0 ], [ 77.648468785106559, 10.085820120102653, 0.0 ], [ 77.648712374576576, 10.085629851436636, 0.0 ], [ 77.649029801084623, 10.085634820190933, 0.0 ], [ 77.649343400077953, 10.085675255508761, 0.0 ], [ 77.649654591586227, 10.085730863288802, 0.0 ], [ 77.649944195768114, 10.085835832157954, 0.0 ], [ 77.650201314639219, 10.086013141593355, 0.0 ], [ 77.650454648263519, 10.086202094551197, 0.0 ], [ 77.650733846390153, 10.086338915608621, 0.0 ], [ 77.651030025515468, 10.086442956377482, 0.0 ], [ 77.651325305318778, 10.086550007177209, 0.0 ], [ 77.651612064045764, 10.086691964262911, 0.0 ], [ 77.651904233993378, 10.08679766338156, 0.0 ], [ 77.652211174406375, 10.086815071558476, 0.0 ], [ 77.652523428913241, 10.086807489374337, 0.0 ], [ 77.652838202421265, 10.086782949573603, 0.0 ], [ 77.653153092841137, 10.08674661066766, 0.0 ], [ 77.65346570258032, 10.086703634765172, 0.0 ], [ 77.65377391103732, 10.086650098123755, 0.0 ], [ 77.654078478139525, 10.086572324753092, 0.0 ], [ 77.654381877022217, 10.086487100499482, 0.0 ], [ 77.654686605102881, 10.086412884846993, 0.0 ], [ 77.65499514900705, 10.086368120192788, 0.0 ], [ 77.655306657976098, 10.086346289150015, 0.0 ], [ 77.655618917878996, 10.086330728180656, 0.0 ], [ 77.655931795616084, 10.086320289749722, 0.0 ], [ 77.656245167081011, 10.086313826322225, 0.0 ], [ 77.656558898274739, 10.086310186765843, 0.0 ], [ 77.65687285699687, 10.086308222646494, 0.0 ], [ 77.657186919141168, 10.086306781932649, 0.0 ], [ 77.657500949809105, 10.086304719787165, 0.0 ], [ 77.657814819498469, 10.08630088507789, 0.0 ], [ 77.658128398706765, 10.086294127572046, 0.0 ], [ 77.6584415588311, 10.086283300633966, 0.0 ], [ 77.658754247710476, 10.086264919390544, 0.0 ], [ 77.659066146985253, 10.086229411458305, 0.0 ], [ 77.659375924759388, 10.086178707681313, 0.0 ], [ 77.659681564752702, 10.086111181186197, 0.0 ], [ 77.65997969270876, 10.086003218473991, 0.0 ], [ 77.660278822509895, 10.085908409245803, 0.0 ], [ 77.660587609231072, 10.085882246168921, 0.0 ], [ 77.660899212628692, 10.085875297107521, 0.0 ], [ 77.661211565161693, 10.08587337165892, 0.0 ], [ 77.661524540025709, 10.085875756660982, 0.0 ], [ 77.661838005020115, 10.085881741649303, 0.0 ], [ 77.662151835139298, 10.085890606266616, 0.0 ], [ 77.662465898182802, 10.085901641847386, 0.0 ], [ 77.662780063749096, 10.085914130732704, 0.0 ], [ 77.663094205932964, 10.085927359760035, 0.0 ], [ 77.66340819523225, 10.085940614867582, 0.0 ], [ 77.663721898546953, 10.085953178396664, 0.0 ], [ 77.664035228643058, 10.085964343479759, 0.0 ], [ 77.664349529107653, 10.085975558025666, 0.0 ], [ 77.664663415884149, 10.085994460875781, 0.0 ], [ 77.664974012041284, 10.086029758366749, 0.0 ], [ 77.665281095446403, 10.086094329689786, 0.0 ], [ 77.665577760205622, 10.086203039738564, 0.0 ], [ 77.665834986096002, 10.086370664374897, 0.0 ], [ 77.66602645508965, 10.086572852228672, 0.0 ], [ 77.666027838782469, 10.086570052976336, 0.0 ] ] ] } },
{ "type": "Feature", "properties": { "classification": "Non command", "detail": "Right bank" }, "geometry": { "type": "Polygon", "coordinates": [ [ [ 77.585941101071285, 10.103937599161384, 0.0 ], [ 77.585989827160233, 10.103894237855513, 0.0 ], [ 77.586212680211645, 10.103695921111012, 0.0 ], [ 77.586406169457746, 10.103382915935981, 0.0 ], [ 77.586458414695414, 10.103298399457003, 0.0 ], [ 77.586661055082573, 10.102649792041746, 0.0 ], [ 77.586775791806303, 10.102200025615502, 0.0 ], [ 77.586812020885986, 10.101680838433026, 0.0 ], [ 77.586893380650224, 10.101345601631692, 0.0 ], [ 77.58699800028495, 10.100914524279005, 0.0 ], [ 77.587116837665803, 10.100666063334415, 0.0 ], [ 77.587138580181488, 10.100620604860296, 0.0 ], [ 77.587375275038085, 10.100344224405376, 0.0 ], [ 77.587646786827463, 10.100128507934585, 0.0 ], [ 77.588075481163685, 10.099982404458956, 0.0 ], [ 77.588495078038477, 10.099983405402782, 0.0 ], [ 77.588783503233799, 10.100001403346027, 0.0 ], [ 77.588966804646077, 10.100114350726017, 0.0 ], [ 77.589237411488455, 10.10027077778858, 0.0 ], [ 77.589446810314371, 10.100435714443336, 0.0 ], [ 77.590075198473812, 10.100852631780242, 0.0 ], [ 77.590381008857264, 10.100913939769725, 0.0 ], [ 77.590660652199347, 10.100949222680185, 0.0 ], [ 77.591211371518909, 10.100950532170998, 0.0 ], [ 77.591937009970991, 10.100917639977297, 0.0 ], [ 77.592579989348451, 10.100900495777296, 0.0 ], [ 77.593164857236445, 10.100884901044139, 0.0 ], [ 77.593479660168782, 10.100842374427771, 0.0 ], [ 77.593722150675944, 10.100726917676582, 0.0 ], [ 77.594022266631839, 10.100584023781323, 0.0 ], [ 77.59424138967654, 10.100342215246144, 0.0 ], [ 77.594468963459974, 10.10022158875654, 0.0 ], [ 77.594783695227193, 10.100205023580827, 0.0 ], [ 77.595063408231795, 10.100214342488414, 0.0 ], [ 77.595416801833494, 10.10027086029254, 0.0 ], [ 77.595447888308399, 10.100275831914246, 0.0 ], [ 77.595492296517591, 10.100257636191827, 0.0 ], [ 77.595657895096849, 10.100189784191912, 0.0 ], [ 77.595780505840651, 10.100094873143973, 0.0 ], [ 77.595973092530699, 10.099982817817533, 0.0 ], [ 77.596217896803182, 10.099966086076904, 0.0 ], [ 77.596445177481939, 10.099966623330715, 0.0 ], [ 77.596663550696178, 10.100036376081675, 0.0 ], [ 77.597073824179631, 10.100279672939166, 0.0 ], [ 77.597357144926434, 10.100520532724602, 0.0 ], [ 77.597531799318688, 10.100669011859907, 0.0 ], [ 77.597553631979906, 10.100687572484787, 0.0 ], [ 77.597728466474678, 10.100687984117826, 0.0 ], [ 77.597773698298113, 10.100686457779489, 0.0 ], [ 77.598457196606546, 10.100663393271475, 0.0 ], [ 77.598630171534808, 10.100609040476513, 0.0 ], [ 77.598894608117689, 10.100525948276356, 0.0 ], [ 77.599332228076605, 10.100301959629007, 0.0 ], [ 77.599429027076553, 10.100185853970572, 0.0 ], [ 77.599533866303091, 10.100060104454712, 0.0 ], [ 77.599700595731917, 10.099792203609752, 0.0 ], [ 77.599814584696333, 10.099558355292118, 0.0 ], [ 77.600218897910338, 10.09872890688564, 0.0 ], [ 77.600464053068379, 10.098565043988344, 0.0 ], [ 77.60081425176844, 10.098340847145778, 0.0 ], [ 77.601356744258851, 10.098125754679586, 0.0 ], [ 77.60183789877027, 10.0979711009727, 0.0 ], [ 77.602344909785529, 10.097972289863435, 0.0 ], [ 77.602930611402314, 10.097965005093158, 0.0 ], [ 77.603306535080094, 10.097948577397347, 0.0 ], [ 77.603708936887813, 10.097828354528531, 0.0 ], [ 77.603971406623543, 10.097733766528677, 0.0 ], [ 77.604291104557262, 10.097617551727524, 0.0 ], [ 77.604719522517939, 10.097583932155885, 0.0 ], [ 77.604779294288221, 10.097594946178958, 0.0 ], [ 77.605147673388046, 10.097662826650378, 0.0 ], [ 77.605418225989524, 10.097845204167015, 0.0 ], [ 77.605775544553069, 10.098304733142243, 0.0 ], [ 77.606028409991325, 10.098573616300257, 0.0 ], [ 77.606543999208725, 10.098644053232817, 0.0 ], [ 77.606823745919655, 10.098636051079609, 0.0 ], [ 77.6072088426601, 10.098437891990613, 0.0 ], [ 77.607786324031451, 10.098214216861379, 0.0 ], [ 77.608109776078493, 10.09820631217093, 0.0 ], [ 77.608511889570991, 10.098207246777122, 0.0 ], [ 77.608782895076502, 10.098199223715994, 0.0 ], [ 77.609176615566525, 10.098053009516264, 0.0 ], [ 77.609378434140638, 10.097937080272459, 0.0 ], [ 77.609806867901113, 10.097690978039111, 0.0 ], [ 77.610699791524837, 10.097147807377439, 0.0 ], [ 77.612051884958134, 10.096699982657185, 0.0 ], [ 77.612410291878462, 10.096700812092365, 0.0 ], [ 77.612856109408369, 10.096701842865571, 0.0 ], [ 77.613214245183485, 10.096815180596025, 0.0 ], [ 77.613572238609493, 10.096989100055112, 0.0 ], [ 77.614419808786181, 10.097832156804884, 0.0 ], [ 77.614470521925853, 10.097882599890511, 0.0 ], [ 77.614714632758364, 10.098160109452522, 0.0 ], [ 77.615142280093835, 10.098455353199654, 0.0 ], [ 77.615535118114451, 10.098681281680513, 0.0 ], [ 77.615805867678375, 10.098785759334987, 0.0 ], [ 77.616478968503088, 10.098787308858505, 0.0 ], [ 77.616858570789759, 10.098754459453914, 0.0 ], [ 77.61716095362425, 10.09872829234024, 0.0 ], [ 77.617580894379671, 10.098582128474902, 0.0 ], [ 77.617746136542564, 10.098450617937488, 0.0 ], [ 77.617808600304897, 10.09840090518378, 0.0 ], [ 77.618343306372196, 10.097770343207799, 0.0 ], [ 77.618376677029573, 10.097750115808651, 0.0 ], [ 77.619055265574559, 10.097338793937013, 0.0 ], [ 77.619468950432861, 10.097088041649101, 0.0 ], [ 77.620772549721437, 10.09661502105962, 0.0 ], [ 77.621550948899085, 10.096443708212007, 0.0 ], [ 77.621944192181843, 10.096496533320703, 0.0 ], [ 77.622319681000704, 10.096670482816421, 0.0 ], [ 77.622607463974362, 10.096965398305599, 0.0 ], [ 77.623262055044563, 10.097408277244085, 0.0 ], [ 77.623768766691455, 10.097539251054002, 0.0 ], [ 77.624258472209704, 10.097462475983434, 0.0 ], [ 77.624486093147823, 10.097315864246468, 0.0 ], [ 77.624844996207457, 10.097100314574504, 0.0 ], [ 77.625308377252111, 10.09706675120907, 0.0 ], [ 77.625692930096761, 10.097102242637391, 0.0 ], [ 77.625981276634889, 10.097154824809422, 0.0 ], [ 77.626252308350161, 10.097138132804503, 0.0 ], [ 77.626470927014338, 10.097104009012355, 0.0 ], [ 77.626593568449266, 10.096991777848586, 0.0 ], [ 77.626734091839694, 10.096706492852775, 0.0 ], [ 77.626752533625961, 10.096291110433299, 0.0 ], [ 77.626823407538723, 10.095884500680313, 0.0 ], [ 77.626985200780837, 10.095502091967091, 0.0 ], [ 77.627143184092574, 10.095225499240428, 0.0 ], [ 77.627651472483365, 10.094672755148508, 0.0 ], [ 77.628264071751346, 10.094371227863405, 0.0 ], [ 77.629025119748462, 10.094139275700172, 0.0 ], [ 77.629654828017806, 10.094002222852339, 0.0 ], [ 77.629969792659153, 10.093881768913434, 0.0 ], [ 77.630153744761458, 10.093717744517392, 0.0 ], [ 77.630399598297572, 10.093242294173933, 0.0 ], [ 77.630558161966917, 10.092714716155683, 0.0 ], [ 77.630838659183496, 10.092377818707803, 0.0 ], [ 77.631902001223864, 10.091164149074757, 0.0 ], [ 77.632287710967489, 10.090689009099378, 0.0 ], [ 77.633067042568143, 10.090102244625371, 0.0 ], [ 77.633291251191565, 10.08985671896852, 0.0 ], [ 77.633303653083715, 10.089843137944399, 0.0 ], [ 77.633347998012482, 10.089566289572247, 0.0 ], [ 77.633287993565943, 10.089046871074686, 0.0 ], [ 77.633385865987407, 10.088609043220572, 0.0 ], [ 77.633544018674058, 10.088254558537699, 0.0 ], [ 77.633639654912201, 10.088148008721987, 0.0 ], [ 77.633745585058477, 10.088029990303824, 0.0 ], [ 77.633979062597462, 10.087842281601752, 0.0 ], [ 77.634078368905534, 10.087762442409201, 0.0 ], [ 77.634288635865289, 10.087555200707016, 0.0 ], [ 77.634411686115584, 10.087261217717071, 0.0 ], [ 77.634474373925741, 10.086603602217224, 0.0 ], [ 77.634478629721116, 10.086285597264919, 0.0 ], [ 77.634484913561209, 10.085816051104189, 0.0 ], [ 77.634575860540792, 10.085541785456883, 0.0 ], [ 77.634768742982374, 10.085291232891848, 0.0 ], [ 77.635259257550501, 10.084850943778974, 0.0 ], [ 77.635679924645103, 10.084375876878994, 0.0 ], [ 77.635916922249919, 10.083943675453952, 0.0 ], [ 77.636425612032326, 10.083200508920811, 0.0 ], [ 77.636557792199199, 10.08273345170835, 0.0 ], [ 77.636517036342752, 10.081516830471912, 0.0 ], [ 77.636535325297473, 10.081162028658582, 0.0 ], [ 77.636546731419344, 10.081051601583795, 0.0 ], [ 77.636571075088852, 10.080815921117505, 0.0 ], [ 77.636746570673665, 10.080522054384289, 0.0 ], [ 77.636877961844334, 10.080401182417461, 0.0 ], [ 77.637038995563501, 10.080340631731531, 0.0 ], [ 77.63717541877719, 10.080289334902886, 0.0 ], [ 77.637603971424596, 10.080186436015083, 0.0 ], [ 77.638006293704962, 10.080083479160123, 0.0 ], [ 77.638233935885125, 10.079919547058466, 0.0 ], [ 77.638356783219535, 10.079712109358354, 0.0 ], [ 77.638488506781755, 10.079444107794131, 0.0 ], [ 77.638638014355706, 10.079046325761965, 0.0 ], [ 77.639016429755884, 10.078393109597243, 0.0 ], [ 77.639252849042862, 10.078211889606393, 0.0 ], [ 77.639524375828273, 10.077970162206157, 0.0 ], [ 77.639725905387706, 10.077754242598303, 0.0 ], [ 77.639988905530629, 10.077417294300233, 0.0 ], [ 77.640024550375358, 10.077208418538021, 0.0 ], [ 77.640059771372194, 10.077002026490561, 0.0 ], [ 77.640060418383484, 10.076716425684992, 0.0 ], [ 77.640000195532252, 10.076292208772372, 0.0 ], [ 77.63994878419004, 10.075833397325766, 0.0 ], [ 77.639984556646539, 10.075478633694843, 0.0 ], [ 77.640028689863982, 10.075288327392229, 0.0 ], [ 77.640656991512344, 10.074202590287712, 0.0 ], [ 77.640665358477975, 10.074188131747405, 0.0 ], [ 77.640931524308826, 10.073751123539125, 0.0 ], [ 77.641120420320021, 10.073281124023538, 0.0 ], [ 77.641142501003287, 10.073232227822132, 0.0 ], [ 77.641342510311745, 10.072789320539357, 0.0 ], [ 77.641387326632923, 10.072515919204932, 0.0 ], [ 77.641387919877673, 10.072253363579136, 0.0 ], [ 77.64138069038188, 10.072224455791172, 0.0 ], [ 77.641289370090647, 10.07185930340745, 0.0 ], [ 77.64122132574164, 10.071647467903119, 0.0 ], [ 77.641088484333579, 10.071233906346549, 0.0 ], [ 77.640971016862977, 10.070868206895739, 0.0 ], [ 77.640971931453521, 10.070463428840242, 0.0 ], [ 77.641061462058644, 10.069960389553557, 0.0 ], [ 77.641183591963397, 10.069698100484004, 0.0 ], [ 77.6413830378483, 10.069446925952491, 0.0 ], [ 77.641715244831119, 10.06911946388044, 0.0 ], [ 77.641903568974612, 10.068901080765329, 0.0 ], [ 77.642202212440964, 10.068759525015992, 0.0 ], [ 77.64227686899909, 10.068744912645968, 0.0 ], [ 77.643362851208508, 10.068532355651257, 0.0 ], [ 77.643827175854767, 10.068413042260261, 0.0 ], [ 77.644391153574588, 10.068195487598302, 0.0 ], [ 77.644888473844901, 10.068141888997388, 0.0 ], [ 77.645485035754064, 10.068176025775927, 0.0 ], [ 77.646898692930279, 10.068441701002655, 0.0 ], [ 77.647373817077266, 10.06843180440336, 0.0 ], [ 77.647399979843783, 10.068428520489988, 0.0 ], [ 77.647716433238998, 10.068388799706156, 0.0 ], [ 77.647948673410838, 10.068290848773984, 0.0 ], [ 77.648136846634486, 10.068138102942726, 0.0 ], [ 77.648225630477498, 10.067963258512748, 0.0 ], [ 77.648192854699516, 10.067799087892695, 0.0 ], [ 77.64806109876713, 10.067426838086078, 0.0 ], [ 77.64804076118304, 10.0673622645769, 0.0 ], [ 77.647964692216647, 10.067120739323741, 0.0 ], [ 77.647940419839472, 10.06704367252155, 0.0 ], [ 77.647969005885727, 10.066653417277792, 0.0 ], [ 77.648002638684659, 10.06643468954411, 0.0 ], [ 77.64826806004794, 10.066325875730342, 0.0 ], [ 77.648522421831331, 10.066217034458873, 0.0 ], [ 77.648776618463785, 10.06618477208832, 0.0 ], [ 77.649019640353117, 10.06620718619746, 0.0 ], [ 77.649284735818526, 10.066240587588425, 0.0 ], [ 77.649713030274086, 10.066475052283238, 0.0 ], [ 77.649726152612516, 10.0664822359509, 0.0 ], [ 77.649952809878243, 10.066599570351798, 0.0 ], [ 77.650002049942032, 10.066625060615024, 0.0 ], [ 77.650277979141151, 10.066756944515419, 0.0 ], [ 77.650786099132915, 10.066812757465812, 0.0 ], [ 77.6511617585453, 10.066813580145492, 0.0 ], [ 77.651221995238075, 10.066822550617132, 0.0 ], [ 77.651459975113369, 10.066857990672304, 0.0 ], [ 77.651890754266503, 10.066913634018249, 0.0 ], [ 77.652266439636776, 10.066903516060393, 0.0 ], [ 77.652520587924982, 10.06689312955416, 0.0 ], [ 77.652719707097162, 10.066784166756406, 0.0 ], [ 77.652775483292373, 10.066543608257064, 0.0 ], [ 77.653030142516059, 10.06630348575527, 0.0 ], [ 77.653328560018679, 10.066260374545038, 0.0 ], [ 77.654002751177188, 10.066163386566359, 0.0 ], [ 77.654798356496087, 10.066121357725649, 0.0 ], [ 77.655439549162338, 10.065958655117299, 0.0 ], [ 77.655746505427544, 10.065890279884684, 0.0 ], [ 77.655925933951153, 10.065850311757401, 0.0 ], [ 77.656356689895802, 10.065916887144226, 0.0 ], [ 77.656632693307927, 10.066015949666507, 0.0 ], [ 77.656820523247291, 10.066016357458693, 0.0 ], [ 77.657262542823958, 10.065984496369481, 0.0 ], [ 77.658803778244135, 10.065846234858611, 0.0 ], [ 77.660008138543958, 10.065826959647097, 0.0 ], [ 77.660195750424862, 10.065925827273588, 0.0 ], [ 77.66028375824493, 10.066101057614219, 0.0 ], [ 77.660283253082412, 10.066330795151828, 0.0 ], [ 77.660272380989682, 10.066368163250672, 0.0 ], [ 77.660238720091968, 10.066483857972003, 0.0 ], [ 77.660271574035164, 10.066615211642159, 0.0 ], [ 77.660318224382422, 10.06662791704656, 0.0 ], [ 77.660393038297286, 10.06664829290844, 0.0 ], [ 77.660580964768315, 10.066604940346906, 0.0 ], [ 77.661067301182982, 10.06651847070691, 0.0 ], [ 77.661520157361167, 10.066585086802661, 0.0 ], [ 77.661961920144847, 10.066673560140657, 0.0 ], [ 77.662425462673298, 10.066904296469716, 0.0 ], [ 77.662712251285143, 10.067123717079937, 0.0 ], [ 77.662756165402868, 10.067260000046531, 0.0 ], [ 77.662757692997445, 10.067264740779478, 0.0 ], [ 77.662811024521488, 10.067430249702511, 0.0 ], [ 77.662943295124137, 10.067572754582386, 0.0 ], [ 77.663012681117493, 10.067583755186945, 0.0 ], [ 77.663153153046494, 10.06760602590856, 0.0 ], [ 77.663363248706275, 10.067529896845997, 0.0 ], [ 77.663534923163695, 10.067417107616166, 0.0 ], [ 77.663661995714051, 10.067333621608384, 0.0 ], [ 77.663905386273825, 10.067328788536997, 0.0 ], [ 77.664159217580561, 10.067323748141007, 0.0 ], [ 77.66466758127126, 10.067270142990424, 0.0 ], [ 77.665187188868572, 10.067129038175324, 0.0 ], [ 77.665650980040823, 10.06700044786237, 0.0 ], [ 77.665448369347075, 10.066782258394596, 0.0 ], [ 77.665231343152186, 10.066556940450596, 0.0 ], [ 77.665017638153586, 10.066328986593703, 0.0 ], [ 77.664815230438649, 10.066092267944043, 0.0 ], [ 77.664635975769954, 10.065836051992335, 0.0 ], [ 77.664470309857109, 10.065568477603335, 0.0 ], [ 77.66429777042606, 10.065308032140138, 0.0 ], [ 77.664097897000488, 10.065073199368726, 0.0 ], [ 77.663871495373428, 10.064860880225524, 0.0 ], [ 77.663635469201665, 10.06465481406866, 0.0 ], [ 77.663390807739745, 10.064456586402571, 0.0 ], [ 77.663138491248503, 10.064267797121261, 0.0 ], [ 77.66287949908974, 10.064090042521627, 0.0 ], [ 77.662614815121856, 10.063924919799376, 0.0 ], [ 77.662341046202471, 10.063780113661437, 0.0 ], [ 77.662047438238972, 10.063670591524669, 0.0 ], [ 77.661743137336089, 10.063580043284617, 0.0 ], [ 77.66143901719704, 10.063489595768317, 0.0 ], [ 77.661145951524531, 10.063380382099126, 0.0 ], [ 77.660874268133171, 10.063234512063218, 0.0 ], [ 77.660622166579856, 10.063055500211306, 0.0 ], [ 77.660382598878016, 10.062855349794688, 0.0 ], [ 77.660149791379922, 10.06264364578783, 0.0 ], [ 77.659917974035409, 10.062429978560829, 0.0 ], [ 77.659681372297712, 10.062223937584747, 0.0 ], [ 77.659409275218138, 10.062051048317358, 0.0 ], [ 77.659240466174765, 10.061807012783561, 0.0 ], [ 77.659129618437362, 10.061516117175131, 0.0 ], [ 77.659043148622573, 10.061211462838912, 0.0 ], [ 77.658981012663787, 10.060904511634021, 0.0 ], [ 77.658958535008537, 10.060597846413657, 0.0 ], [ 77.658983502886599, 10.060285516363706, 0.0 ], [ 77.659022885997558, 10.059975554228629, 0.0 ], [ 77.659067408734018, 10.059668301750946, 0.0 ], [ 77.65911800998839, 10.05936165451692, 0.0 ], [ 77.659171025922262, 10.059055256395141, 0.0 ], [ 77.6592227944966, 10.058748752153406, 0.0 ], [ 77.659269647376561, 10.058441782962007, 0.0 ], [ 77.659307930616592, 10.058132966563392, 0.0 ], [ 77.659322364735544, 10.057820938685552, 0.0 ], [ 77.659284418741152, 10.057514838239399, 0.0 ], [ 77.659202657776746, 10.057212791037614, 0.0 ], [ 77.659085689253345, 10.056924468389695, 0.0 ], [ 77.658950177608745, 10.056643700046891, 0.0 ], [ 77.658802549398331, 10.056367645050955, 0.0 ], [ 77.658643559153177, 10.056099368291427, 0.0 ], [ 77.658231533858384, 10.055671437587023, 0.0 ], [ 77.658000615835931, 10.055453069603573, 0.0 ], [ 77.657711519770942, 10.055368964106606, 0.0 ], [ 77.657396591579527, 10.055402011493868, 0.0 ], [ 77.657091983108785, 10.055478003307428, 0.0 ], [ 77.656795028767874, 10.055589005728166, 0.0 ], [ 77.656497530336992, 10.055685313226661, 0.0 ], [ 77.656191930813179, 10.055702045113492, 0.0 ], [ 77.655879258121502, 10.055646169335375, 0.0 ], [ 77.655567301290148, 10.055601435258268, 0.0 ], [ 77.655255459572004, 10.055591126329659, 0.0 ], [ 77.65495765384685, 10.05562739483554, 0.0 ], [ 77.65494373206775, 10.05562909031039, 0.0 ], [ 77.654669194228177, 10.055621922713783, 0.0 ], [ 77.654541224700381, 10.055427446362671, 0.0 ], [ 77.654493101575554, 10.055354313251144, 0.0 ], [ 77.654343359058998, 10.055079749331128, 0.0 ], [ 77.654195166074203, 10.054804381417227, 0.0 ], [ 77.65402728063458, 10.054544009698532, 0.0 ], [ 77.653827292995345, 10.054307846829715, 0.0 ], [ 77.653607703732689, 10.05408653446608, 0.0 ], [ 77.653378435966317, 10.053872642408635, 0.0 ], [ 77.653149180790194, 10.053658915826418, 0.0 ], [ 77.652916748309508, 10.053447487911399, 0.0 ], [ 77.652674738048916, 10.053243334612318, 0.0 ], [ 77.652475645235086, 10.053009034239665, 0.0 ], [ 77.652332200670742, 10.052734544963357, 0.0 ], [ 77.652212169955931, 10.052442530598512, 0.0 ], [ 77.652101897784462, 10.052143598648343, 0.0 ], [ 77.651987739642664, 10.051848357515837, 0.0 ], [ 77.651856041123551, 10.051567412006648, 0.0 ], [ 77.65169315411606, 10.051311371422742, 0.0 ], [ 77.65149069783763, 10.05108584033934, 0.0 ], [ 77.651257241928477, 10.05088338675904, 0.0 ], [ 77.651001576361864, 10.050698743352484, 0.0 ], [ 77.650732381394391, 10.050526774990828, 0.0 ], [ 77.65045833818192, 10.050362343847269, 0.0 ], [ 77.650188123383487, 10.050200312994207, 0.0 ], [ 77.649916522729484, 10.050042856992377, 0.0 ], [ 77.649633211103946, 10.049902099602434, 0.0 ], [ 77.649340910754518, 10.049787159949631, 0.0 ], [ 77.649041614578948, 10.049706160710855, 0.0 ], [ 77.648731171306622, 10.049653857040084, 0.0 ], [ 77.648414488538094, 10.049626737983772, 0.0 ], [ 77.648099165544238, 10.049623756731194, 0.0 ], [ 77.647791219689282, 10.049651561070846, 0.0 ], [ 77.647491423490578, 10.049757161264097, 0.0 ], [ 77.647220227531704, 10.049914530031742, 0.0 ], [ 77.646976576907605, 10.050108463434924, 0.0 ], [ 77.646741303468673, 10.050317262631722, 0.0 ], [ 77.64649656106775, 10.050512134027883, 0.0 ], [ 77.646234402395919, 10.050687359734013, 0.0 ], [ 77.645964335086205, 10.050859103265225, 0.0 ], [ 77.645686810598022, 10.051008565193229, 0.0 ], [ 77.64556946246006, 10.051052959057984, 0.0 ], [ 77.645402058258469, 10.051116289585309, 0.0 ], [ 77.645097545115732, 10.051119872484264, 0.0 ], [ 77.64503953704525, 10.05110765789226, 0.0 ], [ 77.644779435122985, 10.051052881985072, 0.0 ], [ 77.644463148056047, 10.051018106100855, 0.0 ], [ 77.644143844662949, 10.050992100405267, 0.0 ], [ 77.643851579387103, 10.05090250184918, 0.0 ], [ 77.643586318054417, 10.050747717733145, 0.0 ], [ 77.643330211820057, 10.050569014348639, 0.0 ], [ 77.643081787594667, 10.050373934309732, 0.0 ], [ 77.642839564194787, 10.050170013935087, 0.0 ], [ 77.64260207122885, 10.049964763463208, 0.0 ], [ 77.642368240302289, 10.049758574998293, 0.0 ], [ 77.642137460775473, 10.04954882341957, 0.0 ], [ 77.64190903747226, 10.049336315418827, 0.0 ], [ 77.641682276116398, 10.049121853191139, 0.0 ], [ 77.64145648333016, 10.04890623983124, 0.0 ], [ 77.641230962139446, 10.048690278433696, 0.0 ], [ 77.641005020065904, 10.048474773891826, 0.0 ], [ 77.640982373730253, 10.04845340572291, 0.0 ], [ 77.64077796013504, 10.048260529300137, 0.0 ], [ 77.640549090768218, 10.048048346853818, 0.0 ], [ 77.640318857129841, 10.04783708621261, 0.0 ], [ 77.640088888791411, 10.04762363212501, 0.0 ], [ 77.639854127965862, 10.047416316809688, 0.0 ], [ 77.639608932306544, 10.047224452746377, 0.0 ], [ 77.639348493138698, 10.047055295665473, 0.0 ], [ 77.639074717024755, 10.046904258125153, 0.0 ], [ 77.638791813691455, 10.046767349833488, 0.0 ], [ 77.638503886745184, 10.046641155165275, 0.0 ], [ 77.638377367136343, 10.046589742030392, 0.0 ], [ 77.638214180040507, 10.046523428513581, 0.0 ], [ 77.637919378676543, 10.046419091867733, 0.0 ], [ 77.637620887394178, 10.046323492135514, 0.0 ], [ 77.637321593017191, 10.046229681155069, 0.0 ], [ 77.637024383268795, 10.046130704468624, 0.0 ], [ 77.636731126940106, 10.046021119379361, 0.0 ], [ 77.636584207138412, 10.045960916629213, 0.0 ], [ 77.636425440744631, 10.045870941977853, 0.0 ], [ 77.636392095794179, 10.045878511648084, 0.0 ], [ 77.636159010630024, 10.045765240673404, 0.0 ], [ 77.635892338261044, 10.045604316885886, 0.0 ], [ 77.635634369530749, 10.045428693679412, 0.0 ], [ 77.635380758015856, 10.045245505375931, 0.0 ], [ 77.635127707677839, 10.04506112906796, 0.0 ], [ 77.634871419780438, 10.044881950841557, 0.0 ], [ 77.634611037269678, 10.044698887543859, 0.0 ], [ 77.634341083274535, 10.044539295652157, 0.0 ], [ 77.634040823025657, 10.044482379358442, 0.0 ], [ 77.633721977387438, 10.044527351756017, 0.0 ], [ 77.633428146391964, 10.04463288899683, 0.0 ], [ 77.633143805942154, 10.044775643781179, 0.0 ], [ 77.632891540712251, 10.044959169330411, 0.0 ], [ 77.632661522011858, 10.045169304919682, 0.0 ], [ 77.632437409159309, 10.045391957273125, 0.0 ], [ 77.632225564858061, 10.045626782849922, 0.0 ], [ 77.632032355409081, 10.045873442605455, 0.0 ], [ 77.63186415160942, 10.046131600193405, 0.0 ], [ 77.631733626705625, 10.046408346768033, 0.0 ], [ 77.631636068250089, 10.046703595094982, 0.0 ], [ 77.631561947770024, 10.046975008353911, 0.0 ], [ 77.631553106690717, 10.047007382484878, 0.0 ], [ 77.631466370676605, 10.047309758838537, 0.0 ], [ 77.631357649835934, 10.047601115798955, 0.0 ], [ 77.631216217054885, 10.047882436325608, 0.0 ], [ 77.631028361270069, 10.048130444164769, 0.0 ], [ 77.630807253052467, 10.04834952710911, 0.0 ], [ 77.630579045586728, 10.048566420204224, 0.0 ], [ 77.630343332379027, 10.048776638531251, 0.0 ], [ 77.630099701540189, 10.048975688177677, 0.0 ], [ 77.629847742079733, 10.049159079727985, 0.0 ], [ 77.629586096021683, 10.04932144333003, 0.0 ], [ 77.629300254603265, 10.049445950870108, 0.0 ], [ 77.628995348456669, 10.0495357086063, 0.0 ], [ 77.628684397067445, 10.049601386095333, 0.0 ], [ 77.628375724560158, 10.049639234962854, 0.0 ], [ 77.628059361050873, 10.049618842835571, 0.0 ], [ 77.627744899607706, 10.049611107766623, 0.0 ], [ 77.627441061855734, 10.049672173532088, 0.0 ], [ 77.627141870900914, 10.049761338615042, 0.0 ], [ 77.626844689930749, 10.049863602323626, 0.0 ], [ 77.626547410934506, 10.049967679964539, 0.0 ], [ 77.626247929498561, 10.05006228234862, 0.0 ], [ 77.625944566588657, 10.050139224745578, 0.0 ], [ 77.625638874434799, 10.050210477131998, 0.0 ], [ 77.625331497850482, 10.050276294915193, 0.0 ], [ 77.62502268235113, 10.050333650977336, 0.0 ], [ 77.624712675250066, 10.050379511905192, 0.0 ], [ 77.624401721162656, 10.050410858674297, 0.0 ], [ 77.624089785015713, 10.050431885723185, 0.0 ], [ 77.623776888392797, 10.05044790804476, 0.0 ], [ 77.623463300191361, 10.050458963410676, 0.0 ], [ 77.623149291107211, 10.050465086894405, 0.0 ], [ 77.622835138131393, 10.050466312670324, 0.0 ], [ 77.622521110161358, 10.050462674912694, 0.0 ], [ 77.622207477892914, 10.050454209594307, 0.0 ], [ 77.621894515619601, 10.05044095268795, 0.0 ], [ 77.621582302481386, 10.0504225669481, 0.0 ], [ 77.62127020625519, 10.050397674613123, 0.0 ], [ 77.620958276403485, 10.050366664190278, 0.0 ], [ 77.620646662213915, 10.050330143621352, 0.0 ], [ 77.620335511175142, 10.050288714552778, 0.0 ], [ 77.620024970776058, 10.050242984026738, 0.0 ], [ 77.619715188505268, 10.050193555488363, 0.0 ], [ 77.619406314550076, 10.050141035080742, 0.0 ], [ 77.6190982517831, 10.050085598172018, 0.0 ], [ 77.618790398558247, 10.050025662854125, 0.0 ], [ 77.618483225220814, 10.049960535750245, 0.0 ], [ 77.618177312732939, 10.049889661079135, 0.0 ], [ 77.617873236660728, 10.049812481261085, 0.0 ], [ 77.617571577066883, 10.049728439615933, 0.0 ], [ 77.617272912215242, 10.049636980362436, 0.0 ], [ 77.616980184687861, 10.04952892322143, 0.0 ], [ 77.616694055486505, 10.04940113945122, 0.0 ], [ 77.61641095430241, 10.049264673625885, 0.0 ], [ 77.616127309028343, 10.049130583809642, 0.0 ], [ 77.615839543960078, 10.049009930763873, 0.0 ], [ 77.615532506420323, 10.048952129537327, 0.0 ], [ 77.615216878556396, 10.048942683058556, 0.0 ], [ 77.61490199802904, 10.048941400625324, 0.0 ], [ 77.614608703029376, 10.048847641805423, 0.0 ], [ 77.61432854442694, 10.048698639430711, 0.0 ], [ 77.61404088457931, 10.048577624857614, 0.0 ], [ 77.613734081762573, 10.048532784660438, 0.0 ], [ 77.61341830281259, 10.048522371410456, 0.0 ], [ 77.613104675940178, 10.048497187695261, 0.0 ], [ 77.612796900956369, 10.04844111136839, 0.0 ], [ 77.612490278004088, 10.048376514864401, 0.0 ], [ 77.612184745030049, 10.048305758903894, 0.0 ], [ 77.61193299217507, 10.048244078588084, 0.0 ], [ 77.611880249873877, 10.048231156542784, 0.0 ], [ 77.611577773695558, 10.048151156450899, 0.0 ], [ 77.611229501340574, 10.048026946586447, 0.0 ], [ 77.611173210975153, 10.048556846921088, 0.0 ], [ 77.611139167138958, 10.048865871063185, 0.0 ], [ 77.611108328486807, 10.049175004922688, 0.0 ], [ 77.611084008120656, 10.049484360914676, 0.0 ], [ 77.611071549812266, 10.049794100017891, 0.0 ], [ 77.611080355973797, 10.050104475841067, 0.0 ], [ 77.611096772198437, 10.050415159232386, 0.0 ], [ 77.611103737447763, 10.050725739201596, 0.0 ], [ 77.611094942078012, 10.051036115024772, 0.0 ], [ 77.611079915305993, 10.051346508834456, 0.0 ], [ 77.61106197293185, 10.051656890053664, 0.0 ], [ 77.611044383092064, 10.051967225407168, 0.0 ], [ 77.6110304130234, 10.052277476224788, 0.0 ], [ 77.611023331761601, 10.052587611029537, 0.0 ], [ 77.611032588483397, 10.052897684680545, 0.0 ], [ 77.611035879924827, 10.05292718817708, 0.0 ], [ 77.611067174610582, 10.053207704372255, 0.0 ], [ 77.611102321914871, 10.053517150296443, 0.0 ], [ 77.611110447289548, 10.053825518832809, 0.0 ], [ 77.611055439357301, 10.054132097718309, 0.0 ], [ 77.610969609859808, 10.054433234806027, 0.0 ], [ 77.610840318825751, 10.0547160580997, 0.0 ], [ 77.610654080789004, 10.054920257821323, 0.0 ], [ 77.610632134765353, 10.054944320424283, 0.0 ], [ 77.610397562797459, 10.055154341799664, 0.0 ], [ 77.610158297267787, 10.055356858332459, 0.0 ], [ 77.609909083437572, 10.0555474003923, 0.0 ], [ 77.609638542185223, 10.055702908462536, 0.0 ], [ 77.609345376688054, 10.055820023575336, 0.0 ], [ 77.60920988474021, 10.0558373350446, 0.0 ], [ 77.609039226779032, 10.055859139587824, 0.0 ], [ 77.608723388473834, 10.055847011330684, 0.0 ], [ 77.608412227542544, 10.055893624990972, 0.0 ], [ 77.608107012928599, 10.055968314586266, 0.0 ], [ 77.607827256322992, 10.056102839674395, 0.0 ], [ 77.6075893451723, 10.056309053320376, 0.0 ], [ 77.607382563154999, 10.056546455454793, 0.0 ], [ 77.607258317317701, 10.056827007960294, 0.0 ], [ 77.607187413868189, 10.05713362102, 0.0 ], [ 77.607153266610226, 10.057442503069183, 0.0 ], [ 77.607145580984593, 10.057587970167674, 0.0 ], [ 77.607136832399078, 10.057753556081877, 0.0 ], [ 77.607128910271229, 10.05806613074742, 0.0 ], [ 77.607121344274844, 10.058378479683313, 0.0 ], [ 77.607105977558945, 10.058688854607112, 0.0 ], [ 77.607074652373512, 10.058995511733656, 0.0 ], [ 77.606994132473403, 10.059290045099658, 0.0 ], [ 77.606841224343157, 10.059566774587211, 0.0 ], [ 77.606730550174859, 10.059856617988714, 0.0 ], [ 77.606660207003188, 10.060158215529441, 0.0 ], [ 77.606600547777191, 10.06046313336708, 0.0 ], [ 77.606545813238881, 10.060769670883701, 0.0 ], [ 77.606522392679722, 10.060898838183846, 0.0 ], [ 77.606490246827661, 10.06107612656217, 0.0 ], [ 77.606428086587186, 10.061380800683651, 0.0 ], [ 77.606361820941402, 10.061684820997812, 0.0 ], [ 77.606293448184317, 10.061988730695589, 0.0 ], [ 77.60621597518724, 10.062289785045721, 0.0 ], [ 77.606122439399257, 10.062585261800621, 0.0 ], [ 77.606011008901191, 10.062874996384153, 0.0 ], [ 77.605886325993254, 10.06316042771175, 0.0 ], [ 77.605752666952299, 10.063442214986367, 0.0 ], [ 77.605614125491684, 10.063720952659992, 0.0 ], [ 77.605454301574866, 10.063989722248095, 0.0 ], [ 77.605284538350986, 10.064253523081732, 0.0 ], [ 77.605139509181129, 10.064526600422369, 0.0 ], [ 77.605041134141118, 10.064818625579335, 0.0 ], [ 77.604973685887046, 10.065123083863341, 0.0 ], [ 77.604923990250086, 10.065432260890248, 0.0 ], [ 77.604884149384191, 10.065740467548665, 0.0 ], [ 77.604864810362983, 10.066051747190556, 0.0 ], [ 77.604849766503833, 10.066363298427632, 0.0 ], [ 77.604818640967721, 10.066670921426009, 0.0 ], [ 77.604730731338464, 10.066969299393804, 0.0 ], [ 77.604565140069383, 10.067234907864872, 0.0 ], [ 77.604322555141948, 10.067431460993305, 0.0 ], [ 77.604017303655837, 10.06748611998853, 0.0 ], [ 77.603699807900114, 10.067509014929215, 0.0 ], [ 77.603385484952355, 10.067524154116541, 0.0 ], [ 77.603075701782359, 10.067575828262022, 0.0 ], [ 77.602779950734373, 10.067685020347596, 0.0 ], [ 77.602549347474508, 10.067886311104473, 0.0 ], [ 77.602345258027469, 10.068126622545833, 0.0 ], [ 77.602149268774042, 10.068372561944273, 0.0 ], [ 77.601955245438319, 10.068622153489741, 0.0 ], [ 77.601822835555595, 10.068896246165025, 0.0 ], [ 77.601803005504394, 10.069210425221172, 0.0 ], [ 77.601812875564008, 10.06952626442569, 0.0 ], [ 77.601993186936284, 10.069768090325283, 0.0 ], [ 77.602224203884077, 10.06998744756288, 0.0 ], [ 77.602439177826, 10.070215117234113, 0.0 ], [ 77.602656025055751, 10.070441447814687, 0.0 ], [ 77.602870359579583, 10.070669582435414, 0.0 ], [ 77.603074678353948, 10.07090425422814, 0.0 ], [ 77.603261396496407, 10.071151485952498, 0.0 ], [ 77.603350713199234, 10.071313556805592, 0.0 ], [ 77.603414377471836, 10.071429079688585, 0.0 ], [ 77.603502034391795, 10.071725204854545, 0.0 ], [ 77.603525763003915, 10.072033159702869, 0.0 ], [ 77.603511890961386, 10.072347988069282, 0.0 ], [ 77.603475000771084, 10.072657019406108, 0.0 ], [ 77.603373228991643, 10.072953803775306, 0.0 ], [ 77.603195181212982, 10.07320524342731, 0.0 ], [ 77.602969222951629, 10.073424619550622, 0.0 ], [ 77.60262291741418, 10.073659531462624, 0.0 ], [ 77.602314941881446, 10.073712200258171, 0.0 ], [ 77.60200546627965, 10.073679352520458, 0.0 ], [ 77.601758583492199, 10.073484791390399, 0.0 ], [ 77.601540307239702, 10.073262356672672, 0.0 ], [ 77.601326077936562, 10.073034668115781, 0.0 ], [ 77.601109145271153, 10.072809705403643, 0.0 ], [ 77.600896730799889, 10.072572095525913, 0.0 ], [ 77.600684037538656, 10.072334029692058, 0.0 ], [ 77.600457869735237, 10.072123935471609, 0.0 ], [ 77.600198082575844, 10.071983277007007, 0.0 ], [ 77.599877244039988, 10.071968171993944, 0.0 ], [ 77.599557045821484, 10.07196921071079, 0.0 ], [ 77.599240627453355, 10.071979663530897, 0.0 ], [ 77.5989245715121, 10.071992388937758, 0.0 ], [ 77.598613634512049, 10.071983749151116, 0.0 ], [ 77.598316100108377, 10.071914903350432, 0.0 ], [ 77.598038788759538, 10.071759373696523, 0.0 ], [ 77.597900019290933, 10.071682720939691, 0.0 ], [ 77.597763401959753, 10.071607256969685, 0.0 ], [ 77.597491454167653, 10.071450883751652, 0.0 ], [ 77.597213661681565, 10.07130900580637, 0.0 ], [ 77.596918562641974, 10.071196891823377, 0.0 ], [ 77.596610884784923, 10.071144477535881, 0.0 ], [ 77.596299624028745, 10.071147600881375, 0.0 ], [ 77.595986125759453, 10.071170877134648, 0.0 ], [ 77.595672519571451, 10.07120446141704, 0.0 ], [ 77.595360607706255, 10.071239225610157, 0.0 ], [ 77.595049009704439, 10.071278057436814, 0.0 ], [ 77.594739322761882, 10.071328002185965, 0.0 ], [ 77.594433634205245, 10.071394337079255, 0.0 ], [ 77.594126515726543, 10.071472658136997, 0.0 ], [ 77.593830976019149, 10.071578924727874, 0.0 ], [ 77.593562347624584, 10.071731499209648, 0.0 ], [ 77.593307308885528, 10.07191145804768, 0.0 ], [ 77.593062265211813, 10.072108809774136, 0.0 ], [ 77.592826865867494, 10.072317331979662, 0.0 ], [ 77.59260258664051, 10.072533234021876, 0.0 ], [ 77.592401798604499, 10.072771209024438, 0.0 ], [ 77.592210374309616, 10.073018812168812, 0.0 ], [ 77.592007899145699, 10.073256101887864, 0.0 ], [ 77.59179320849023, 10.073483678928994, 0.0 ], [ 77.591572143440033, 10.07370577370267, 0.0 ], [ 77.591341001486455, 10.073914898454177, 0.0 ], [ 77.591089447620391, 10.074095187343403, 0.0 ], [ 77.590806372516397, 10.074232729657126, 0.0 ], [ 77.590526874915668, 10.074374963733703, 0.0 ], [ 77.590247095827067, 10.074516309280568, 0.0 ], [ 77.58996995085289, 10.074661669400939, 0.0 ], [ 77.589701861152435, 10.074820898865767, 0.0 ], [ 77.589444314204059, 10.074998887289212, 0.0 ], [ 77.589200073624795, 10.075194935897855, 0.0 ], [ 77.589179581993278, 10.075213889366694, 0.0 ], [ 77.588970867012165, 10.075406937580169, 0.0 ], [ 77.588741850156566, 10.075625229121101, 0.0 ], [ 77.588524492111958, 10.075853571485538, 0.0 ], [ 77.588335116472877, 10.076098125028807, 0.0 ], [ 77.588188285960996, 10.07636601867722, 0.0 ], [ 77.588080506710412, 10.076657953002268, 0.0 ], [ 77.58799773850518, 10.076962399595402, 0.0 ], [ 77.587925826016374, 10.077267283258777, 0.0 ], [ 77.587863977840755, 10.077571049964263, 0.0 ], [ 77.587815917171156, 10.077878178335311, 0.0 ], [ 77.587776030439727, 10.078186941674119, 0.0 ], [ 77.587738721165522, 10.078495625872677, 0.0 ], [ 77.587704446203588, 10.078804233628773, 0.0 ], [ 77.587674498779506, 10.079113365689693, 0.0 ], [ 77.587646511877495, 10.079422745064051, 0.0 ], [ 77.587618128374288, 10.079732091163407, 0.0 ], [ 77.587586989348495, 10.080041124298816, 0.0 ], [ 77.587579894688361, 10.080104705219981, 0.0 ], [ 77.587552547112807, 10.080349788711942, 0.0 ], [ 77.587516409654938, 10.08065827865704, 0.0 ], [ 77.587478910623531, 10.080966616616251, 0.0 ], [ 77.587467158528398, 10.081060645174716, 0.0 ], [ 77.587440389063033, 10.081274827771381, 0.0 ], [ 77.587400732558081, 10.081582910323164, 0.0 ], [ 77.587355332982611, 10.081890561200737, 0.0 ], [ 77.587306919778825, 10.082197968361811, 0.0 ], [ 77.58726065145828, 10.082505475347716, 0.0 ], [ 77.587221681136043, 10.082813428397287, 0.0 ], [ 77.587195161028149, 10.08312217554834, 0.0 ], [ 77.587181997651442, 10.08343197850337, 0.0 ], [ 77.587178604509347, 10.083742584553022, 0.0 ], [ 77.587182682934952, 10.084053586304321, 0.0 ], [ 77.587191925267518, 10.08436456827053, 0.0 ], [ 77.58720403553815, 10.084675122159467, 0.0 ], [ 77.587217172834585, 10.084986330754873, 0.0 ], [ 77.587243120973653, 10.085297801052775, 0.0 ], [ 77.587305630151093, 10.085600459793511, 0.0 ], [ 77.587397488703459, 10.085897300820136, 0.0 ], [ 77.587504148298251, 10.086191578778596, 0.0 ], [ 77.587627253795063, 10.086479020090735, 0.0 ], [ 77.587768468940055, 10.086755357474146, 0.0 ], [ 77.587938626966377, 10.087013779462666, 0.0 ], [ 77.587954346171898, 10.087033421094418, 0.0 ], [ 77.588134139579267, 10.087258078497882, 0.0 ], [ 77.588333955447979, 10.087500320783477, 0.0 ], [ 77.588517022343126, 10.087752568926192, 0.0 ], [ 77.588672843377424, 10.088020861873531, 0.0 ], [ 77.588821021972876, 10.088293959898635, 0.0 ], [ 77.588963995292431, 10.088570305375413, 0.0 ], [ 77.589102686040405, 10.088849207625174, 0.0 ], [ 77.589216456163513, 10.08908524834635, 0.0 ], [ 77.58923801242463, 10.089129971471323, 0.0 ], [ 77.589370896250159, 10.089411908033412, 0.0 ], [ 77.58950225752352, 10.089694323034848, 0.0 ], [ 77.589632956895912, 10.089976564467179, 0.0 ], [ 77.589758587688948, 10.090261247558885, 0.0 ], [ 77.589875531031282, 10.090549847197963, 0.0 ], [ 77.589877649626885, 10.09055559494783, 0.0 ], [ 77.589983126820243, 10.09084175454359, 0.0 ], [ 77.590081383149709, 10.09113645518363, 0.0 ], [ 77.590174212969998, 10.091434230605557, 0.0 ], [ 77.590257295038498, 10.091734874864926, 0.0 ], [ 77.590324373671308, 10.092037990461165, 0.0 ], [ 77.590368620316042, 10.092343926331409, 0.0 ], [ 77.590386617548745, 10.092654572850392, 0.0 ], [ 77.590385331518235, 10.092966744619901, 0.0 ], [ 77.590371472965558, 10.093276842552655, 0.0 ], [ 77.590326591399332, 10.093585185008578, 0.0 ], [ 77.590251846945534, 10.093886461491309, 0.0 ], [ 77.590114624790431, 10.094166594912792, 0.0 ], [ 77.589991428766211, 10.094376787464512, 0.0 ], [ 77.589956907985311, 10.094435685558778, 0.0 ], [ 77.589833431967634, 10.094722958697901, 0.0 ], [ 77.589839786342623, 10.094790512199722, 0.0 ], [ 77.589855289990055, 10.094955331823428, 0.0 ], [ 77.58934364139634, 10.095156951732292, 0.0 ], [ 77.589151811507293, 10.095093160121564, 0.0 ], [ 77.588064041922337, 10.095090978366329, 0.0 ], [ 77.583265455536662, 10.094891091450961, 0.0 ], [ 77.581728879563514, 10.094543986771214, 0.0 ], [ 77.579300144086801, 10.093995347807436, 0.0 ], [ 77.579249526978572, 10.094772285458532, 0.0 ], [ 77.579234057406154, 10.095009732713265, 0.0 ], [ 77.578653132358681, 10.094965901308626, 0.0 ], [ 77.577506691780854, 10.094879401163837, 0.0 ], [ 77.576738196810595, 10.095194870747093, 0.0 ], [ 77.575906639580069, 10.095066357626592, 0.0 ], [ 77.576099258174565, 10.094749713528586, 0.0 ], [ 77.576121246700041, 10.094652606612669, 0.0 ], [ 77.5762284179076, 10.094179311326513, 0.0 ], [ 77.574693412771069, 10.093859134691627, 0.0 ], [ 77.572837553810359, 10.09398214575981, 0.0 ], [ 77.572262742232112, 10.093473706846225, 0.0 ], [ 77.568561626418273, 10.093137574439879, 0.0 ], [ 77.568440239525728, 10.093376665500955, 0.0 ], [ 77.568309915170857, 10.093658968087254, 0.0 ], [ 77.568194105873602, 10.093948842065572, 0.0 ], [ 77.56811649078378, 10.094249043858611, 0.0 ], [ 77.56806095854688, 10.094554066017622, 0.0 ], [ 77.568012637073991, 10.09486087692818, 0.0 ], [ 77.567968150310207, 10.09516866450241, 0.0 ], [ 77.567924120402154, 10.09547662114926, 0.0 ], [ 77.567877170395377, 10.095783933881705, 0.0 ], [ 77.567819138043149, 10.096089660210055, 0.0 ], [ 77.5677540019459, 10.096394529484201, 0.0 ], [ 77.567708406318218, 10.096700993256604, 0.0 ], [ 77.567694752810894, 10.097010174780053, 0.0 ], [ 77.567694370599099, 10.097320400416493, 0.0 ], [ 77.567701411391454, 10.097631251981056, 0.0 ], [ 77.567710517027137, 10.097942349959737, 0.0 ], [ 77.567716335640796, 10.098253316637567, 0.0 ], [ 77.567714023483802, 10.098563866929169, 0.0 ], [ 77.567704612078614, 10.098874278725361, 0.0 ], [ 77.567691784148963, 10.099184632065374, 0.0 ], [ 77.567679270981898, 10.099494995298073, 0.0 ], [ 77.567670175238732, 10.099805835171196, 0.0 ], [ 77.567661953636673, 10.100116851311896, 0.0 ], [ 77.567651121302561, 10.100427540998282, 0.0 ], [ 77.567647111190468, 10.100500945455906, 0.0 ], [ 77.567634193363688, 10.100737404208246, 0.0 ], [ 77.567607514975293, 10.101045946313718, 0.0 ], [ 77.567551708444853, 10.10135200359241, 0.0 ], [ 77.56746632411199, 10.101651876233461, 0.0 ], [ 77.567350569673465, 10.10194090305049, 0.0 ], [ 77.567185117799397, 10.102203028447263, 0.0 ], [ 77.567043477749451, 10.102339316671532, 0.0 ], [ 77.566957911278905, 10.102421650039389, 0.0 ], [ 77.566684174735258, 10.102559136595232, 0.0 ], [ 77.566380982696501, 10.102645441833715, 0.0 ], [ 77.566099294347225, 10.102785660530117, 0.0 ], [ 77.565950768613504, 10.103049874152646, 0.0 ], [ 77.565928730726796, 10.103361942499987, 0.0 ], [ 77.565977297714539, 10.103666610326059, 0.0 ], [ 77.566101947347363, 10.103953411321129, 0.0 ], [ 77.56623359460508, 10.104237128540774, 0.0 ], [ 77.566250836407391, 10.104544155288806, 0.0 ], [ 77.566210813878286, 10.104854766734377, 0.0 ], [ 77.566001238566685, 10.105071086062139, 0.0 ], [ 77.565693831405611, 10.105126576031012, 0.0 ], [ 77.565379238661251, 10.105153926213063, 0.0 ], [ 77.56507607180356, 10.105086846680933, 0.0 ], [ 77.564775448228829, 10.105000116062854, 0.0 ], [ 77.564475776136533, 10.104905974131782, 0.0 ], [ 77.564176316284431, 10.104810840248433, 0.0 ], [ 77.563877116336243, 10.104716406936973, 0.0 ], [ 77.563579519879227, 10.104614499360025, 0.0 ], [ 77.563276774803626, 10.104541812554999, 0.0 ], [ 77.562962953677754, 10.104517478698995, 0.0 ], [ 77.562650209040271, 10.104530471204555, 0.0 ], [ 77.562351858052125, 10.104629656533461, 0.0 ], [ 77.562070428707727, 10.104763497238025, 0.0 ], [ 77.561827352750527, 10.104961462301958, 0.0 ], [ 77.56162082703986, 10.105195767171324, 0.0 ], [ 77.561483954721211, 10.105474070472269, 0.0 ], [ 77.561441042670424, 10.105782112554778, 0.0 ], [ 77.561440342997912, 10.106093924595314, 0.0 ], [ 77.561481765771191, 10.106402936146935, 0.0 ], [ 77.561568450523907, 10.106702189155101, 0.0 ], [ 77.561717277530647, 10.106972098184087, 0.0 ], [ 77.561895759681988, 10.107229393321973, 0.0 ], [ 77.562067875532478, 10.107490505183023, 0.0 ], [ 77.562219231432721, 10.107762308184078, 0.0 ], [ 77.562362250617639, 10.108038843418285, 0.0 ], [ 77.562502239986713, 10.108316904801598, 0.0 ], [ 77.562647512872729, 10.108593814153608, 0.0 ], [ 77.56279078566655, 10.108871737041341, 0.0 ], [ 77.562920856412688, 10.109153763535744, 0.0 ], [ 77.563025331554115, 10.109443894720243, 0.0 ], [ 77.563085267771214, 10.109750604906765, 0.0 ], [ 77.563107079028896, 10.110062230787378, 0.0 ], [ 77.563087998113019, 10.110370718034517, 0.0 ], [ 77.56303083450581, 10.110678257395989, 0.0 ], [ 77.562961265650245, 10.110981060927543, 0.0 ], [ 77.562876141221352, 10.111280437142739, 0.0 ], [ 77.562776705880651, 10.111574906656926, 0.0 ], [ 77.562669739617263, 10.11186736079037, 0.0 ], [ 77.5625530067162, 10.112156043167033, 0.0 ], [ 77.562421660731445, 10.112437512981103, 0.0 ], [ 77.562273104420569, 10.112710388873438, 0.0 ], [ 77.562113838982953, 10.112978133234549, 0.0 ], [ 77.561952407977685, 10.113244915320934, 0.0 ], [ 77.561797012322586, 10.113514782081836, 0.0 ], [ 77.561647981169813, 10.113788459270324, 0.0 ], [ 77.561501379985089, 10.114063698580935, 0.0 ], [ 77.56135387048505, 10.114338264299761, 0.0 ], [ 77.561202105393136, 10.114609918013684, 0.0 ], [ 77.561042744627343, 10.114876424907379, 0.0 ], [ 77.560868537853139, 10.115133946674462, 0.0 ], [ 77.560669082612378, 10.115375473999222, 0.0 ], [ 77.560450608509257, 10.115598753180279, 0.0 ], [ 77.560207714215039, 10.115796699358498, 0.0 ], [ 77.559948463051398, 10.115978728435834, 0.0 ], [ 77.559704063292315, 10.116169829874138, 0.0 ], [ 77.559571031078633, 10.116439700232377, 0.0 ], [ 77.559590684862656, 10.116747307941978, 0.0 ], [ 77.559747754155865, 10.11701589047135, 0.0 ], [ 77.559947198604732, 10.117256183026825, 0.0 ], [ 77.560126822894915, 10.117512953860057, 0.0 ], [ 77.560290155966243, 10.117780816032109, 0.0 ], [ 77.560563735128596, 10.117880560739536, 0.0 ], [ 77.560902539421136, 10.117833242010875, 0.0 ], [ 77.561201726778677, 10.117747961099838, 0.0 ], [ 77.561437437288305, 10.117541583777324, 0.0 ], [ 77.561694754909354, 10.117360759791495, 0.0 ], [ 77.561988376362933, 10.117257992462783, 0.0 ], [ 77.562298126257986, 10.117235726148124, 0.0 ], [ 77.562468889527963, 10.116564920035444, 0.0 ], [ 77.562936892224116, 10.116411426446575, 0.0 ], [ 77.565164997666841, 10.113961688481368, 0.0 ], [ 77.568088898684152, 10.112834964762101, 0.0 ], [ 77.568596190062522, 10.113213612618438, 0.0 ], [ 77.570100018083167, 10.112621158768889, 0.0 ], [ 77.570085596871593, 10.112558592812206, 0.0 ], [ 77.569955031029338, 10.112333253069437, 0.0 ], [ 77.569282685988583, 10.112020046328041, 0.0 ], [ 77.569073247736412, 10.111872406850864, 0.0 ], [ 77.56892522076032, 10.11163837076964, 0.0 ], [ 77.568907023253132, 10.111544486048501, 0.0 ], [ 77.5688825842862, 10.111527621658638, 0.0 ], [ 77.568899481502967, 10.111505576591867, 0.0 ], [ 77.568864802112444, 10.111326658409382, 0.0 ], [ 77.568926838712116, 10.11098928564428, 0.0 ], [ 77.569146247233334, 10.110643641514969, 0.0 ], [ 77.569936169646155, 10.10984463826685, 0.0 ], [ 77.570233994546356, 10.10960303946581, 0.0 ], [ 77.57065450556172, 10.109240575599244, 0.0 ], [ 77.570882307961767, 10.109033423176186, 0.0 ], [ 77.571399916371547, 10.108290393636423, 0.0 ], [ 77.571610192135495, 10.108100505995878, 0.0 ], [ 77.571881318343173, 10.108049240771834, 0.0 ], [ 77.572064889509306, 10.108049687830203, 0.0 ], [ 77.572195842933922, 10.108119244086254, 0.0 ], [ 77.572309270758183, 10.108206066386572, 0.0 ], [ 77.572501225204519, 10.108353662156446, 0.0 ], [ 77.572763089159537, 10.108510080477629, 0.0 ], [ 77.573068773337639, 10.108623334633535, 0.0 ], [ 77.573278662103917, 10.108589225764035, 0.0 ], [ 77.573567378400071, 10.108494728399933, 0.0 ], [ 77.575212832993486, 10.107685199723164, 0.0 ], [ 77.576172401008193, 10.107153042590369, 0.0 ], [ 77.576565988324887, 10.107067452154297, 0.0 ], [ 77.577326647466293, 10.107017367188121, 0.0 ], [ 77.578104937608828, 10.106906740787792, 0.0 ], [ 77.5786472235784, 10.106786887191959, 0.0 ], [ 77.578813610330769, 10.10666612566439, 0.0 ], [ 77.579085438057632, 10.106329254449918, 0.0 ], [ 77.579225792974682, 10.10613053842161, 0.0 ], [ 77.579423650965452, 10.10585648739152, 0.0 ], [ 77.579506480902694, 10.105741760513069, 0.0 ], [ 77.579769161301897, 10.10556930401242, 0.0 ], [ 77.58008397008183, 10.105526791766238, 0.0 ], [ 77.580599766613034, 10.105510726361047, 0.0 ], [ 77.580879953406964, 10.105497055962928, 0.0 ], [ 77.58110685202098, 10.105485985511166, 0.0 ], [ 77.581500393064289, 10.105417695566075, 0.0 ], [ 77.58171919090546, 10.105314368152278, 0.0 ], [ 77.581877011640245, 10.105124347356877, 0.0 ], [ 77.581931438984498, 10.105020786410932, 0.0 ], [ 77.582008750444118, 10.10487368300079, 0.0 ], [ 77.582184110407638, 10.104657739182926, 0.0 ], [ 77.582464164787496, 10.104528595927718, 0.0 ], [ 77.582918941890966, 10.10444314127227, 0.0 ], [ 77.583303572828925, 10.104444065671146, 0.0 ], [ 77.583696971092365, 10.104436357269947, 0.0 ], [ 77.584689863111805, 10.104419258198618, 0.0 ], [ 77.585135814547073, 10.104368400364592, 0.0 ], [ 77.585652159183439, 10.104127308561033, 0.0 ], [ 77.585888244012096, 10.103972303305625, 0.0 ], [ 77.585941101071285, 10.103937599161384, 0.0 ] ] ] } },
{ "type": "Feature", "properties": { "classification": "Non Command area (Tail end)", "detail": "Tail end" }, "geometry": { "type": "Polygon", "coordinates": [ [ [ 77.676632682449821, 10.077796125745882, 0.0 ], [ 77.672907981106377, 10.078831145159763, 0.0 ], [ 77.672344627761561, 10.083174806093647, 0.0 ], [ 77.670114586104077, 10.086618468571409, 0.0 ], [ 77.668921198033914, 10.087221898811565, 0.0 ], [ 77.668022014754001, 10.0899696652708, 0.0 ], [ 77.66683462825479, 10.09130384189808, 0.0 ], [ 77.668165758429993, 10.09622595804491, 0.0 ], [ 77.667991191636361, 10.097414917508639, 0.0 ], [ 77.667620867308585, 10.099937161526851, 0.0 ], [ 77.668872829571185, 10.101600225552867, 0.0 ], [ 77.66870961930691, 10.102711868384663, 0.0 ], [ 77.670025047713466, 10.103701564622076, 0.0 ], [ 77.671537719856204, 10.102684454166321, 0.0 ], [ 77.67291132322687, 10.107149427703193, 0.0 ], [ 77.673039386631714, 10.111487480057816, 0.0 ], [ 77.673785913886505, 10.112577606740192, 0.0 ], [ 77.676058378075595, 10.114249092537325, 0.0 ], [ 77.678369002790518, 10.114961082407463, 0.0 ], [ 77.679383466303562, 10.115273669958148, 0.0 ], [ 77.679768415659666, 10.116959360490988, 0.0 ], [ 77.684043126078066, 10.116000859684551, 0.0 ], [ 77.690291016390105, 10.112991173926648, 0.0 ], [ 77.694279595534695, 10.111069744170479, 0.0 ], [ 77.697291386569489, 10.109618823030415, 0.0 ], [ 77.699815648401056, 10.105468350649037, 0.0 ], [ 77.702976712308114, 10.103158737914228, 0.0 ], [ 77.701821377083263, 10.097276315871605, 0.0 ], [ 77.699910814016192, 10.094779919089721, 0.0 ], [ 77.700235448019072, 10.092438640888989, 0.0 ], [ 77.699501747775287, 10.089941851461573, 0.0 ], [ 77.698964515383295, 10.089078446934918, 0.0 ], [ 77.697877262801214, 10.087331065129399, 0.0 ], [ 77.694511293739879, 10.08653995417148, 0.0 ], [ 77.692182397608022, 10.085479957322828, 0.0 ], [ 77.68958031304021, 10.082943429684727, 0.0 ], [ 77.688306117286544, 10.082131677256179, 0.0 ], [ 77.686714812727459, 10.081984776146031, 0.0 ], [ 77.685543394111775, 10.082451053187715, 0.0 ], [ 77.683629858176872, 10.082352433604779, 0.0 ], [ 77.682505648080621, 10.082294488920999, 0.0 ], [ 77.680638762519123, 10.08292483645632, 0.0 ], [ 77.678973837598392, 10.082113494124775, 0.0 ], [ 77.677812940564706, 10.081189309124122, 0.0 ], [ 77.676656291059274, 10.07786444623879, 0.0 ], [ 77.676632682449821, 10.077796125745882, 0.0 ] ] ] } }
]
}
