{
"type": "FeatureCollection",
"name": "farmer_points",
"crs": { "type": "name", "properties": { "name": "urn:ogc:def:crs:OGC:1.3:CRS84" } },
"features": [
{ "type": "Feature", "properties": { "farmer": "Chandralekha", "village": "Vadugapatty", "habitation": "Melmangalam", "type": "Experimental", "command_area": "Command area", "crp": "Muthu Bala" }, "geometry": { "type": "Point", "coordinates": [ 77.558435, 10.116542 ] } },
{ "type": "Feature", "properties": { "farmer": "Ganeshan.S", "village": "Vadugapatty", "habitation": "Melmangalam", "type": "Experimental", "command_area": "Command area", "crp": "Muthu Bala" }, "geometry": { "type": "Point", "coordinates": [ 77.574952, 10.110015 ] } },
{ "type": "Feature", "properties": { "farmer": "Marimuthu.S", "village": "Vadugapatty", "habitation": "Melmangalam", "type": "Experimental", "command_area": "Command area", "crp": "Muthu Bala" }, "geometry": { "type": "Point", "coordinates": [ 77.581751, 10.112958 ] } },
{ "type": "Feature", "properties": { "farmer": "Masanam.R", "village": "Vadugapatty", "habitation": "Melmangalam", "type": "Experimental", "command_area": "Command area", "crp": "Muthu Bala" }, "geometry": { "type": "Point", "coordinates": [ 77.558967, 10.118438 ] } },
{ "type": "Feature", "properties": { "farmer": "Murugan.M", "village": "Vadugapatty", "habitation": "Melmangalam", "type": "Experimental", "command_area": "Command area", "crp": "Muthu Bala" }, "geometry": { "type": "Point", "coordinates": [ 77.581621, 10.112722 ] } },
{ "type": "Feature", "properties": { "farmer": "Muthuganeshan.P", "village": "Vadugapatty", "habitation": "Melmangalam", "type": "Experimental", "command_area": "Command area", "crp": "Muthu Bala" }, "geometry": { "type": "Point", "coordinates": [ 77.577432, 10.11381 ] } },
{ "type": "Feature", "properties": { "farmer": "Thangavel.P", "village": "Vadugapatty", "habitation": "Melmangalam", "type": "Experimental", "command_area": "Command area", "crp": "Muthu Bala" }, "geometry": { "type": "Point", "coordinates": [ 77.575845, 10.110663 ] } },
{ "type": "Feature", "properties": { "farmer": "Veerapathiran.M", "village": "Vadugapatty", "habitation": "Melmangalam", "type": "Experimental", "command_area": "Command area", "crp": "Muthu Bala" }, "geometry": { "type": "Point", "coordinates": [ 77.560598, 10.117303 ] } },
{ "type": "Feature", "properties": { "farmer": "Vetrivel.S", "village": "Vadugapatty", "habitation": "Melmangalam", "type": "Experimental", "command_area": "Command area", "crp": "Muthu Bala" }, "geometry": { "type": "Point", "coordinates": [ 77.57615, 10.111927 ] } },
{ "type": "Feature", "properties": { "farmer": "Balasubramani.V", "village": "Vadugapatty", "habitation": "Melmangalam", "type": "Control", "command_area": "Command area", "crp": "Muthu Bala" }, "geometry": { "type": "Point", "coordinates": [ 77.577302, 10.11409 ] } },
{ "type": "Feature", "properties": { "farmer": "Manikandan.G", "village": "Vadugapatty", "habitation": "Melmangalam", "type": "Control", "command_area": "Command area", "crp": "Muthu Bala" }, "geometry": { "type": "Point", "coordinates": [ 77.577357, 10.111687 ] } },
{ "type": "Feature", "properties": { "farmer": "Veeranan.V", "village": "Vadugapatty", "habitation": "Melmangalam", "type": "Control", "command_area": "Command area", "crp": "Muthu Bala" }, "geometry": { "type": "Point", "coordinates": [ 77.579077, 10.113235 ] } },
{ "type": "Feature", "properties": { "farmer": "Nallu.L", "village": "Thamaraikulam", "habitation": "Thamaraikulam", "type": "Control", "command_area": "Command area", "crp": "Muthu Bala" }, "geometry": { "type": "Point", "coordinates": [ 77.556387, 10.117553 ] } },
{ "type": "Feature", "properties": { "farmer": "Boominathan", "village": "Thamaraikulam", "habitation": "Thamaraikulam", "type": "Control", "command_area": "Command area", "crp": "Muthu Bala" }, "geometry": { "type": "Point", "coordinates": [ 77.555754, 10.115465 ] } },
{ "type": "Feature", "properties": { "farmer": "Virumandi.C", "village": "Thamaraikulam", "habitation": "Thamaraikulam", "type": "Control", "command_area": "Command area", "crp": "Muthu Bala" }, "geometry": { "type": "Point", "coordinates": [ 77.556024, 10.115802 ] } },
{ "type": "Feature", "properties": { "farmer": "Subramani.R", "village": "Thamaraikulam", "habitation": "Thamaraikulam", "type": "Control", "command_area": "Command area", "crp": "Muthu Bala" }, "geometry": { "type": "Point", "coordinates": [ 77.559332, 10.118485 ] } },
{ "type": "Feature", "properties": { "farmer": "Thirupathi", "village": "Thamaraikulam", "habitation": "Thamaraikulam", "type": "Control", "command_area": "Command area", "crp": "Muthu Bala" }, "geometry": { "type": "Point", "coordinates": [ 77.555878, 10.115647 ] } },
{ "type": "Feature", "properties": { "farmer": "Balan.M", "village": "Melmangalam", "habitation": "Melmangalam", "type": "Experimental", "command_area": "Command area", "crp": "Harish Pandi" }, "geometry": { "type": "Point", "coordinates": [ 77.58564, 10.109855 ] } },
{ "type": "Feature", "properties": { "farmer": "Kaveri.V", "village": "Melmangalam", "habitation": "Melmangalam", "type": "Experimental", "command_area": "Command area", "crp": "Harish Pandi" }, "geometry": { "type": "Point", "coordinates": [ 77.590427, 10.111214 ] } },
{ "type": "Feature", "properties": { "farmer": "Mani.M", "village": "Melmangalam", "habitation": "Melmangalam", "type": "Experimental", "command_area": "Command area", "crp": "Harish Pandi" }, "geometry": { "type": "Point", "coordinates": [ 77.594043, 10.108588 ] } },
{ "type": "Feature", "properties": { "farmer": "Muthusamy.V", "village": "Melmangalam", "habitation": "Melmangalam", "type": "Experimental", "command_area": "Command area", "crp": "Harish Pandi" }, "geometry": { "type": "Point", "coordinates": [ 77.579167, 10.114873 ] } },
{ "type": "Feature", "properties": { "farmer": "Nagan.A", "village": "Melmangalam", "habitation": "Melmangalam", "type": "Experimental", "command_area": "Command area", "crp": "Harish Pandi" }, "geometry": { "type": "Point", "coordinates": [ 77.584045, 10.109469 ] } },
{ "type": "Feature", "properties": { "farmer": "Narayanan.A", "village": "Melmangalam", "habitation": "Melmangalam", "type": "Experimental", "command_area": "Command area", "crp": "Harish Pandi" }, "geometry": { "type": "Point", "coordinates": [ 77.595042, 10.105532 ] } },
{ "type": "Feature", "properties": { "farmer": "Pandi.S", "village": "Melmangalam", "habitation": "Melmangalam", "type": "Experimental", "command_area": "Command area", "crp": "Harish Pandi" }, "geometry": { "type": "Point", "coordinates": [ 77.581795, 10.110695 ] } },
{ "type": "Feature", "properties": { "farmer": "Raja.M", "village": "Melmangalam", "habitation": "Melmangalam", "type": "Experimental", "command_area": "Command area", "crp": "Harish Pandi" }, "geometry": { "type": "Point", "coordinates": [ 77.59594, 10.108947 ] } },
{ "type": "Feature", "properties": { "farmer": "Raman.M", "village": "Melmangalam", "habitation": "Melmangalam", "type": "Experimental", "command_area": "Command area", "crp": "Harish Pandi" }, "geometry": { "type": "Point", "coordinates": [ 77.590167, 10.109995 ] } },
{ "type": "Feature", "properties": { "farmer": "Thanithu.M", "village": "Melmangalam", "habitation": "Melmangalam", "type": "Experimental", "command_area": "Command area", "crp": "Harish Pandi" }, "geometry": { "type": "Point", "coordinates": [ 77.579098, 10.11352 ] } },
{ "type": "Feature", "properties": { "farmer": "Venkatasubramanian.D (Subbiyah Iyer)", "village": "Melmangalam", "habitation": "Melmangalam", "type": "Experimental", "command_area": "Command area", "crp": "Harish Pandi" }, "geometry": { "type": "Point", "coordinates": [ 77.583732, 10.111025 ] } },
{ "type": "Feature", "properties": { "farmer": "Verraiyah.R", "village": "Melmangalam", "habitation": "Melmangalam", "type": "Experimental", "command_area": "Command area", "crp": "Harish Pandi" }, "geometry": { "type": "Point", "coordinates": [ 77.595543, 10.108746 ] } },
{ "type": "Feature", "properties": { "farmer": "Ayyamperumal.A", "village": "Melmangalam", "habitation": "Melmangalam", "type": "Experimental", "command_area": "Command area", "crp": "Harish Pandi" }, "geometry": { "type": "Point", "coordinates": [ 77.596622, 10.104127 ] } },
{ "type": "Feature", "properties": { "farmer": "Aathimoolam.R", "village": "Melmangalam", "habitation": "Melmangalam", "type": "Control", "command_area": "Command area", "crp": "Harish Pandi" }, "geometry": { "type": "Point", "coordinates": [ 77.586425, 10.106668 ] } },
{ "type": "Feature", "properties": { "farmer": "Sakthivel.S", "village": "Melmangalam", "habitation": "Melmangalam", "type": "Control", "command_area": "Command area", "crp": "Harish Pandi" }, "geometry": { "type": "Point", "coordinates": [ 77.585677, 10.111541 ] } },
{ "type": "Feature", "properties": { "farmer": "Sevalkodi Balamurugan.M", "village": "Melmangalam", "habitation": "Melmangalam", "type": "Control", "command_area": "Command area", "crp": "Harish Pandi" }, "geometry": { "type": "Point", "coordinates": [ 77.597245, 10.104097 ] } },
{ "type": "Feature", "properties": { "farmer": "Shanmugam.R", "village": "Melmangalam", "habitation": "Melmangalam", "type": "Control", "command_area": "Command area", "crp": "Harish Pandi" }, "geometry": { "type": "Point", "coordinates": [ 77.593412, 10.102452 ] } },
{ "type": "Feature", "properties": { "farmer": "Bommaiyan.R", "village": "Jeyamangalam", "habitation": "Jeyamangalam", "type": "Experimental", "command_area": "Command area", "crp": "Balamurugan" }, "geometry": { "type": "Point", "coordinates": [ 77.607863, 10.110592 ] } },
{ "type": "Feature", "properties": { "farmer": "Kalaimani.M", "village": "Jeyamangalam", "habitation": "Jeyamangalam", "type": "Experimental", "command_area": "Command area", "crp": "Balamurugan" }, "geometry": { "type": "Point", "coordinates": [ 77.603777, 10.100673 ] } },
{ "type": "Feature", "properties": { "farmer": "Kanagaraj.L", "village": "Jeyamangalam", "habitation": "Jeyamangalam", "type": "Experimental", "command_area": "Command area", "crp": "Balamurugan" }, "geometry": { "type": "Point", "coordinates": [ 77.608742, 10.109008 ] } },
{ "type": "Feature", "properties": { "farmer": "Kesavaraj.L", "village": "Jeyamangalam", "habitation": "Jeyamangalam", "type": "Experimental", "command_area": "Command area", "crp": "Balamurugan" }, "geometry": { "type": "Point", "coordinates": [ 77.606918, 10.109415 ] } },
{ "type": "Feature", "properties": { "farmer": "Manoharan.A", "village": "Jeyamangalam", "habitation": "Jeyamangalam", "type": "Experimental", "command_area": "Command area", "crp": "Balamurugan" }, "geometry": { "type": "Point", "coordinates": [ 77.601551, 10.100803 ] } },
{ "type": "Feature", "properties": { "farmer": "Moorthi.S", "village": "Jeyamangalam", "habitation": "Jeyamangalam", "type": "Experimental", "command_area": "Command area", "crp": "Balamurugan" }, "geometry": { "type": "Point", "coordinates": [ 77.606613, 10.110667 ] } },
{ "type": "Feature", "properties": { "farmer": "Murugan.R", "village": "Jeyamangalam", "habitation": "Jeyamangalam", "type": "Experimental", "command_area": "Command area", "crp": "Balamurugan" }, "geometry": { "type": "Point", "coordinates": [ 77.606902, 10.107264 ] } },
{ "type": "Feature", "properties": { "farmer": "Murugan.S", "village": "Jeyamangalam", "habitation": "Jeyamangalam", "type": "Experimental", "command_area": "Command area", "crp": "Balamurugan" }, "geometry": { "type": "Point", "coordinates": [ 77.619067, 10.105141 ] } },
{ "type": "Feature", "properties": { "farmer": "Nadarajan Angudevar", "village": "Jeyamangalam", "habitation": "Jeyamangalam", "type": "Experimental", "command_area": "Command area", "crp": "Balamurugan" }, "geometry": { "type": "Point", "coordinates": [ 77.609793, 10.103726 ] } },
{ "type": "Feature", "properties": { "farmer": "Pandiselvam", "village": "Jeyamangalam", "habitation": "Jeyamangalam", "type": "Experimental", "command_area": "Command area", "crp": "Balamurugan" }, "geometry": { "type": "Point", "coordinates": [ 77.606883, 10.107791 ] } },
{ "type": "Feature", "properties": { "farmer": "Ravi.L", "village": "Jeyamangalam", "habitation": "Jeyamangalam", "type": "Experimental", "command_area": "Command area", "crp": "Balamurugan" }, "geometry": { "type": "Point", "coordinates": [ 77.607805, 10.108983 ] } },
{ "type": "Feature", "properties": { "farmer": "Veeramani Pazhanisamy", "village": "Jeyamangalam", "habitation": "Jeyamangalam", "type": "Experimental", "command_area": "Command area", "crp": "Balamurugan" }, "geometry": { "type": "Point", "coordinates": [ 77.621199, 10.102173 ] } },
{ "type": "Feature", "properties": { "farmer": "Azhaguraja.M", "village": "Jeyamangalam", "habitation": "Jeyamangalam", "type": "Control", "command_area": "Command area", "crp": "Balamurugan" }, "geometry": { "type": "Point", "coordinates": [ 77.605638, 10.101467 ] } },
{ "type": "Feature", "properties": { "farmer": "Muthuchamy", "village": "Jeyamangalam", "habitation": "Jeyamangalam", "type": "Control", "command_area": "Command area", "crp": "Balamurugan" }, "geometry": { "type": "Point", "coordinates": [ 77.61274, 10.10307 ] } },
{ "type": "Feature", "properties": { "farmer": "Pandi.P", "village": "Jeyamangalam", "habitation": "Jeyamangalam", "type": "Control", "command_area": "Command area", "crp": "Balamurugan" }, "geometry": { "type": "Point", "coordinates": [ 77.609799, 10.103063 ] } },
{ "type": "Feature", "properties": { "farmer": "Subburaj.R", "village": "Jeyamangalam", "habitation": "Jeyamangalam", "type": "Control", "command_area": "Command area", "crp": "Balamurugan" }, "geometry": { "type": "Point", "coordinates": [ 77.603051, 10.102095 ] } },
{ "type": "Feature", "properties": { "farmer": "Vignesh Muthuprakash.M", "village": "Jeyamangalam", "habitation": "Jeyamangalam", "type": "Control", "command_area": "Command area", "crp": "Balamurugan" }, "geometry": { "type": "Point", "coordinates": [ 77.607402, 10.11094 ] } },
{ "type": "Feature", "properties": { "farmer": "Balakrishnan.T", "village": "Jeyamangalam", "habitation": "Jeyamangalam", "type": "Experimental", "command_area": "Command area", "crp": "Saravanan" }, "geometry": { "type": "Point", "coordinates": [ 77.618903, 10.105317 ] } },
{ "type": "Feature", "properties": { "farmer": "Balakrishnan Sappani", "village": "Jeyamangalam", "habitation": "Jeyamangalam", "type": "Experimental", "command_area": "Command area", "crp": "Saravanan" }, "geometry": { "type": "Point", "coordinates": [ 77.60801, 10.106087 ] } },
{ "type": "Feature", "properties": { "farmer": "Mohan", "village": "Jeyamangalam", "habitation": "Jeyamangalam", "type": "Experimental", "command_area": "Command area", "crp": "Saravanan" }, "geometry": { "type": "Point", "coordinates": [ 77.615717, 10.106154 ] } },
{ "type": "Feature", "properties": { "farmer": "Palanisamy.P", "village": "Jeyamangalam", "habitation": "Jeyamangalam", "type": "Experimental", "command_area": "Command area", "crp": "Saravanan" }, "geometry": { "type": "Point", "coordinates": [ 77.612953, 10.102888 ] } },
{ "type": "Feature", "properties": { "farmer": "Pandi.V", "village": "Jeyamangalam", "habitation": "Jeyamangalam", "type": "Experimental", "command_area": "Command area", "crp": "Saravanan" }, "geometry": { "type": "Point", "coordinates": [ 77.63115, 10.099725 ] } },
{ "type": "Feature", "properties": { "farmer": "Ponraj (Pavunraj)", "village": "Jeyamangalam", "habitation": "Jeyamangalam", "type": "Experimental", "command_area": "Command area", "crp": "Saravanan" }, "geometry": { "type": "Point", "coordinates": [ 77.620557, 10.101871 ] } },
{ "type": "Feature", "properties": { "farmer": "Prasanth.K", "village": "Jeyamangalam", "habitation": "Jeyamangalam", "type": "Experimental", "command_area": "Command area", "crp": "Saravanan" }, "geometry": { "type": "Point", "coordinates": [ 77.603057, 10.101688 ] } },
{ "type": "Feature", "properties": { "farmer": "Rajendran.V", "village": "Jeyamangalam", "habitation": "Jeyamangalam", "type": "Experimental", "command_area": "Command area", "crp": "Saravanan" }, "geometry": { "type": "Point", "coordinates": [ 77.604194, 10.099894 ] } },
{ "type": "Feature", "properties": { "farmer": "Rajalakshmi.S", "village": "Jeyamangalam", "habitation": "Jeyamangalam", "type": "Experimental", "command_area": "Command area", "crp": "Saravanan" }, "geometry": { "type": "Point", "coordinates": [ 77.6217, 10.101055 ] } },
{ "type": "Feature", "properties": { "farmer": "Sakthivel.S", "village": "Jeyamangalam", "habitation": "Jeyamangalam", "type": "Experimental", "command_area": "Command area", "crp": "Saravanan" }, "geometry": { "type": "Point", "coordinates": [ 77.619568, 10.105743 ] } },
{ "type": "Feature", "properties": { "farmer": "Mani.N", "village": "Jeyamangalam", "habitation": "Jeyamangalam", "type": "Experimental", "command_area": "Command area", "crp": "Saravanan" }, "geometry": { "type": "Point", "coordinates": [ 77.613466, 10.101959 ] } },
{ "type": "Feature", "properties": { "farmer": "Sundararaj Solaimalai Pillai", "village": "Jeyamangalam", "habitation": "Jeyamangalam", "type": "Experimental", "command_area": "Command area", "crp": "Saravanan" }, "geometry": { "type": "Point", "coordinates": [ 77.630992, 10.100157 ] } },
{ "type": "Feature", "properties": { "farmer": "Chella Mani", "village": "Silvarpatty", "habitation": "Silvarpatty", "type": "Control", "command_area": "Command area", "crp": "Saravanan" }, "geometry": { "type": "Point", "coordinates": [ 77.618425, 10.110579 ] } },
{ "type": "Feature", "properties": { "farmer": "Karthik", "village": "Silvarpatty", "habitation": "Silvarpatty", "type": "Control", "command_area": "Command area", "crp": "Saravanan" }, "geometry": { "type": "Point", "coordinates": [ 77.617503, 10.109531 ] } },
{ "type": "Feature", "properties": { "farmer": "Chinna Kamatchi", "village": "Silvarpatty", "habitation": "Silvarpatty", "type": "Control", "command_area": "Command area", "crp": "Saravanan" }, "geometry": { "type": "Point", "coordinates": [ 77.617143, 10.110117 ] } },
{ "type": "Feature", "properties": { "farmer": "Raman", "village": "Silvarpatty", "habitation": "Silvarpatty", "type": "Control", "command_area": "Command area", "crp": "Saravanan" }, "geometry": { "type": "Point", "coordinates": [ 77.618087, 10.110398 ] } },
{ "type": "Feature", "properties": { "farmer": "Perumal", "village": "Silvarpatty", "habitation": "Silvarpatty", "type": "Control", "command_area": "Command area", "crp": "Saravanan" }, "geometry": { "type": "Point", "coordinates": [ 77.617592, 10.110027 ] } },
{ "type": "Feature", "properties": { "farmer": "Jeyaganthi.A", "village": "A.Vadipatty", "habitation": "Gullapuram", "type": "Experimental", "command_area": "Non Command area", "crp": "Devaraj" }, "geometry": { "type": "Point", "coordinates": [ 77.682486, 10.085364 ] } },
{ "type": "Feature", "properties": { "farmer": "Kaamiyasamy.T", "village": "A.Vadipatty", "habitation": "Gullapuram", "type": "Experimental", "command_area": "Non Command area", "crp": "Devaraj" }, "geometry": { "type": "Point", "coordinates": [ 77.669327, 10.081858 ] } },
{ "type": "Feature", "properties": { "farmer": "Karthik Arjunan.V", "village": "A.Vadipatty", "habitation": "Gullapuram", "type": "Experimental", "command_area": "Non Command area", "crp": "Devaraj" }, "geometry": { "type": "Point", "coordinates": [ 77.676622, 10.083787 ] } },
{ "type": "Feature", "properties": { "farmer": "Krishnasamy.B", "village": "A.Vadipatty", "habitation": "Gullapuram", "type": "Experimental", "command_area": "Non Command area", "crp": "Devaraj" }, "geometry": { "type": "Point", "coordinates": [ 77.692088, 10.102559 ] } },
{ "type": "Feature", "properties": { "farmer": "Muniammal.T", "village": "A.Vadipatty", "habitation": "Gullapuram", "type": "Experimental", "command_area": "Non Command area", "crp": "Devaraj" }, "geometry": { "type": "Point", "coordinates": [ 77.694563, 10.090278 ] } },
{ "type": "Feature", "properties": { "farmer": "Navaneethan.T", "village": "A.Vadipatty", "habitation": "Gullapuram", "type": "Experimental", "command_area": "Non Command area", "crp": "Devaraj" }, "geometry": { "type": "Point", "coordinates": [ 77.683523, 10.099778 ] } },
{ "type": "Feature", "properties": { "farmer": "Parvathi.C", "village": "A.Vadipatty", "habitation": "Gullapuram", "type": "Experimental", "command_area": "Non Command area", "crp": "Devaraj" }, "geometry": { "type": "Point", "coordinates": [ 77.669995, 10.082633 ] } },
{ "type": "Feature", "properties": { "farmer": "Poomalai.M", "village": "A.Vadipatty", "habitation": "Gullapuram", "type": "Experimental", "command_area": "Non Command area", "crp": "Devaraj" }, "geometry": { "type": "Point", "coordinates": [ 77.68342, 10.107063 ] } },
{ "type": "Feature", "properties": { "farmer": "Raman.P", "village": "A.Vadipatty", "habitation": "Gullapuram", "type": "Experimental", "command_area": "Non Command area", "crp": "Devaraj" }, "geometry": { "type": "Point", "coordinates": [ 77.68996, 10.08875 ] } },
{ "type": "Feature", "properties": { "farmer": "Surulivel.S", "village": "A.Vadipatty", "habitation": "Gullapuram", "type": "Experimental", "command_area": "Non Command area", "crp": "Devaraj" }, "geometry": { "type": "Point", "coordinates": [ 77.675903, 10.080393 ] } },
{ "type": "Feature", "properties": { "farmer": "Ulaganathan.P", "village": "A.Vadipatty", "habitation": "Gullapuram", "type": "Experimental", "command_area": "Non Command area", "crp": "Devaraj" }, "geometry": { "type": "Point", "coordinates": [ 77.6878, 10.08592 ] } },
{ "type": "Feature", "properties": { "farmer": "Vetrivel.M", "village": "A.Vadipatty", "habitation": "Gullapuram", "type": "Experimental", "command_area": "Non Command area", "crp": "Devaraj" }, "geometry": { "type": "Point", "coordinates": [ 77.683359, 10.086219 ] } },
{ "type": "Feature", "properties": { "farmer": "Kaaturaja.B", "village": "A.Vadipatty", "habitation": "Gullapuram", "type": "Control", "command_area": "Non Command area", "crp": "Devaraj" }, "geometry": { "type": "Point", "coordinates": [ 77.686417, 10.08536 ] } },
{ "type": "Feature", "properties": { "farmer": "Pandirajan.S", "village": "A.Vadipatty", "habitation": "Gullapuram", "type": "Control", "command_area": "Non Command area", "crp": "Devaraj" }, "geometry": { "type": "Point", "coordinates": [ 77.678585, 10.084016 ] } },
{ "type": "Feature", "properties": { "farmer": "Sundaramahalingam.K", "village": "A.Vadipatty", "habitation": "Gullapuram", "type": "Control", "command_area": "Non Command area", "crp": "Devaraj" }, "geometry": { "type": "Point", "coordinates": [ 77.669493, 10.082682 ] } },
{ "type": "Feature", "properties": { "farmer": "Thangavel.K", "village": "A.Vadipatty", "habitation": "Gullapuram", "type": "Control", "command_area": "Non Command area", "crp": "Devaraj" }, "geometry": { "type": "Point", "coordinates": [ 77.69621, 10.092467 ] } },
{ "type": "Feature", "properties": { "farmer": "Chinnaponnu.M", "village": "Gullapuram", "habitation": "Gullapuram", "type": "Experimental", "command_area": "Command area", "crp": "Marichamy" }, "geometry": { "type": "Point", "coordinates": [ 77.649592, 10.07165 ] } },
{ "type": "Feature", "properties": { "farmer": "Ganeshan.K", "village": "Gullapuram", "habitation": "Gullapuram", "type": "Experimental", "command_area": "Command area", "crp": "Marichamy" }, "geometry": { "type": "Point", "coordinates": [ 77.662209, 10.073701 ] } },
{ "type": "Feature", "properties": { "farmer": "Gopinathan.P", "village": "Gullapuram", "habitation": "Gullapuram", "type": "Experimental", "command_area": "Command area", "crp": "Marichamy" }, "geometry": { "type": "Point", "coordinates": [ 77.64891, 10.07169 ] } },
{ "type": "Feature", "properties": { "farmer": "Kannagaraj.M", "village": "Gullapuram", "habitation": "Gullapuram", "type": "Experimental", "command_area": "Command area", "crp": "Marichamy" }, "geometry": { "type": "Point", "coordinates": [ 77.666153, 10.073185 ] } },
{ "type": "Feature", "properties": { "farmer": "Muthueswari.K", "village": "Gullapuram", "habitation": "Gullapuram", "type": "Experimental", "command_area": "Command area", "crp": "Marichamy" }, "geometry": { "type": "Point", "coordinates": [ 77.664458, 10.074585 ] } },
{ "type": "Feature", "properties": { "farmer": "Rajendran.S", "village": "Gullapuram", "habitation": "Gullapuram", "type": "Experimental", "command_area": "Command area", "crp": "Marichamy" }, "geometry": { "type": "Point", "coordinates": [ 77.666517, 10.075215 ] } },
{ "type": "Feature", "properties": { "farmer": "Rekhadevi.B", "village": "Gullapuram", "habitation": "Gullapuram", "type": "Experimental", "command_area": "Command area", "crp": "Marichamy" }, "geometry": { "type": "Point", "coordinates": [ 77.657612, 10.072288 ] } },
{ "type": "Feature", "properties": { "farmer": "Selvakumar.V", "village": "Gullapuram", "habitation": "Gullapuram", "type": "Experimental", "command_area": "Command area", "crp": "Marichamy" }, "geometry": { "type": "Point", "coordinates": [ 77.661318, 10.074766 ] } },
{ "type": "Feature", "properties": { "farmer": "Sivanathavalli.M", "village": "Gullapuram", "habitation": "Gullapuram", "type": "Experimental", "command_area": "Command area", "crp": "Marichamy" }, "geometry": { "type": "Point", "coordinates": [ 77.663275, 10.074389 ] } },
{ "type": "Feature", "properties": { "farmer": "Soundhram.K", "village": "Gullapuram", "habitation": "Gullapuram", "type": "Experimental", "command_area": "Command area", "crp": "Marichamy" }, "geometry": { "type": "Point", "coordinates": [ 77.658285, 10.074095 ] } },
{ "type": "Feature", "properties": { "farmer": "Thittadiyan.P", "village": "Gullapuram", "habitation": "Gullapuram", "type": "Experimental", "command_area": "Command area", "crp": "Marichamy" }, "geometry": { "type": "Point", "coordinates": [ 77.658337, 10.074313 ] } },
{ "type": "Feature", "properties": { "farmer": "Thiyagarajan.R", "village": "Gullapuram", "habitation": "Gullapuram", "type": "Experimental", "command_area": "Command area", "crp": "Marichamy" }, "geometry": { "type": "Point", "coordinates": [ 77.666725, 10.073237 ] } },
{ "type": "Feature", "properties": { "farmer": "Soundara Rajan.M", "village": "Gullapuram", "habitation": "Gullapuram", "type": "Control", "command_area": "Command area", "crp": "Marichamy" }, "geometry": { "type": "Point", "coordinates": [ 77.657587, 10.072831 ] } },
{ "type": "Feature", "properties": { "farmer": "Rajasekeran.M", "village": "Gullapuram", "habitation": "Gullapuram", "type": "Control", "command_area": "Command area", "crp": "Marichamy" }, "geometry": { "type": "Point", "coordinates": [ 77.657644, 10.072293 ] } },
{ "type": "Feature", "properties": { "farmer": "Thangamuthu.P", "village": "Gullapuram", "habitation": "Gullapuram", "type": "Control", "command_area": "Command area", "crp": "Marichamy" }, "geometry": { "type": "Point", "coordinates": [ 77.658167, 10.073872 ] } },
{ "type": "Feature", "properties": { "farmer": "Kaaliappan.K", "village": "Gullapuram", "habitation": "Gullapuram", "type": "Control", "command_area": "Command area", "crp": "Marichamy" }, "geometry": { "type": "Point", "coordinates": [ 77.661775, 10.073556 ] } }
]
}
