{
"type": "FeatureCollection",
"name": "gp_boundary",
"crs": { "type": "name", "properties": { "name": "urn:ogc:def:crs:OGC:1.3:CRS84" } },
"features": [
{ "type": "Feature", "properties": { "village": "VADUGAPATTI_TP", "gp_type": "TOWN PANCHAYAT" }, "geometry": { "type": "Polygon", "coordinates": [ [ [ 77.567013733097383, 10.110693019767099, 0.0 ], [ 77.5694972639876, 10.10755151608962, 0.0 ], [ 77.57127699353849, 10.10686292408473, 0.0 ], [ 77.572420169455299, 10.106865277610501, 0.0 ], [ 77.573055926289996, 10.106551918736089, 0.0 ], [ 77.573308912776156, 10.10705590240805, 0.0 ], [ 77.574134671178172, 10.10699466487193, 0.0 ], [ 77.576231938753025, 10.106306698795141, 0.0 ], [ 77.578264774399884, 10.10605911633521, 0.0 ], [ 77.580043699057498, 10.105748072315739, 0.0 ], [ 77.580869063556534, 10.10587561596695, 0.0 ], [ 77.580740352585281, 10.106693485516031, 0.0 ], [ 77.58073891996527, 10.107385744956201, 0.0 ], [ 77.581755080132879, 10.107387807101659, 0.0 ], [ 77.582455769817955, 10.10638229940367, 0.0 ], [ 77.58340945408311, 10.105880765485001, 0.0 ], [ 77.585313582355965, 10.10645101030592, 0.0 ], [ 77.585316039303848, 10.10525528520327, 0.0 ], [ 77.587539006919712, 10.10519682747166, 0.0 ], [ 77.587791629180387, 10.10588960042474, 0.0 ], [ 77.589886681725034, 10.106271404002131, 0.0 ], [ 77.593443749529456, 10.106026777613749, 0.0 ], [ 77.594460164205245, 10.105902934672759, 0.0 ], [ 77.59623716970971, 10.106535798388441, 0.0 ], [ 77.597124786180032, 10.107292756855299, 0.0 ], [ 77.597184993992371, 10.108929139867961, 0.0 ], [ 77.597053146185814, 10.111320341860329, 0.0 ], [ 77.596416891126694, 10.11188547943139, 0.0 ], [ 77.59666940996533, 10.11264117794803, 0.0 ], [ 77.598448232999601, 10.112392968660631, 0.0 ], [ 77.598733516838351, 10.1125895127958, 0.0 ], [ 77.599272737746716, 10.11296099935068, 0.0 ], [ 77.600989691920802, 10.11189452301387, 0.0 ], [ 77.60467283838085, 10.112153492689581, 0.0 ], [ 77.604673190015774, 10.111977280427199, 0.0 ], [ 77.606451154197501, 10.112156973065931, 0.0 ], [ 77.608609914715842, 10.112475851978999, 0.0 ], [ 77.610133814124268, 10.112667616217569, 0.0 ], [ 77.610319191377656, 10.112727443616681, 0.0 ], [ 77.610319609562382, 10.11258638495377, 0.0 ], [ 77.610222498969222, 10.11197369752818, 0.0 ], [ 77.610161214668381, 10.111668612416571, 0.0 ], [ 77.610024639125868, 10.11106100436189, 0.0 ], [ 77.609866324271479, 10.11046025813449, 0.0 ], [ 77.609773892850924, 10.11016323454569, 0.0 ], [ 77.60963058228559, 10.109740144891809, 0.0 ], [ 77.609633468210049, 10.10974043627213, 0.0 ], [ 77.609574351275342, 10.109574134538709, 0.0 ], [ 77.609469496620022, 10.109281262220509, 0.0 ], [ 77.60937712995063, 10.10898497877378, 0.0 ], [ 77.609307021501863, 10.108681978290671, 0.0 ], [ 77.609258807947711, 10.108374935355039, 0.0 ], [ 77.6092254898645, 10.10806639414881, 0.0 ], [ 77.609199411323857, 10.107756809729031, 0.0 ], [ 77.609158783551109, 10.10725072793876, 0.0 ], [ 77.608845372515987, 10.107249143333309, 0.0 ], [ 77.608531959682253, 10.107247470594359, 0.0 ], [ 77.608218567532901, 10.107248508412001, 0.0 ], [ 77.607905196067975, 10.107252522086309, 0.0 ], [ 77.607591829099718, 10.10725696383787, 0.0 ], [ 77.607278462131376, 10.10726174733183, 0.0 ], [ 77.606965099659689, 10.107266797025099, 0.0 ], [ 77.60665173808728, 10.107272043669941, 0.0 ], [ 77.606338378313595, 10.1072774153205, 0.0 ], [ 77.606025015841851, 10.107282840031059, 0.0 ], [ 77.605711656068124, 10.10728824765453, 0.0 ], [ 77.605398291797755, 10.10729356804374, 0.0 ], [ 77.605084927527457, 10.10729872655504, 0.0 ], [ 77.604771561458449, 10.107303656638461, 0.0 ], [ 77.604458189993508, 10.10730828275107, 0.0 ], [ 77.60414480324016, 10.107313080634199, 0.0 ], [ 77.603831375117906, 10.107319213111211, 0.0 ], [ 77.603517920915351, 10.10732589057743, 0.0 ], [ 77.603204466712839, 10.10733220022092, 0.0 ], [ 77.602891031396055, 10.10733722743117, 0.0 ], [ 77.602577643743317, 10.10734005759763, 0.0 ], [ 77.602264323539771, 10.10733977790848, 0.0 ], [ 77.601951091469729, 10.10733547285384, 0.0 ], [ 77.601637901667871, 10.107327313304889, 0.0 ], [ 77.601324701074134, 10.107316382944751, 0.0 ], [ 77.601011522963447, 10.10730295876458, 0.0 ], [ 77.600698398812085, 10.10728730876237, 0.0 ], [ 77.600385362794341, 10.10726970813058, 0.0 ], [ 77.600072446386307, 10.10725042666591, 0.0 ], [ 77.599759682863109, 10.1072297404602, 0.0 ], [ 77.599447106398884, 10.10720792380668, 0.0 ], [ 77.599133313151924, 10.10718649296234, 0.0 ], [ 77.59881801803715, 10.10716045668976, 0.0 ], [ 77.59850890126485, 10.10711206327113, 0.0 ], [ 77.598213418214755, 10.107020897196721, 0.0 ], [ 77.597932938554337, 10.106877666671039, 0.0 ], [ 77.597666288668321, 10.106710337911791, 0.0 ], [ 77.597423987926732, 10.106513621106791, 0.0 ], [ 77.597201219560688, 10.10629237619224, 0.0 ], [ 77.597006018113291, 10.10604858257606, 0.0 ], [ 77.596908307672308, 10.105757674377211, 0.0 ], [ 77.596840098591727, 10.10545202898801, 0.0 ], [ 77.596769089921622, 10.1051474915635, 0.0 ], [ 77.596704916099043, 10.10483804384069, 0.0 ], [ 77.596597987607069, 10.104552313938189, 0.0 ], [ 77.596383699847934, 10.10431696315737, 0.0 ], [ 77.596105427123788, 10.104180964080291, 0.0 ], [ 77.595789696737185, 10.104135381043021, 0.0 ], [ 77.595480456757727, 10.1041706569503, 0.0 ], [ 77.595173822114248, 10.104253071721949, 0.0 ], [ 77.594887029213098, 10.10437329669033, 0.0 ], [ 77.594619756996224, 10.104538016516299, 0.0 ], [ 77.594353104412292, 10.104704911802299, 0.0 ], [ 77.594087195567667, 10.10487606987477, 0.0 ], [ 77.593793564221627, 10.10496682226106, 0.0 ], [ 77.593478473253029, 10.10493857545492, 0.0 ], [ 77.593198530487825, 10.104796076078101, 0.0 ], [ 77.593020999819302, 10.104545376567909, 0.0 ], [ 77.592873064940065, 10.104265069577369, 0.0 ], [ 77.592722312484796, 10.103989677381771, 0.0 ], [ 77.592601602781841, 10.10370351220733, 0.0 ], [ 77.592546916806853, 10.103400667306969, 0.0 ], [ 77.592516281401359, 10.103091546937391, 0.0 ], [ 77.592493865799341, 10.102779986707059, 0.0 ], [ 77.592464651322629, 10.102469630668949, 0.0 ], [ 77.592426654966246, 10.102158446355229, 0.0 ], [ 77.592369642445064, 10.101851130925009, 0.0 ], [ 77.592244781471535, 10.10157173314901, 0.0 ], [ 77.59208309236088, 10.101307294695919, 0.0 ], [ 77.591904626397437, 10.101049610151451, 0.0 ], [ 77.59172280596276, 10.10079351111172, 0.0 ], [ 77.591548437310564, 10.10053490026546, 0.0 ], [ 77.591373882498715, 10.10027696391079, 0.0 ], [ 77.591198439156713, 10.100019604021551, 0.0 ], [ 77.591023870855011, 10.099761682955361, 0.0 ], [ 77.590851794574704, 10.099502137713539, 0.0 ], [ 77.590679188593754, 10.09924245577475, 0.0 ], [ 77.590507158178852, 10.098982231544831, 0.0 ], [ 77.590339765567762, 10.09871955306498, 0.0 ], [ 77.590181073897512, 10.098452508376621, 0.0 ], [ 77.590045357207543, 10.098172491867039, 0.0 ], [ 77.589942080862386, 10.097878521476609, 0.0 ], [ 77.589873554321102, 10.09757397326028, 0.0 ], [ 77.589867397562401, 10.097259090934349, 0.0 ], [ 77.589996852272961, 10.096990895113789, 0.0 ], [ 77.59025548740091, 10.0968031805224, 0.0 ], [ 77.590511934478243, 10.096624175865109, 0.0 ], [ 77.590787886951475, 10.096473939620701, 0.0 ], [ 77.590935158131131, 10.096228036195001, 0.0 ], [ 77.590882790608362, 10.095919098387739, 0.0 ], [ 77.590808960765003, 10.09561710874261, 0.0 ], [ 77.590710291646701, 10.095320401715229, 0.0 ], [ 77.590456176511395, 10.09515947612897, 0.0 ], [ 77.590140189817987, 10.09514790365291, 0.0 ], [ 77.58986261766573, 10.095033228400821, 0.0 ], [ 77.5898552899897, 10.094955331823151, 0.0 ], [ 77.589343641396013, 10.095156951731999, 0.0 ], [ 77.589151811506952, 10.09509316012128, 0.0 ], [ 77.588064041922067, 10.09509097836599, 0.0 ], [ 77.583265455536377, 10.09489109145073, 0.0 ], [ 77.57930014408646, 10.093995347807111, 0.0 ], [ 77.579234057405856, 10.09500973271302, 0.0 ], [ 77.577506691780442, 10.09487940116351, 0.0 ], [ 77.576738196810382, 10.09519487074677, 0.0 ], [ 77.575906639579784, 10.095066357626379, 0.0 ], [ 77.576099258174267, 10.09474971352852, 0.0 ], [ 77.576228417907217, 10.094179311326251, 0.0 ], [ 77.574693412770856, 10.09385913469132, 0.0 ], [ 77.572837553810146, 10.093982145759449, 0.0 ], [ 77.572262742231842, 10.09347370684616, 0.0 ], [ 77.568561626417988, 10.093137574439529, 0.0 ], [ 77.568440239525486, 10.0933766655008, 0.0 ], [ 77.568309915170502, 10.093658968086951, 0.0 ], [ 77.568194105873303, 10.09394884206545, 0.0 ], [ 77.56811649078351, 10.094249043858319, 0.0 ], [ 77.568060958546496, 10.094554066017411, 0.0 ], [ 77.568012637073593, 10.09486087692796, 0.0 ], [ 77.567968150309923, 10.09516866450231, 0.0 ], [ 77.567924120401884, 10.095476621149221, 0.0 ], [ 77.567877170395164, 10.09578393388148, 0.0 ], [ 77.567819138042879, 10.09608966020973, 0.0 ], [ 77.567754001945687, 10.096394529483961, 0.0 ], [ 77.567708406317934, 10.096700993256279, 0.0 ], [ 77.567694752810681, 10.097010174779779, 0.0 ], [ 77.567694370598744, 10.0973204004162, 0.0 ], [ 77.567701411391056, 10.097631251980729, 0.0 ], [ 77.567710517026782, 10.09794234995951, 0.0 ], [ 77.567716335640455, 10.098253316637271, 0.0 ], [ 77.567714023483461, 10.098563866928959, 0.0 ], [ 77.567704612078202, 10.09887427872502, 0.0 ], [ 77.567691784148565, 10.09918463206513, 0.0 ], [ 77.567679270981628, 10.099494995297841, 0.0 ], [ 77.567670175238433, 10.09980583517121, 0.0 ], [ 77.567661953636346, 10.100116851311689, 0.0 ], [ 77.567651121302276, 10.100427540998259, 0.0 ], [ 77.567634193363389, 10.100737404207919, 0.0 ], [ 77.567607514974895, 10.10104594631342, 0.0 ], [ 77.567551708444611, 10.10135200359214, 0.0 ], [ 77.567466324111649, 10.101651876233181, 0.0 ], [ 77.567350569673138, 10.101940903050259, 0.0 ], [ 77.567185117799013, 10.10220302844705, 0.0 ], [ 77.566957911278621, 10.10242165003916, 0.0 ], [ 77.566684174734903, 10.102559136594939, 0.0 ], [ 77.566380982696273, 10.102645441833729, 0.0 ], [ 77.566099294346984, 10.102785660529831, 0.0 ], [ 77.565950768613149, 10.10304987415241, 0.0 ], [ 77.565928730726398, 10.10336194249969, 0.0 ], [ 77.565977297714184, 10.103666610325821, 0.0 ], [ 77.566101947347036, 10.103953411320891, 0.0 ], [ 77.566233594604739, 10.10423712854073, 0.0 ], [ 77.566250836407036, 10.1045441552886, 0.0 ], [ 77.566210813877987, 10.10485476673416, 0.0 ], [ 77.566001238566329, 10.105071086061811, 0.0 ], [ 77.565693831405284, 10.10512657603071, 0.0 ], [ 77.565379238660981, 10.10515392621279, 0.0 ], [ 77.565076071803333, 10.105086846680701, 0.0 ], [ 77.564775448228417, 10.10500011606257, 0.0 ], [ 77.564475776136192, 10.104905974131441, 0.0 ], [ 77.564176316284033, 10.104810840248151, 0.0 ], [ 77.563877116335902, 10.104716406936699, 0.0 ], [ 77.563579519878985, 10.10461449935968, 0.0 ], [ 77.563276774803413, 10.10454181255467, 0.0 ], [ 77.562962953677413, 10.1045174786987, 0.0 ], [ 77.562650209039987, 10.104530471204329, 0.0 ], [ 77.562351858051827, 10.104629656533479, 0.0 ], [ 77.562070428707401, 10.104763497237681, 0.0 ], [ 77.5618273527502, 10.104961462301659, 0.0 ], [ 77.561620827039576, 10.10519576717097, 0.0 ], [ 77.561483954720828, 10.10547407047205, 0.0 ], [ 77.561441042670026, 10.10578211255449, 0.0 ], [ 77.561440342997514, 10.10609392459496, 0.0 ], [ 77.561481765770921, 10.106402936146671, 0.0 ], [ 77.561568450523623, 10.10670218915476, 0.0 ], [ 77.561717277530377, 10.106972098183849, 0.0 ], [ 77.561895759681633, 10.107229393321919, 0.0 ], [ 77.56206787553208, 10.10749050518274, 0.0 ], [ 77.562219231432422, 10.107762308184, 0.0 ], [ 77.562362250617397, 10.108038843417949, 0.0 ], [ 77.562502239986415, 10.108316904801351, 0.0 ], [ 77.562647512872488, 10.108593814153281, 0.0 ], [ 77.56279078566628, 10.108871737041071, 0.0 ], [ 77.562920856412461, 10.10915376353538, 0.0 ], [ 77.563025331553874, 10.10944389472002, 0.0 ], [ 77.563085267770944, 10.10975060490655, 0.0 ], [ 77.563107079028541, 10.110062230787371, 0.0 ], [ 77.563087998112692, 10.11037071803424, 0.0 ], [ 77.563030834505483, 10.110678257395691, 0.0 ], [ 77.562961265649975, 10.11098106092726, 0.0 ], [ 77.562876141221025, 10.11128043714252, 0.0 ], [ 77.56277670588031, 10.111574906656649, 0.0 ], [ 77.562669739616851, 10.11186736079012, 0.0 ], [ 77.562553006715916, 10.11215604316693, 0.0 ], [ 77.562421660731104, 10.112437512980859, 0.0 ], [ 77.562273104420285, 10.11271038887338, 0.0 ], [ 77.562113838982569, 10.112978133234311, 0.0 ], [ 77.561952407977287, 10.113244915320649, 0.0 ], [ 77.561797012322302, 10.11351478208155, 0.0 ], [ 77.561647981169486, 10.11378845927006, 0.0 ], [ 77.561501379984733, 10.11406369858088, 0.0 ], [ 77.561353870484766, 10.114338264299519, 0.0 ], [ 77.561202105392908, 10.114609918013331, 0.0 ], [ 77.561042744627002, 10.114876424907161, 0.0 ], [ 77.560868537852798, 10.11513394667435, 0.0 ], [ 77.560669082612151, 10.115375473999009, 0.0 ], [ 77.560450608508859, 10.11559875317996, 0.0 ], [ 77.560207714214712, 10.115796699358199, 0.0 ], [ 77.559948463051171, 10.115978728435611, 0.0 ], [ 77.559704063291903, 10.11616982987381, 0.0 ], [ 77.559571031078292, 10.11643970023203, 0.0 ], [ 77.559590684862258, 10.116747307941971, 0.0 ], [ 77.55974775415558, 10.11701589047099, 0.0 ], [ 77.559947198604377, 10.11725618302648, 0.0 ], [ 77.560126822894631, 10.117512953859761, 0.0 ], [ 77.560290155965973, 10.11778081603188, 0.0 ], [ 77.560563735128298, 10.1178805607393, 0.0 ], [ 77.560902539420752, 10.117833242010519, 0.0 ], [ 77.561201726778322, 10.11774796109955, 0.0 ], [ 77.561437437287964, 10.11754158377712, 0.0 ], [ 77.561694754909084, 10.11736075979125, 0.0 ], [ 77.561988376362521, 10.11725799246245, 0.0 ], [ 77.562298126257573, 10.117235726147889, 0.0 ], [ 77.562468889527693, 10.11656492003512, 0.0 ], [ 77.562876457782366, 10.114963846204599, 0.0 ], [ 77.563704911452547, 10.11364398588133, 0.0 ], [ 77.567013733097383, 10.110693019767099, 0.0 ] ] ] } },
{ "type": "Feature", "properties": { "village": "MELMANGALAM", "gp_type": "VILLAGE PANCHAYAT" }, "geometry": { "type": "Polygon", "coordinates": [ [ [ 77.597367524891396, 10.112894295735201, 0.0 ], [ 77.598733516838351, 10.1125895127958, 0.0 ], [ 77.598448232999601, 10.112392968660631, 0.0 ], [ 77.59666940996533, 10.11264117794803, 0.0 ], [ 77.596416891126694, 10.11188547943139, 0.0 ], [ 77.597053146185814, 10.111320341860329, 0.0 ], [ 77.597184993992371, 10.108929139867961, 0.0 ], [ 77.597124786180032, 10.107292756855299, 0.0 ], [ 77.59623716970971, 10.106535798388441, 0.0 ], [ 77.594460164205245, 10.105902934672759, 0.0 ], [ 77.593443749529456, 10.106026777613749, 0.0 ], [ 77.589886681725034, 10.106271404002131, 0.0 ], [ 77.587791629180387, 10.10588960042474, 0.0 ], [ 77.587539006919712, 10.10519682747166, 0.0 ], [ 77.585316039303848, 10.10525528520327, 0.0 ], [ 77.585313582355965, 10.10645101030592, 0.0 ], [ 77.58340945408311, 10.105880765485001, 0.0 ], [ 77.582455769817955, 10.10638229940367, 0.0 ], [ 77.581755080132879, 10.107387807101659, 0.0 ], [ 77.58073891996527, 10.107385744956201, 0.0 ], [ 77.580740352585281, 10.106693485516031, 0.0 ], [ 77.580869063556534, 10.10587561596695, 0.0 ], [ 77.580043699057498, 10.105748072315739, 0.0 ], [ 77.578264774399884, 10.10605911633521, 0.0 ], [ 77.576231938753025, 10.106306698795141, 0.0 ], [ 77.574134671178172, 10.10699466487193, 0.0 ], [ 77.573308912776156, 10.10705590240805, 0.0 ], [ 77.573055926289996, 10.106551918736089, 0.0 ], [ 77.572420169455299, 10.106865277610501, 0.0 ], [ 77.57127699353849, 10.10686292408473, 0.0 ], [ 77.5694972639876, 10.10755151608962, 0.0 ], [ 77.567013733097383, 10.110693019767099, 0.0 ], [ 77.563704911452547, 10.11364398588133, 0.0 ], [ 77.562876457782366, 10.114963846204599, 0.0 ], [ 77.562468889527693, 10.11656492003512, 0.0 ], [ 77.562936892223817, 10.116411426446239, 0.0 ], [ 77.565164997666557, 10.11396168848119, 0.0 ], [ 77.568088898683826, 10.11283496476187, 0.0 ], [ 77.568596190062166, 10.113213612618139, 0.0 ], [ 77.571138745256917, 10.1122119378307, 0.0 ], [ 77.57158305711242, 10.112338719756179, 0.0 ], [ 77.572154391911738, 10.11246576158568, 0.0 ], [ 77.572217110631186, 10.1128434885362, 0.0 ], [ 77.573614878324022, 10.11259463083759, 0.0 ], [ 77.575584769521541, 10.11209520762776, 0.0 ], [ 77.578125465817649, 10.11197453479703, 0.0 ], [ 77.578442366222291, 10.112289846099539, 0.0 ], [ 77.579649727652836, 10.11197764105532, 0.0 ], [ 77.582188084812344, 10.11298972729414, 0.0 ], [ 77.583713000454665, 10.112678150876031, 0.0 ], [ 77.584474875515141, 10.11280555693094, 0.0 ], [ 77.585680423013173, 10.113374388916929, 0.0 ], [ 77.587141052417678, 10.113440266055481, 0.0 ], [ 77.589619021900361, 10.11294177993925, 0.0 ], [ 77.590317902149522, 10.11281731556668, 0.0 ], [ 77.590888348418616, 10.11338485522691, 0.0 ], [ 77.592985757187009, 10.11263384847337, 0.0 ], [ 77.594764071204963, 10.11263739270156, 0.0 ], [ 77.595843635375502, 10.112702472141439, 0.0 ], [ 77.596542132513434, 10.112766791654151, 0.0 ], [ 77.597367524891396, 10.112894295735201, 0.0 ] ] ] } },
{ "type": "Feature", "properties": { "village": "JEYAMANGALAM", "gp_type": "VILLAGE PANCHAYAT" }, "geometry": { "type": "Polygon", "coordinates": [ [ [ 77.63820318762707, 10.11390638826922, 0.0 ], [ 77.638786123680745, 10.112756527691671, 0.0 ], [ 77.638740304121754, 10.11274129857215, 0.0 ], [ 77.638959174826155, 10.110144508862041, 0.0 ], [ 77.638640536931291, 10.10892482582012, 0.0 ], [ 77.639336810045805, 10.108449080860449, 0.0 ], [ 77.639391401591979, 10.10786613851154, 0.0 ], [ 77.639179542002296, 10.10675266090662, 0.0 ], [ 77.639663251357987, 10.105534465343361, 0.0 ], [ 77.639664451053648, 10.10489841892694, 0.0 ], [ 77.640417299618704, 10.102779652159271, 0.0 ], [ 77.640205138756187, 10.101825186383291, 0.0 ], [ 77.640634349195935, 10.101136928026859, 0.0 ], [ 77.640475679109386, 10.100182560276989, 0.0 ], [ 77.640048866262234, 10.099598727599229, 0.0 ], [ 77.638552985232153, 10.09864188401575, 0.0 ], [ 77.637750457217876, 10.098746403223959, 0.0 ], [ 77.637039213988601, 10.09843750858421, 0.0 ], [ 77.63678883283842, 10.096507074242149, 0.0 ], [ 77.636366395193036, 10.096002817176331, 0.0 ], [ 77.636031023612929, 10.094240050637911, 0.0 ], [ 77.635993904095471, 10.094222799842401, 0.0 ], [ 77.635843841420183, 10.09448596755338, 0.0 ], [ 77.635650465596555, 10.09472730602039, 0.0 ], [ 77.635425297839276, 10.09494560385656, 0.0 ], [ 77.635201256033213, 10.095164429594769, 0.0 ], [ 77.634985980818428, 10.09539301027923, 0.0 ], [ 77.634763533510295, 10.095612427771361, 0.0 ], [ 77.634518498829721, 10.095801693693261, 0.0 ], [ 77.634250729287771, 10.09596133774556, 0.0 ], [ 77.633970823394876, 10.09610452600309, 0.0 ], [ 77.63368875463236, 10.09624301440363, 0.0 ], [ 77.63340960237133, 10.09638819735749, 0.0 ], [ 77.633128493185495, 10.09653209338143, 0.0 ], [ 77.63284178122332, 10.09665545338652, 0.0 ], [ 77.632543996808067, 10.09673362965334, 0.0 ], [ 77.632229064120068, 10.096745396382969, 0.0 ], [ 77.631912632262228, 10.09674113809309, 0.0 ], [ 77.631599245508838, 10.096737549798149, 0.0 ], [ 77.63128574094425, 10.096728977460391, 0.0 ], [ 77.630972265157993, 10.096720263029731, 0.0 ], [ 77.630658967437469, 10.09671625025482, 0.0 ], [ 77.630345994372206, 10.09672237643654, 0.0 ], [ 77.630033504242874, 10.09674590090264, 0.0 ], [ 77.629721589679662, 10.096779733398041, 0.0 ], [ 77.62940667317946, 10.09680954142725, 0.0 ], [ 77.629098117584149, 10.09686112743911, 0.0 ], [ 77.628848490065806, 10.09703980294462, 0.0 ], [ 77.628608815344577, 10.097244981470791, 0.0 ], [ 77.628358069968996, 10.097431546728551, 0.0 ], [ 77.628109304900534, 10.097620419646701, 0.0 ], [ 77.627872119502811, 10.09782390564879, 0.0 ], [ 77.627646725116335, 10.09804275656801, 0.0 ], [ 77.627409868870402, 10.09824370648192, 0.0 ], [ 77.627139557844359, 10.09840107345082, 0.0 ], [ 77.626843413792599, 10.098509321248221, 0.0 ], [ 77.626538556209496, 10.098574853047049, 0.0 ], [ 77.626227385385548, 10.09862090732908, 0.0 ], [ 77.625913608326414, 10.098648119015539, 0.0 ], [ 77.625600399638827, 10.09865890008818, 0.0 ], [ 77.62528643462133, 10.098666708901529, 0.0 ], [ 77.624971599959466, 10.098673344099611, 0.0 ], [ 77.62465630934129, 10.098678189646771, 0.0 ], [ 77.624340980052253, 10.098680629507481, 0.0 ], [ 77.624026027579191, 10.0986800494448, 0.0 ], [ 77.623711870106789, 10.09867583342303, 0.0 ], [ 77.623398923121826, 10.09866736720527, 0.0 ], [ 77.62308760121185, 10.09865403295732, 0.0 ], [ 77.622778322561601, 10.09863521734145, 0.0 ], [ 77.622475403017518, 10.0985458795887, 0.0 ], [ 77.622265962604146, 10.098316006578511, 0.0 ], [ 77.622365303516005, 10.098047532867369, 0.0 ], [ 77.622662336098017, 10.0979102981218, 0.0 ], [ 77.622969989673308, 10.097868073153119, 0.0 ], [ 77.623287006989827, 10.097884093676029, 0.0 ], [ 77.623601450446657, 10.097892360244259, 0.0 ], [ 77.623915576442755, 10.0978982840786, 0.0 ], [ 77.624227008969356, 10.09788378700722, 0.0 ], [ 77.624543029837, 10.09782695075323, 0.0 ], [ 77.62480373070764, 10.097670094599209, 0.0 ], [ 77.625023440479424, 10.09745048375286, 0.0 ], [ 77.62522989784155, 10.097210019426891, 0.0 ], [ 77.625437888547765, 10.096975444761039, 0.0 ], [ 77.625642906095308, 10.096740374568689, 0.0 ], [ 77.62584624910518, 10.09650379891122, 0.0 ], [ 77.626053097672369, 10.096270540852791, 0.0 ], [ 77.6262683782831, 10.096045185137269, 0.0 ], [ 77.626491614296626, 10.09582724972787, 0.0 ], [ 77.626719224612614, 10.095613406233801, 0.0 ], [ 77.626947949188533, 10.09540063922814, 0.0 ], [ 77.627174534277387, 10.095185944975411, 0.0 ], [ 77.627395724333255, 10.09496631164604, 0.0 ], [ 77.627606427394781, 10.094736993517481, 0.0 ], [ 77.627804672147946, 10.094496244106431, 0.0 ], [ 77.627997422942755, 10.09425079663704, 0.0 ], [ 77.628189474065039, 10.09400535096621, 0.0 ], [ 77.628378132944519, 10.09375728557035, 0.0 ], [ 77.628565637993844, 10.09350832175171, 0.0 ], [ 77.628754750131677, 10.09326066195, 0.0 ], [ 77.628948237471263, 10.093016519396871, 0.0 ], [ 77.629151182081429, 10.09278001748385, 0.0 ], [ 77.629359877856132, 10.09254814797869, 0.0 ], [ 77.629565312689067, 10.09231356701752, 0.0 ], [ 77.629765169926713, 10.092074381527549, 0.0 ], [ 77.629963928192794, 10.091834262541211, 0.0 ], [ 77.63016167022495, 10.09159330089018, 0.0 ], [ 77.630358471566254, 10.091351582009951, 0.0 ], [ 77.630554404162481, 10.09110919313482, 0.0 ], [ 77.630750084948531, 10.090866494892831, 0.0 ], [ 77.630946681244367, 10.090623852408889, 0.0 ], [ 77.631136390532049, 10.09037656852388, 0.0 ], [ 77.631306546759802, 10.09011675618344, 0.0 ], [ 77.631442861498897, 10.08983474138029, 0.0 ], [ 77.631601509102424, 10.08956930108242, 0.0 ], [ 77.631815998309705, 10.08934420437155, 0.0 ], [ 77.632044870374486, 10.089129294281591, 0.0 ], [ 77.632265536125672, 10.088907892885009, 0.0 ], [ 77.632485816966962, 10.08868595009659, 0.0 ], [ 77.632693228509751, 10.08845423707346, 0.0 ], [ 77.632882975568933, 10.088202304592739, 0.0 ], [ 77.633032473469953, 10.087929248835771, 0.0 ], [ 77.633067074885687, 10.08762705594394, 0.0 ], [ 77.6330488105542, 10.08731092086235, 0.0 ], [ 77.633001029573904, 10.087007147861639, 0.0 ], [ 77.632835501257446, 10.086742451303129, 0.0 ], [ 77.63263745075777, 10.08649900842255, 0.0 ], [ 77.632420304053824, 10.08627323272357, 0.0 ], [ 77.632167131408025, 10.08609423166352, 0.0 ], [ 77.631897127950154, 10.08593692764715, 0.0 ], [ 77.631621404804037, 10.08578650344441, 0.0 ], [ 77.631349564930545, 10.085630409016231, 0.0 ], [ 77.63109033984739, 10.08545267060428, 0.0 ], [ 77.63083570490393, 10.085267081110951, 0.0 ], [ 77.63056863323591, 10.08511099837393, 0.0 ], [ 77.630270779572868, 10.08502708263382, 0.0 ], [ 77.629956495296099, 10.084981395275239, 0.0 ], [ 77.62964683263526, 10.084922190206949, 0.0 ], [ 77.629339859846709, 10.084854883146351, 0.0 ], [ 77.629055739730688, 10.08473311044474, 0.0 ], [ 77.628790136655553, 10.084566656725899, 0.0 ], [ 77.628529732561177, 10.084390410289251, 0.0 ], [ 77.628275025671925, 10.084208170770539, 0.0 ], [ 77.628019348414227, 10.084028409783359, 0.0 ], [ 77.627743905856633, 10.083883567672579, 0.0 ], [ 77.627453531855068, 10.083765339199079, 0.0 ], [ 77.6271644843535, 10.08364389474999, 0.0 ], [ 77.62687952966661, 10.083514072216699, 0.0 ], [ 77.626595413147854, 10.08338225318845, 0.0 ], [ 77.626314768911527, 10.083244195563241, 0.0 ], [ 77.626039320058638, 10.08309618604024, 0.0 ], [ 77.62576878330276, 10.08293583961734, 0.0 ], [ 77.625515707783734, 10.08275349667656, 0.0 ], [ 77.625290737877322, 10.08254001111265, 0.0 ], [ 77.625084463976876, 10.082304751163409, 0.0 ], [ 77.624881504078189, 10.082066590001221, 0.0 ], [ 77.62468109465685, 10.08182776244133, 0.0 ], [ 77.624482156526369, 10.08158771000484, 0.0 ], [ 77.624271307774663, 10.0813578738668, 0.0 ], [ 77.624045213715704, 10.08114065341845, 0.0 ], [ 77.623834859591184, 10.080912061042859, 0.0 ], [ 77.623655041946691, 10.08065506897627, 0.0 ], [ 77.623513064176635, 10.08037673959489, 0.0 ], [ 77.623445827263197, 10.08007844346541, 0.0 ], [ 77.623426726562215, 10.07976461784288, 0.0 ], [ 77.623368791336716, 10.07945915771397, 0.0 ], [ 77.623287898217995, 10.07915791540551, 0.0 ], [ 77.623181864551427, 10.078866509881561, 0.0 ], [ 77.623026874490719, 10.07859425901791, 0.0 ], [ 77.622820112258424, 10.07836219885642, 0.0 ], [ 77.622578479713141, 10.078161580792379, 0.0 ], [ 77.622314385700392, 10.07799666851151, 0.0 ], [ 77.622035205560351, 10.07785310883397, 0.0 ], [ 77.621751545897155, 10.077719296008739, 0.0 ], [ 77.621458459540364, 10.07760273667704, 0.0 ], [ 77.621187840946149, 10.07745223603189, 0.0 ], [ 77.620950707709028, 10.07725103700581, 0.0 ], [ 77.620724182874824, 10.077033376788959, 0.0 ], [ 77.62048552438749, 10.07683201048893, 0.0 ], [ 77.620224648149076, 10.07665986945746, 0.0 ], [ 77.619957715875955, 10.076496343931179, 0.0 ], [ 77.619693449193377, 10.076328220171259, 0.0 ], [ 77.619428348839264, 10.076161309596779, 0.0 ], [ 77.619158679929185, 10.07600343810822, 0.0 ], [ 77.618880930610558, 10.07586105744188, 0.0 ], [ 77.618595424639167, 10.07572617981941, 0.0 ], [ 77.618303251094218, 10.07560634066018, 0.0 ], [ 77.618004973850546, 10.075514721327339, 0.0 ], [ 77.617700023637227, 10.07546578022165, 0.0 ], [ 77.617387213349275, 10.07545835451948, 0.0 ], [ 77.617070806672459, 10.07546722723076, 0.0 ], [ 77.616755414430898, 10.07546616693007, 0.0 ], [ 77.616442787604626, 10.075439872552121, 0.0 ], [ 77.616130569070563, 10.075399544253621, 0.0 ], [ 77.615823144822343, 10.07534074927621, 0.0 ], [ 77.615525110395609, 10.07524553445394, 0.0 ], [ 77.615251502454939, 10.075092369117611, 0.0 ], [ 77.615016395390398, 10.074888318341261, 0.0 ], [ 77.614790693435793, 10.074670669815569, 0.0 ], [ 77.614565518483957, 10.0744540833893, 0.0 ], [ 77.614334937707284, 10.07424396668574, 0.0 ], [ 77.614089965979176, 10.074050904725519, 0.0 ], [ 77.61384006956358, 10.07386368026471, 0.0 ], [ 77.613587424819855, 10.073679722141501, 0.0 ], [ 77.613333750352339, 10.07349700688145, 0.0 ], [ 77.613080762067582, 10.073313520003, 0.0 ], [ 77.61282652642312, 10.073131561972041, 0.0 ], [ 77.612570552389116, 10.072951730837779, 0.0 ], [ 77.612320101091811, 10.072765442571161, 0.0 ], [ 77.612084850135773, 10.072561247903311, 0.0 ], [ 77.611864688005014, 10.072339318604691, 0.0 ], [ 77.611635908570406, 10.07212629169506, 0.0 ], [ 77.611366559818904, 10.071977459292381, 0.0 ], [ 77.611050170229262, 10.07197004528145, 0.0 ], [ 77.61073673581177, 10.071971008455311, 0.0 ], [ 77.610420136680048, 10.071980635697869, 0.0 ], [ 77.610124492651266, 10.07206471151726, 0.0 ], [ 77.609851570893355, 10.072222940036671, 0.0 ], [ 77.609585503768031, 10.072387645473521, 0.0 ], [ 77.609323637376022, 10.07255854094393, 0.0 ], [ 77.609060298793793, 10.07272696687609, 0.0 ], [ 77.608790717117969, 10.072885055101279, 0.0 ], [ 77.608516891541356, 10.07303636063962, 0.0 ], [ 77.608239691708476, 10.073181507620539, 0.0 ], [ 77.607959501629736, 10.073320427695659, 0.0 ], [ 77.607676065897806, 10.073453444620849, 0.0 ], [ 77.607389233426431, 10.0735789549049, 0.0 ], [ 77.60709843404554, 10.0736938361017, 0.0 ], [ 77.606800478759183, 10.07379012471454, 0.0 ], [ 77.606501744659838, 10.073884726199189, 0.0 ], [ 77.606208591753173, 10.073998947293649, 0.0 ], [ 77.605916153807513, 10.074114655866691, 0.0 ], [ 77.605615997880079, 10.07419363972474, 0.0 ], [ 77.60530206074155, 10.074235008538841, 0.0 ], [ 77.604985746694922, 10.07423836301006, 0.0 ], [ 77.604681332477568, 10.074188821157239, 0.0 ], [ 77.604387026640026, 10.07408301861647, 0.0 ], [ 77.604096515042201, 10.07395588775403, 0.0 ], [ 77.603804729105036, 10.073840153999971, 0.0 ], [ 77.60351265088822, 10.07372583757741, 0.0 ], [ 77.60322605943513, 10.073601509901851, 0.0 ], [ 77.60296922295133, 10.0734246195506, 0.0 ], [ 77.602622917413768, 10.07365953146229, 0.0 ], [ 77.60231494188109, 10.073712200257891, 0.0 ], [ 77.602005466279309, 10.073679352520159, 0.0 ], [ 77.601758583491929, 10.073484791390079, 0.0 ], [ 77.601540307239418, 10.07326235667243, 0.0 ], [ 77.601326077936235, 10.073034668115501, 0.0 ], [ 77.601109145270883, 10.072809705403641, 0.0 ], [ 77.600896730799562, 10.072572095525871, 0.0 ], [ 77.600684037538358, 10.072334029691779, 0.0 ], [ 77.600457869734953, 10.07212393547128, 0.0 ], [ 77.600198082575517, 10.07198327700665, 0.0 ], [ 77.599877244039661, 10.07196817199361, 0.0 ], [ 77.599557045821086, 10.071969210710559, 0.0 ], [ 77.599240627453057, 10.071979663530691, 0.0 ], [ 77.598924571511802, 10.071992388937661, 0.0 ], [ 77.598613634511693, 10.071983749150769, 0.0 ], [ 77.598316100107979, 10.07191490335015, 0.0 ], [ 77.598038788759126, 10.071759373696191, 0.0 ], [ 77.597763401959483, 10.07160725696942, 0.0 ], [ 77.597491454167326, 10.07145088375133, 0.0 ], [ 77.597213661681224, 10.071309005806009, 0.0 ], [ 77.596918562641619, 10.07119689182316, 0.0 ], [ 77.596610884784596, 10.07114447753565, 0.0 ], [ 77.596299624028461, 10.071147600881149, 0.0 ], [ 77.595986125759154, 10.07117087713431, 0.0 ], [ 77.595672519571181, 10.07120446141683, 0.0 ], [ 77.595360607705928, 10.07123922560983, 0.0 ], [ 77.595049009704084, 10.071278057436469, 0.0 ], [ 77.594739322761598, 10.07132800218564, 0.0 ], [ 77.59443363420489, 10.07139433707902, 0.0 ], [ 77.594126515726202, 10.071472658136701, 0.0 ], [ 77.593830976018808, 10.07157892472763, 0.0 ], [ 77.593562347624285, 10.07173149920936, 0.0 ], [ 77.59330730888523, 10.07191145804739, 0.0 ], [ 77.593062265211401, 10.072108809773789, 0.0 ], [ 77.592826865867224, 10.072317331979329, 0.0 ], [ 77.592602586640112, 10.07253323402157, 0.0 ], [ 77.592401798604158, 10.072771209024159, 0.0 ], [ 77.592210374309374, 10.073018812168471, 0.0 ], [ 77.592007899145301, 10.073256101887621, 0.0 ], [ 77.591793208489847, 10.07348367892871, 0.0 ], [ 77.591572143439748, 10.07370577370256, 0.0 ], [ 77.591341001486128, 10.07391489845384, 0.0 ], [ 77.591089447619993, 10.07409518734306, 0.0 ], [ 77.590806372516113, 10.074232729656799, 0.0 ], [ 77.590526874915369, 10.07437496373363, 0.0 ], [ 77.59024709582684, 10.0745163092803, 0.0 ], [ 77.58996995085262, 10.0746616694006, 0.0 ], [ 77.589701861152022, 10.07482089886541, 0.0 ], [ 77.589444314203774, 10.074998887288849, 0.0 ], [ 77.589200073624582, 10.07519493589764, 0.0 ], [ 77.588970867011923, 10.075406937580169, 0.0 ], [ 77.588741850156325, 10.075625229121091, 0.0 ], [ 77.588524492111688, 10.07585357148519, 0.0 ], [ 77.588335116472479, 10.07609812502853, 0.0 ], [ 77.588188285960726, 10.07636601867687, 0.0 ], [ 77.588080506710085, 10.07665795300214, 0.0 ], [ 77.58799773850491, 10.07696239959512, 0.0 ], [ 77.587925826016104, 10.077267283258561, 0.0 ], [ 77.587863977840371, 10.077571049964019, 0.0 ], [ 77.587815917170886, 10.07787817833532, 0.0 ], [ 77.587776030439485, 10.07818694167406, 0.0 ], [ 77.587738721165138, 10.078495625872501, 0.0 ], [ 77.587704446203304, 10.07880423362853, 0.0 ], [ 77.587674498779165, 10.079113365689359, 0.0 ], [ 77.587646511877082, 10.07942274506372, 0.0 ], [ 77.587618128374018, 10.07973209116313, 0.0 ], [ 77.587586989348139, 10.080041124298461, 0.0 ], [ 77.587552547112395, 10.080349788711841, 0.0 ], [ 77.587516409654654, 10.08065827865671, 0.0 ], [ 77.58747891062329, 10.08096661661612, 0.0 ], [ 77.587440389062749, 10.081274827771161, 0.0 ], [ 77.587400732557796, 10.08158291032311, 0.0 ], [ 77.587355332982256, 10.08189056120052, 0.0 ], [ 77.587306919778612, 10.082197968361569, 0.0 ], [ 77.587260651457953, 10.082505475347441, 0.0 ], [ 77.587221681135745, 10.08281342839706, 0.0 ], [ 77.587195161027907, 10.08312217554799, 0.0 ], [ 77.587181997651086, 10.08343197850304, 0.0 ], [ 77.587178604509077, 10.083742584552679, 0.0 ], [ 77.587182682934554, 10.08405358630403, 0.0 ], [ 77.587191925267177, 10.084364568270249, 0.0 ], [ 77.58720403553788, 10.084675122159171, 0.0 ], [ 77.587217172834286, 10.084986330754591, 0.0 ], [ 77.587243120973326, 10.0852978010527, 0.0 ], [ 77.587305630150766, 10.085600459793451, 0.0 ], [ 77.587397488703161, 10.08589730081985, 0.0 ], [ 77.587504148297839, 10.08619157877837, 0.0 ], [ 77.587627253794764, 10.086479020090721, 0.0 ], [ 77.587768468939771, 10.08675535747382, 0.0 ], [ 77.587938626966093, 10.08701377946239, 0.0 ], [ 77.588134139578941, 10.087258078497589, 0.0 ], [ 77.588333955447752, 10.08750032078326, 0.0 ], [ 77.588517022342799, 10.08775256892595, 0.0 ], [ 77.588672843377083, 10.088020861873289, 0.0 ], [ 77.588821021972635, 10.088293959898371, 0.0 ], [ 77.588963995292218, 10.088570305375351, 0.0 ], [ 77.589102686040178, 10.088849207624881, 0.0 ], [ 77.589238012424403, 10.089129971471049, 0.0 ], [ 77.589370896249946, 10.08941190803319, 0.0 ], [ 77.589502257523236, 10.08969432303461, 0.0 ], [ 77.589632956895528, 10.08997656446696, 0.0 ], [ 77.589758587688735, 10.090261247558621, 0.0 ], [ 77.589875531030984, 10.09054984719773, 0.0 ], [ 77.589983126819902, 10.090841754543341, 0.0 ], [ 77.590081383149368, 10.091136455183269, 0.0 ], [ 77.5901742129696, 10.09143423060531, 0.0 ], [ 77.590257295038228, 10.09173487486464, 0.0 ], [ 77.590324373670953, 10.092037990460939, 0.0 ], [ 77.59036862031563, 10.09234392633118, 0.0 ], [ 77.590386617548404, 10.092654572850289, 0.0 ], [ 77.590385331517894, 10.092966744619609, 0.0 ], [ 77.590371472965145, 10.093276842552299, 0.0 ], [ 77.590326591399119, 10.09358518500834, 0.0 ], [ 77.59025184694525, 10.093886461491071, 0.0 ], [ 77.590114624790132, 10.094166594912449, 0.0 ], [ 77.589956907984956, 10.094435685558491, 0.0 ], [ 77.589833431967349, 10.094722958697609, 0.0 ], [ 77.5898552899897, 10.094955331823151, 0.0 ], [ 77.58986261766573, 10.095033228400821, 0.0 ], [ 77.590140189817987, 10.09514790365291, 0.0 ], [ 77.590456176511395, 10.09515947612897, 0.0 ], [ 77.590710291646701, 10.095320401715229, 0.0 ], [ 77.590808960765003, 10.09561710874261, 0.0 ], [ 77.590882790608362, 10.095919098387739, 0.0 ], [ 77.590935158131131, 10.096228036195001, 0.0 ], [ 77.590787886951475, 10.096473939620701, 0.0 ], [ 77.590511934478243, 10.096624175865109, 0.0 ], [ 77.59025548740091, 10.0968031805224, 0.0 ], [ 77.589996852272961, 10.096990895113789, 0.0 ], [ 77.589867397562401, 10.097259090934349, 0.0 ], [ 77.589873554321102, 10.09757397326028, 0.0 ], [ 77.589942080862386, 10.097878521476609, 0.0 ], [ 77.590045357207543, 10.098172491867039, 0.0 ], [ 77.590181073897512, 10.098452508376621, 0.0 ], [ 77.590339765567762, 10.09871955306498, 0.0 ], [ 77.590507158178852, 10.098982231544831, 0.0 ], [ 77.590679188593754, 10.09924245577475, 0.0 ], [ 77.590851794574704, 10.099502137713539, 0.0 ], [ 77.591023870855011, 10.099761682955361, 0.0 ], [ 77.591198439156713, 10.100019604021551, 0.0 ], [ 77.591373882498715, 10.10027696391079, 0.0 ], [ 77.591548437310564, 10.10053490026546, 0.0 ], [ 77.59172280596276, 10.10079351111172, 0.0 ], [ 77.591904626397437, 10.101049610151451, 0.0 ], [ 77.59208309236088, 10.101307294695919, 0.0 ], [ 77.592244781471535, 10.10157173314901, 0.0 ], [ 77.592369642445064, 10.101851130925009, 0.0 ], [ 77.592426654966246, 10.102158446355229, 0.0 ], [ 77.592464651322629, 10.102469630668949, 0.0 ], [ 77.592493865799341, 10.102779986707059, 0.0 ], [ 77.592516281401359, 10.103091546937391, 0.0 ], [ 77.592546916806853, 10.103400667306969, 0.0 ], [ 77.592601602781841, 10.10370351220733, 0.0 ], [ 77.592722312484796, 10.103989677381771, 0.0 ], [ 77.592873064940065, 10.104265069577369, 0.0 ], [ 77.593020999819302, 10.104545376567909, 0.0 ], [ 77.593198530487825, 10.104796076078101, 0.0 ], [ 77.593478473253029, 10.10493857545492, 0.0 ], [ 77.593793564221627, 10.10496682226106, 0.0 ], [ 77.594087195567667, 10.10487606987477, 0.0 ], [ 77.594353104412292, 10.104704911802299, 0.0 ], [ 77.594619756996224, 10.104538016516299, 0.0 ], [ 77.594887029213098, 10.10437329669033, 0.0 ], [ 77.595173822114248, 10.104253071721949, 0.0 ], [ 77.595480456757727, 10.1041706569503, 0.0 ], [ 77.595789696737185, 10.104135381043021, 0.0 ], [ 77.596105427123788, 10.104180964080291, 0.0 ], [ 77.596383699847934, 10.10431696315737, 0.0 ], [ 77.596597987607069, 10.104552313938189, 0.0 ], [ 77.596704916099043, 10.10483804384069, 0.0 ], [ 77.596769089921622, 10.1051474915635, 0.0 ], [ 77.596840098591727, 10.10545202898801, 0.0 ], [ 77.596908307672308, 10.105757674377211, 0.0 ], [ 77.597006018113291, 10.10604858257606, 0.0 ], [ 77.597201219560688, 10.10629237619224, 0.0 ], [ 77.597423987926732, 10.106513621106791, 0.0 ], [ 77.597666288668321, 10.106710337911791, 0.0 ], [ 77.597932938554337, 10.106877666671039, 0.0 ], [ 77.598213418214755, 10.107020897196721, 0.0 ], [ 77.59850890126485, 10.10711206327113, 0.0 ], [ 77.59881801803715, 10.10716045668976, 0.0 ], [ 77.599133313151924, 10.10718649296234, 0.0 ], [ 77.599447106398884, 10.10720792380668, 0.0 ], [ 77.599759682863109, 10.1072297404602, 0.0 ], [ 77.600072446386307, 10.10725042666591, 0.0 ], [ 77.600385362794341, 10.10726970813058, 0.0 ], [ 77.600698398812085, 10.10728730876237, 0.0 ], [ 77.601011522963447, 10.10730295876458, 0.0 ], [ 77.601324701074134, 10.107316382944751, 0.0 ], [ 77.601637901667871, 10.107327313304889, 0.0 ], [ 77.601951091469729, 10.10733547285384, 0.0 ], [ 77.602264323539771, 10.10733977790848, 0.0 ], [ 77.602577643743317, 10.10734005759763, 0.0 ], [ 77.602891031396055, 10.10733722743117, 0.0 ], [ 77.603204466712839, 10.10733220022092, 0.0 ], [ 77.603517920915351, 10.10732589057743, 0.0 ], [ 77.603831375117906, 10.107319213111211, 0.0 ], [ 77.60414480324016, 10.107313080634199, 0.0 ], [ 77.604458189993508, 10.10730828275107, 0.0 ], [ 77.604771561458449, 10.107303656638461, 0.0 ], [ 77.605084927527457, 10.10729872655504, 0.0 ], [ 77.605398291797755, 10.10729356804374, 0.0 ], [ 77.605711656068124, 10.10728824765453, 0.0 ], [ 77.606025015841851, 10.107282840031059, 0.0 ], [ 77.606338378313595, 10.1072774153205, 0.0 ], [ 77.60665173808728, 10.107272043669941, 0.0 ], [ 77.606965099659689, 10.107266797025099, 0.0 ], [ 77.607278462131376, 10.10726174733183, 0.0 ], [ 77.607591829099718, 10.10725696383787, 0.0 ], [ 77.607905196067975, 10.107252522086309, 0.0 ], [ 77.608218567532901, 10.107248508412001, 0.0 ], [ 77.608531959682253, 10.107247470594359, 0.0 ], [ 77.608845372515987, 10.107249143333309, 0.0 ], [ 77.609158783551109, 10.10725072793876, 0.0 ], [ 77.609739365179635, 10.10724739774923, 0.0 ], [ 77.610052918307588, 10.107244904828519, 0.0 ], [ 77.61036635991961, 10.10724477892348, 0.0 ], [ 77.610679578499798, 10.10724923956082, 0.0 ], [ 77.610992859133191, 10.10726009078066, 0.0 ], [ 77.611307175785626, 10.107278739122529, 0.0 ], [ 77.611619335863722, 10.10731165970539, 0.0 ], [ 77.611924244708177, 10.10737160581499, 0.0 ], [ 77.612211870381543, 10.107500163002159, 0.0 ], [ 77.612511940873432, 10.107585282934499, 0.0 ], [ 77.61282087598272, 10.10763970001223, 0.0 ], [ 77.613131922700106, 10.107682900745299, 0.0 ], [ 77.613442549434168, 10.107725266008281, 0.0 ], [ 77.61375340009937, 10.10776843616445, 0.0 ], [ 77.614064492682232, 10.10781013143248, 0.0 ], [ 77.61437584606854, 10.107848060339739, 0.0 ], [ 77.614687482741203, 10.10787993860832, 0.0 ], [ 77.61499942248544, 10.107903482859509, 0.0 ], [ 77.615311838870284, 10.107913998632171, 0.0 ], [ 77.615624933344066, 10.107908886885699, 0.0 ], [ 77.615938439707307, 10.1078946038529, 0.0 ], [ 77.616252084566099, 10.10787784768457, 0.0 ], [ 77.616565590030021, 10.10786531023593, 0.0 ], [ 77.61688174399734, 10.10785645551106, 0.0 ], [ 77.617144001594454, 10.108018943219699, 0.0 ], [ 77.617372783727021, 10.10823173540634, 0.0 ], [ 77.617608354841749, 10.108436643236519, 0.0 ], [ 77.617847182401604, 10.108637525701299, 0.0 ], [ 77.618050804201303, 10.108877267871661, 0.0 ], [ 77.618361038830926, 10.10887519943096, 0.0 ], [ 77.618657795321027, 10.108771219815999, 0.0 ], [ 77.618885270738687, 10.10854983640588, 0.0 ], [ 77.619156500871881, 10.108433077424641, 0.0 ], [ 77.619469913705572, 10.10840776510635, 0.0 ], [ 77.619788905034, 10.108389900973179, 0.0 ], [ 77.620103989707403, 10.10834915089263, 0.0 ], [ 77.6204151803164, 10.10828904290504, 0.0 ], [ 77.620682761000694, 10.108147468930619, 0.0 ], [ 77.620907631082403, 10.10792699653372, 0.0 ], [ 77.621135776494967, 10.10770805568227, 0.0 ], [ 77.621402519910404, 10.10754491776378, 0.0 ], [ 77.621693661033689, 10.10741931934615, 0.0 ], [ 77.621994500445908, 10.107348617344901, 0.0 ], [ 77.622309281148489, 10.10734986470451, 0.0 ], [ 77.622625337988993, 10.1073707451638, 0.0 ], [ 77.622940019766148, 10.10740412530021, 0.0 ], [ 77.623213198730198, 10.107542991415979, 0.0 ], [ 77.623467660104495, 10.10773075367136, 0.0 ], [ 77.623733964650782, 10.10789557152345, 0.0 ], [ 77.62400477749857, 10.108052820681181, 0.0 ], [ 77.624281398168023, 10.10819882201808, 0.0 ], [ 77.62456584743596, 10.108328400835081, 0.0 ], [ 77.624854813998525, 10.108448856029939, 0.0 ], [ 77.625146152073341, 10.10856454032132, 0.0 ], [ 77.625437945205078, 10.108679253344921, 0.0 ], [ 77.625728282334421, 10.10879679833362, 0.0 ], [ 77.626015247006094, 10.10892097762108, 0.0 ], [ 77.626296851718394, 10.10905578509646, 0.0 ], [ 77.626571551436015, 10.10920468764623, 0.0 ], [ 77.626840777879636, 10.109364377564001, 0.0 ], [ 77.627106455598494, 10.10953035104488, 0.0 ], [ 77.627370511839729, 10.109698102485501, 0.0 ], [ 77.627636132901273, 10.10986462185487, 0.0 ], [ 77.627900959861435, 10.11003356309851, 0.0 ], [ 77.628159202884959, 10.110210368913449, 0.0 ], [ 77.628405068539152, 10.11040048289601, 0.0 ], [ 77.628626570659762, 10.1106172392942, 0.0 ], [ 77.628823726333948, 10.11086071095308, 0.0 ], [ 77.62901559219587, 10.111108071280499, 0.0 ], [ 77.629205409402175, 10.11135539293705, 0.0 ], [ 77.629384758499825, 10.111610181664609, 0.0 ], [ 77.629557922959847, 10.111869824932491, 0.0 ], [ 77.629730903058771, 10.11213076322419, 0.0 ], [ 77.629894014896919, 10.11239649400305, 0.0 ], [ 77.630037366831047, 10.112670618154549, 0.0 ], [ 77.63014948261258, 10.112960362630719, 0.0 ], [ 77.630230842479463, 10.113262796540869, 0.0 ], [ 77.630287927845657, 10.11356782229725, 0.0 ], [ 77.630306578885538, 10.113879245830571, 0.0 ], [ 77.630286970967006, 10.114189511037139, 0.0 ], [ 77.630227248788557, 10.11449647932908, 0.0 ], [ 77.630118282432818, 10.114786545762509, 0.0 ], [ 77.629959736452761, 10.11505661037431, 0.0 ], [ 77.629765424434808, 10.115299709713881, 0.0 ], [ 77.629537163009729, 10.115513159304889, 0.0 ], [ 77.629296170781672, 10.11571324856761, 0.0 ], [ 77.629041702212817, 10.115896560977539, 0.0 ], [ 77.6287997872804, 10.116092528647309, 0.0 ], [ 77.628594793115283, 10.11632713658814, 0.0 ], [ 77.628401822885849, 10.11657417675691, 0.0 ], [ 77.628188321134175, 10.11679952797591, 0.0 ], [ 77.627942008516911, 10.116989923446299, 0.0 ], [ 77.627682528026298, 10.11716648104828, 0.0 ], [ 77.627430726846626, 10.11735210111863, 0.0 ], [ 77.627188797525051, 10.117552294702699, 0.0 ], [ 77.626956966690727, 10.117763247775709, 0.0 ], [ 77.62675297167236, 10.117995768390079, 0.0 ], [ 77.626636969020964, 10.11828642208075, 0.0 ], [ 77.626635009398214, 10.118595673751379, 0.0 ], [ 77.626629503748632, 10.118907168331191, 0.0 ], [ 77.62657682595983, 10.119213687861469, 0.0 ], [ 77.626503483548959, 10.119516059718419, 0.0 ], [ 77.626447212968571, 10.11971475952855, 0.0 ], [ 77.626744870579373, 10.119715323403501, 0.0 ], [ 77.627226502501188, 10.11961022772989, 0.0 ], [ 77.627547761020423, 10.119451823842679, 0.0 ], [ 77.628350444617368, 10.119294329170019, 0.0 ], [ 77.628564922133521, 10.11902971534913, 0.0 ], [ 77.628992040750106, 10.11945455238572, 0.0 ], [ 77.629314010633152, 10.118925120597909, 0.0 ], [ 77.630062386869724, 10.11919155104933, 0.0 ], [ 77.632575390342041, 10.119779318260949, 0.0 ], [ 77.632843863153823, 10.11924978305111, 0.0 ], [ 77.633112232543581, 10.118773250285299, 0.0 ], [ 77.634022604559632, 10.11824491656968, 0.0 ], [ 77.634024726060318, 10.1171318382638, 0.0 ], [ 77.634613638108974, 10.11686791961886, 0.0 ], [ 77.634558631975324, 10.117662876240789, 0.0 ], [ 77.635040057053047, 10.11766377556285, 0.0 ], [ 77.635254225202416, 10.11755816817497, 0.0 ], [ 77.636002605036239, 10.117824584237219, 0.0 ], [ 77.636001799243687, 10.11824861458194, 0.0 ], [ 77.636803873100348, 10.11840912198347, 0.0 ], [ 77.637018343421843, 10.118144501867331, 0.0 ], [ 77.637660244424794, 10.118145697066311, 0.0 ], [ 77.6376071538471, 10.11793358206922, 0.0 ], [ 77.638517015048237, 10.117670253379529, 0.0 ], [ 77.638464225743476, 10.117299127452821, 0.0 ], [ 77.63835894750747, 10.116397864669739, 0.0 ], [ 77.637985511222453, 10.115867130663631, 0.0 ], [ 77.638415447415014, 10.11480784980249, 0.0 ], [ 77.63820318762707, 10.11390638826922, 0.0 ] ] ] } },
{ "type": "Feature", "properties": { "village": "GULLAPURAM", "gp_type": "VILLAGE PANCHAYAT" }, "geometry": { "type": "Polygon", "coordinates": [ [ [ 77.635843841420183, 10.09448596755338, 0.0 ], [ 77.635993904095471, 10.094222799842401, 0.0 ], [ 77.635999589609412, 10.09421282546155, 0.0 ], [ 77.636104964972205, 10.093921415441001, 0.0 ], [ 77.636151599316918, 10.093615938225, 0.0 ], [ 77.636176505141634, 10.09330367112754, 0.0 ], [ 77.636215145412663, 10.09299356150372, 0.0 ], [ 77.636269582275474, 10.09268682433753, 0.0 ], [ 77.636416178963543, 10.092417830818309, 0.0 ], [ 77.636611210439071, 10.092171811380011, 0.0 ], [ 77.636806982056598, 10.091928855032689, 0.0 ], [ 77.636983407458317, 10.09167304647395, 0.0 ], [ 77.637134410824459, 10.09140044667334, 0.0 ], [ 77.63727339565078, 10.09112143200853, 0.0 ], [ 77.637419106506641, 10.09084718015326, 0.0 ], [ 77.637611265547562, 10.090596539998391, 0.0 ], [ 77.637896409092022, 10.09047326093232, 0.0 ], [ 77.63819737620797, 10.0905377962823, 0.0 ], [ 77.638488987676695, 10.09066250437116, 0.0 ], [ 77.638771119391734, 10.09079779927907, 0.0 ], [ 77.639051299577901, 10.09093733269178, 0.0 ], [ 77.639330178445064, 10.091079339240141, 0.0 ], [ 77.639615956011596, 10.09121391738841, 0.0 ], [ 77.639920278498082, 10.09126016142732, 0.0 ], [ 77.640208374516931, 10.091144364720741, 0.0 ], [ 77.640337632275987, 10.090863488459251, 0.0 ], [ 77.640342329435001, 10.09055310634084, 0.0 ], [ 77.640328166012125, 10.09024475758951, 0.0 ], [ 77.640181119662984, 10.089971099286849, 0.0 ], [ 77.639965606127888, 10.08974245834783, 0.0 ], [ 77.639755091024696, 10.089511107751511, 0.0 ], [ 77.639598007342201, 10.089245748392621, 0.0 ], [ 77.639479369677233, 10.088954541618889, 0.0 ], [ 77.639395333427956, 10.088654792184981, 0.0 ], [ 77.639372282904617, 10.088345407414691, 0.0 ], [ 77.639404645907732, 10.08803494615591, 0.0 ], [ 77.639535486473562, 10.087750570632339, 0.0 ], [ 77.63978710778882, 10.087588000186081, 0.0 ], [ 77.640108225114545, 10.08757481072899, 0.0 ], [ 77.640402360080898, 10.087657202118219, 0.0 ], [ 77.640664632067185, 10.08783126949753, 0.0 ], [ 77.640939951417707, 10.087980871719861, 0.0 ], [ 77.641224576952723, 10.08811676467703, 0.0 ], [ 77.641512684662686, 10.08824630482316, 0.0 ], [ 77.641805243117517, 10.088357869320239, 0.0 ], [ 77.642103366577146, 10.0884392615627, 0.0 ], [ 77.642412522020322, 10.088465616195259, 0.0 ], [ 77.642729199393088, 10.08845637925857, 0.0 ], [ 77.643045367749536, 10.088449879858111, 0.0 ], [ 77.643359804911128, 10.08846660904682, 0.0 ], [ 77.643673734855042, 10.08847982998021, 0.0 ], [ 77.643983712278541, 10.088456165219901, 0.0 ], [ 77.64428823351524, 10.088372857421479, 0.0 ], [ 77.644574341132966, 10.088245269703449, 0.0 ], [ 77.644840482901984, 10.08807544802357, 0.0 ], [ 77.645036436182622, 10.08783923119563, 0.0 ], [ 77.645214093655554, 10.08758650731153, 0.0 ], [ 77.645497175953963, 10.087448433498469, 0.0 ], [ 77.645810891859256, 10.08743337614942, 0.0 ], [ 77.646125811956736, 10.08742767624631, 0.0 ], [ 77.646404731293401, 10.08756447122342, 0.0 ], [ 77.646648811793298, 10.08776069969657, 0.0 ], [ 77.646913416620905, 10.08792311456013, 0.0 ], [ 77.647226470625185, 10.087985549993149, 0.0 ], [ 77.647539212564652, 10.08800417765069, 0.0 ], [ 77.647819773164045, 10.087870902620111, 0.0 ], [ 77.648006587534056, 10.087625375111029, 0.0 ], [ 77.648094311903023, 10.087320584977061, 0.0 ], [ 77.648151193123113, 10.087015487275, 0.0 ], [ 77.648194042221348, 10.08670706208129, 0.0 ], [ 77.648251669878746, 10.086402019237831, 0.0 ], [ 77.648334209656127, 10.086098565496449, 0.0 ], [ 77.648468785106388, 10.08582012010247, 0.0 ], [ 77.648712374576462, 10.085629851436529, 0.0 ], [ 77.649029801084495, 10.08563482019086, 0.0 ], [ 77.64934340007791, 10.085675255508709, 0.0 ], [ 77.649654591586156, 10.085730863288729, 0.0 ], [ 77.649944195768072, 10.08583583215797, 0.0 ], [ 77.650201314638991, 10.08601314159322, 0.0 ], [ 77.650454648263462, 10.0862020945511, 0.0 ], [ 77.650733846389969, 10.086338915608509, 0.0 ], [ 77.651030025515311, 10.08644295637739, 0.0 ], [ 77.651325305318679, 10.08655000717717, 0.0 ], [ 77.651612064045594, 10.086691964262821, 0.0 ], [ 77.651904233993278, 10.08679766338151, 0.0 ], [ 77.652211174406204, 10.08681507155837, 0.0 ], [ 77.65252342891317, 10.08680748937417, 0.0 ], [ 77.652838202421151, 10.0867829495735, 0.0 ], [ 77.653153092841009, 10.086746610667619, 0.0 ], [ 77.653465702580149, 10.08670363476498, 0.0 ], [ 77.65377391103722, 10.086650098123579, 0.0 ], [ 77.654078478139283, 10.086572324753041, 0.0 ], [ 77.654381877022061, 10.0864871004993, 0.0 ], [ 77.654686605102825, 10.08641288484684, 0.0 ], [ 77.654995149006979, 10.086368120192621, 0.0 ], [ 77.655306657975913, 10.08634628914996, 0.0 ], [ 77.655618917878812, 10.086330728180609, 0.0 ], [ 77.655931795615928, 10.08632028974961, 0.0 ], [ 77.656245167080826, 10.08631382632206, 0.0 ], [ 77.656558898274568, 10.08631018676572, 0.0 ], [ 77.656872856996827, 10.08630822264637, 0.0 ], [ 77.65718691914104, 10.086306781932469, 0.0 ], [ 77.657500949809034, 10.08630471978705, 0.0 ], [ 77.657814819498341, 10.08630088507782, 0.0 ], [ 77.658128398706708, 10.086294127571991, 0.0 ], [ 77.658441558830944, 10.086283300633839, 0.0 ], [ 77.658754247710405, 10.086264919390549, 0.0 ], [ 77.65906614698514, 10.086229411458239, 0.0 ], [ 77.659375924759175, 10.08617870768126, 0.0 ], [ 77.659681564752489, 10.08611118118607, 0.0 ], [ 77.659979692708689, 10.08600321847382, 0.0 ], [ 77.660278822509738, 10.08590840924575, 0.0 ], [ 77.660587609230845, 10.08588224616876, 0.0 ], [ 77.660899212628649, 10.085875297107361, 0.0 ], [ 77.661211565161651, 10.085873371658799, 0.0 ], [ 77.661524540025553, 10.085875756660871, 0.0 ], [ 77.661838005019959, 10.085881741649141, 0.0 ], [ 77.662151835139127, 10.085890606266499, 0.0 ], [ 77.662465898182703, 10.08590164184735, 0.0 ], [ 77.662780063748983, 10.08591413073259, 0.0 ], [ 77.663094205932893, 10.085927359759911, 0.0 ], [ 77.663408195232094, 10.085940614867519, 0.0 ], [ 77.663721898546854, 10.08595317839649, 0.0 ], [ 77.664035228642959, 10.085964343479709, 0.0 ], [ 77.66434952910754, 10.0859755580256, 0.0 ], [ 77.664663415883993, 10.08599446087573, 0.0 ], [ 77.664974012041057, 10.086029758366699, 0.0 ], [ 77.665281095446247, 10.086094329689629, 0.0 ], [ 77.665577760205522, 10.08620303973855, 0.0 ], [ 77.665834986095788, 10.086370664374719, 0.0 ], [ 77.666052321657375, 10.08660016686429, 0.0 ], [ 77.666274857998374, 10.086819588853031, 0.0 ], [ 77.666488196972736, 10.08704689879538, 0.0 ], [ 77.666688097377843, 10.087289995437001, 0.0 ], [ 77.666856933400808, 10.087551479617151, 0.0 ], [ 77.666934483739524, 10.08784712364589, 0.0 ], [ 77.666960144994718, 10.088161075173501, 0.0 ], [ 77.666981270069655, 10.08847210300519, 0.0 ], [ 77.666924318702385, 10.088775420948989, 0.0 ], [ 77.666842097285041, 10.08907619830797, 0.0 ], [ 77.666755551927238, 10.08937567884454, 0.0 ], [ 77.666651155026827, 10.08967122304853, 0.0 ], [ 77.666606271662161, 10.089975125551611, 0.0 ], [ 77.666601194989198, 10.090286280187749, 0.0 ], [ 77.666616313492099, 10.09059837821261, 0.0 ], [ 77.666648180069515, 10.090907134356829, 0.0 ], [ 77.666719213021352, 10.091203187577079, 0.0 ], [ 77.668198442204414, 10.090034774885011, 0.0 ], [ 77.668466584065655, 10.08824992279572, 0.0 ], [ 77.668786771492378, 10.086990260392261, 0.0 ], [ 77.670218187319577, 10.086572701568979, 0.0 ], [ 77.670749375483339, 10.08583850044648, 0.0 ], [ 77.671121693011798, 10.08505151001925, 0.0 ], [ 77.671653252595618, 10.08410727043425, 0.0 ], [ 77.671972391412794, 10.083425203910069, 0.0 ], [ 77.671972672001303, 10.083267676861871, 0.0 ], [ 77.672344047939546, 10.083005778094231, 0.0 ], [ 77.672347227042977, 10.08122046015615, 0.0 ], [ 77.673146230614122, 10.078858925898761, 0.0 ], [ 77.676592009113975, 10.07791975129555, 0.0 ], [ 77.676812673965799, 10.07790842073706, 0.0 ], [ 77.676744727487232, 10.07765209147089, 0.0 ], [ 77.67666438925022, 10.0773519085638, 0.0 ], [ 77.676584419735249, 10.07705162763056, 0.0 ], [ 77.67650454105177, 10.076751323314991, 0.0 ], [ 77.676424468114774, 10.07645107116009, 0.0 ], [ 77.676343922134365, 10.07615094491023, 0.0 ], [ 77.67626816774181, 10.075848013674941, 0.0 ], [ 77.676194444917769, 10.07554352211589, 0.0 ], [ 77.676074194768333, 10.075261309461879, 0.0 ], [ 77.675866415402808, 10.07502230113835, 0.0 ], [ 77.675594881298778, 10.074872876981701, 0.0 ], [ 77.675295088697467, 10.074761294498209, 0.0 ], [ 77.675041173211639, 10.07459021196879, 0.0 ], [ 77.67482768045312, 10.07436721697356, 0.0 ], [ 77.67462939433112, 10.0741245493086, 0.0 ], [ 77.674434365553552, 10.07387698933168, 0.0 ], [ 77.674230905631873, 10.073638856048429, 0.0 ], [ 77.674025904272114, 10.0733935066051, 0.0 ], [ 77.673787561446872, 10.07319966763059, 0.0 ], [ 77.673504560986771, 10.07307527880112, 0.0 ], [ 77.673207791006817, 10.07296822980005, 0.0 ], [ 77.672902385736549, 10.072880647523901, 0.0 ], [ 77.672593482103593, 10.072814656171481, 0.0 ], [ 77.67228509917804, 10.07277175041601, 0.0 ], [ 77.671974256606674, 10.072747821255, 0.0 ], [ 77.671661015543464, 10.07273797907453, 0.0 ], [ 77.671346325672459, 10.072737663412511, 0.0 ], [ 77.671031134879001, 10.07274231830338, 0.0 ], [ 77.670716397343924, 10.072747380587209, 0.0 ], [ 77.670402862202351, 10.07275136368451, 0.0 ], [ 77.670089548294058, 10.0727711217899, 0.0 ], [ 77.669776525766125, 10.07279195548443, 0.0 ], [ 77.669462992423234, 10.072793454654221, 0.0 ], [ 77.669144342837228, 10.07276750921322, 0.0 ], [ 77.668857794551613, 10.072659202060541, 0.0 ], [ 77.668607792915381, 10.07245873598192, 0.0 ], [ 77.668437729317816, 10.07220244718525, 0.0 ], [ 77.668300234668152, 10.07192548567269, 0.0 ], [ 77.66817715525157, 10.071637682832851, 0.0 ], [ 77.668059289204891, 10.07134640860995, 0.0 ], [ 77.667937798890364, 10.07105878473515, 0.0 ], [ 77.66781848763317, 10.070771161759749, 0.0 ], [ 77.667703959869939, 10.07048113669515, 0.0 ], [ 77.667590421360899, 10.0701906682648, 0.0 ], [ 77.667474078765778, 10.069901719688691, 0.0 ], [ 77.667351139643415, 10.069616250589529, 0.0 ], [ 77.667217810653497, 10.06933622598611, 0.0 ], [ 77.667071312890812, 10.069062966083081, 0.0 ], [ 77.6669157922301, 10.068793795397379, 0.0 ], [ 77.66675299155736, 10.068528076309731, 0.0 ], [ 77.666583806597444, 10.068265744968199, 0.0 ], [ 77.666409133974398, 10.068006735722349, 0.0 ], [ 77.666229871211684, 10.067750983820851, 0.0 ], [ 77.666046913134593, 10.067498420915459, 0.0 ], [ 77.665860704907672, 10.06724929431955, 0.0 ], [ 77.665660795509396, 10.067011018044081, 0.0 ], [ 77.665448369346862, 10.066782258394539, 0.0 ], [ 77.665231343152001, 10.06655694045048, 0.0 ], [ 77.665017638153543, 10.066328986593531, 0.0 ], [ 77.664815230438592, 10.06609226794388, 0.0 ], [ 77.664635975769727, 10.065836051992269, 0.0 ], [ 77.664470309856981, 10.06556847760322, 0.0 ], [ 77.664297770425833, 10.065308032140029, 0.0 ], [ 77.664097897000431, 10.065073199368721, 0.0 ], [ 77.663871495373257, 10.064860880225449, 0.0 ], [ 77.663635469201608, 10.06465481406847, 0.0 ], [ 77.663390807739646, 10.06445658640239, 0.0 ], [ 77.663138491248461, 10.06426779712122, 0.0 ], [ 77.662879499089698, 10.064090042521499, 0.0 ], [ 77.662614815121685, 10.06392491979925, 0.0 ], [ 77.662341046202343, 10.06378011366137, 0.0 ], [ 77.662047438238758, 10.063670591524611, 0.0 ], [ 77.661743137335975, 10.06358004328446, 0.0 ], [ 77.66143901719694, 10.06348959576826, 0.0 ], [ 77.661145951524489, 10.063380382099, 0.0 ], [ 77.660874268132986, 10.06323451206311, 0.0 ], [ 77.660622166579785, 10.063055500211201, 0.0 ], [ 77.660382598877916, 10.06285534979464, 0.0 ], [ 77.660149791379794, 10.062643645787681, 0.0 ], [ 77.659917974035352, 10.062429978560729, 0.0 ], [ 77.659681372297555, 10.06222393758469, 0.0 ], [ 77.659409275217925, 10.062051048317301, 0.0 ], [ 77.659240466174666, 10.06180701278344, 0.0 ], [ 77.659129618437191, 10.06151611717512, 0.0 ], [ 77.659043148622445, 10.0612114628388, 0.0 ], [ 77.658981012663659, 10.06090451163395, 0.0 ], [ 77.658958535008409, 10.060597846413531, 0.0 ], [ 77.658983502886414, 10.06028551636355, 0.0 ], [ 77.659022885997459, 10.05997555422851, 0.0 ], [ 77.659067408733961, 10.05966830175077, 0.0 ], [ 77.659118009988234, 10.05936165451681, 0.0 ], [ 77.659171025922149, 10.059055256395011, 0.0 ], [ 77.659222794496415, 10.058748752153219, 0.0 ], [ 77.659269647376391, 10.05844178296196, 0.0 ], [ 77.659307930616535, 10.058132966563219, 0.0 ], [ 77.659322364735388, 10.057820938685451, 0.0 ], [ 77.659284418740967, 10.05751483823922, 0.0 ], [ 77.659202657776532, 10.05721279103749, 0.0 ], [ 77.659085689253217, 10.056924468389569, 0.0 ], [ 77.658950177608673, 10.0566437000468, 0.0 ], [ 77.658802549398217, 10.056367645050861, 0.0 ], [ 77.658643559153006, 10.05609936829125, 0.0 ], [ 77.658231533858284, 10.055671437586859, 0.0 ], [ 77.658000615835817, 10.055453069603519, 0.0 ], [ 77.657711519770899, 10.05536896410643, 0.0 ], [ 77.657396591579456, 10.055402011493699, 0.0 ], [ 77.6570919831086, 10.055478003307259, 0.0 ], [ 77.656795028767647, 10.05558900572812, 0.0 ], [ 77.656497530336836, 10.05568531322665, 0.0 ], [ 77.656191930812994, 10.05570204511333, 0.0 ], [ 77.655879258121331, 10.05564616933532, 0.0 ], [ 77.655567301289963, 10.05560143525808, 0.0 ], [ 77.655255459571833, 10.055591126329491, 0.0 ], [ 77.654943732067622, 10.05562909031033, 0.0 ], [ 77.654669194228006, 10.055621922713611, 0.0 ], [ 77.654493101575426, 10.055354313251019, 0.0 ], [ 77.654343359058842, 10.05507974933102, 0.0 ], [ 77.654195166074075, 10.05480438141711, 0.0 ], [ 77.654027280634523, 10.05454400969837, 0.0 ], [ 77.653827292995231, 10.05430784682971, 0.0 ], [ 77.65360770373259, 10.05408653446603, 0.0 ], [ 77.65337843596609, 10.053872642408569, 0.0 ], [ 77.653149180790123, 10.05365891582637, 0.0 ], [ 77.652916748309352, 10.05344748791128, 0.0 ], [ 77.652674738048802, 10.053243334612249, 0.0 ], [ 77.652475645234915, 10.05300903423959, 0.0 ], [ 77.652332200670571, 10.05273454496332, 0.0 ], [ 77.65221216995576, 10.05244253059835, 0.0 ], [ 77.652101897784405, 10.052143598648239, 0.0 ], [ 77.65198773964255, 10.051848357515739, 0.0 ], [ 77.651856041123423, 10.05156741200652, 0.0 ], [ 77.651693154115819, 10.051311371422701, 0.0 ], [ 77.651490697837517, 10.051085840339301, 0.0 ], [ 77.651257241928235, 10.050883386758921, 0.0 ], [ 77.651001576361679, 10.050698743352349, 0.0 ], [ 77.65073238139432, 10.05052677499072, 0.0 ], [ 77.650458338181792, 10.050362343847141, 0.0 ], [ 77.650188123383259, 10.050200312994081, 0.0 ], [ 77.64991652272937, 10.050042856992331, 0.0 ], [ 77.64963321110389, 10.04990209960226, 0.0 ], [ 77.649340910754447, 10.04978715994951, 0.0 ], [ 77.649041614578891, 10.049706160710789, 0.0 ], [ 77.648731171306551, 10.049653857039919, 0.0 ], [ 77.648414488537867, 10.0496267379836, 0.0 ], [ 77.64809916554411, 10.04962375673103, 0.0 ], [ 77.647791219689097, 10.049651561070741, 0.0 ], [ 77.647491423490465, 10.049757161264051, 0.0 ], [ 77.647220227531534, 10.04991453003159, 0.0 ], [ 77.646976576907548, 10.05010846343488, 0.0 ], [ 77.646741303468445, 10.050317262631619, 0.0 ], [ 77.646496561067508, 10.050512134027841, 0.0 ], [ 77.64623440239582, 10.050687359733899, 0.0 ], [ 77.64596433508602, 10.05085910326506, 0.0 ], [ 77.645686810597908, 10.05100856519317, 0.0 ], [ 77.645402058258398, 10.05111628958514, 0.0 ], [ 77.645097545115661, 10.05111987248416, 0.0 ], [ 77.645039537045079, 10.051107657892141, 0.0 ], [ 77.644779435122871, 10.051052881984971, 0.0 ], [ 77.644463148055891, 10.051018106100759, 0.0 ], [ 77.644143844662764, 10.050992100405161, 0.0 ], [ 77.643851579386947, 10.050902501849031, 0.0 ], [ 77.643586318054204, 10.050747717733019, 0.0 ], [ 77.643330211819872, 10.05056901434857, 0.0 ], [ 77.643081787594483, 10.05037393430969, 0.0 ], [ 77.642839564194617, 10.05017001393502, 0.0 ], [ 77.642602071228694, 10.04996476346308, 0.0 ], [ 77.642368240302105, 10.0497585749983, 0.0 ], [ 77.64213746077526, 10.049548823419521, 0.0 ], [ 77.641909037472146, 10.049336315418641, 0.0 ], [ 77.641682276116214, 10.04912185319102, 0.0 ], [ 77.641456483330103, 10.04890623983114, 0.0 ], [ 77.641230962139261, 10.04869027843365, 0.0 ], [ 77.641005020065691, 10.04847477389176, 0.0 ], [ 77.640777960134798, 10.048260529300009, 0.0 ], [ 77.640549090767976, 10.04804834685376, 0.0 ], [ 77.640318857129628, 10.047837086212621, 0.0 ], [ 77.640088888791254, 10.04762363212493, 0.0 ], [ 77.639854127965705, 10.04741631680962, 0.0 ], [ 77.639608932306416, 10.047224452746301, 0.0 ], [ 77.639348493138542, 10.0470552956654, 0.0 ], [ 77.639074717024641, 10.046904258125039, 0.0 ], [ 77.638791813691284, 10.046767349833379, 0.0 ], [ 77.638503886744999, 10.046641155165229, 0.0 ], [ 77.63821418004045, 10.046523428513479, 0.0 ], [ 77.637919378676415, 10.046419091867641, 0.0 ], [ 77.637620887394121, 10.0463234921355, 0.0 ], [ 77.63732159301712, 10.04622968115488, 0.0 ], [ 77.637024383268752, 10.04613070446851, 0.0 ], [ 77.636731126940006, 10.046021119379191, 0.0 ], [ 77.636440447168994, 10.04590200867078, 0.0 ], [ 77.636159010629925, 10.04576524067333, 0.0 ], [ 77.635892338260888, 10.045604316885751, 0.0 ], [ 77.635634369530592, 10.045428693679289, 0.0 ], [ 77.635380758015643, 10.04524550537581, 0.0 ], [ 77.635127707677597, 10.045061129067911, 0.0 ], [ 77.634871419780254, 10.04488195084137, 0.0 ], [ 77.634611037269622, 10.04469888754369, 0.0 ], [ 77.634341083274421, 10.044539295652029, 0.0 ], [ 77.6340408230256, 10.04448237935839, 0.0 ], [ 77.633721977387395, 10.044527351755921, 0.0 ], [ 77.633428146391893, 10.044632888996659, 0.0 ], [ 77.633143805941913, 10.044775643781019, 0.0 ], [ 77.63289154071208, 10.04495916933026, 0.0 ], [ 77.632661522011674, 10.045169304919501, 0.0 ], [ 77.632437409159124, 10.045391957273059, 0.0 ], [ 77.632225564858018, 10.0456267828498, 0.0 ], [ 77.632032355408896, 10.045873442605339, 0.0 ], [ 77.631864151609378, 10.046131600193251, 0.0 ], [ 77.631733626705568, 10.046408346767871, 0.0 ], [ 77.631636068250018, 10.046703595094851, 0.0 ], [ 77.631553106690589, 10.047007382484781, 0.0 ], [ 77.631466370676534, 10.04730975883837, 0.0 ], [ 77.631357649835692, 10.047601115798891, 0.0 ], [ 77.631216217054842, 10.047882436325439, 0.0 ], [ 77.631028361269912, 10.048130444164711, 0.0 ], [ 77.630807253052339, 10.04834952710906, 0.0 ], [ 77.630579045586572, 10.04856642020418, 0.0 ], [ 77.630343332378985, 10.048776638531081, 0.0 ], [ 77.630099701540075, 10.048975688177491, 0.0 ], [ 77.629847742079662, 10.049159079727801, 0.0 ], [ 77.629586096021569, 10.04932144332996, 0.0 ], [ 77.629300254603152, 10.04944595087, 0.0 ], [ 77.628995348456613, 10.04953570860612, 0.0 ], [ 77.628684397067346, 10.049601386095169, 0.0 ], [ 77.628375724560101, 10.049639234962809, 0.0 ], [ 77.628059361050717, 10.049618842835381, 0.0 ], [ 77.627744899607478, 10.04961110776644, 0.0 ], [ 77.627441061855549, 10.04967217353204, 0.0 ], [ 77.627141870900701, 10.049761338614919, 0.0 ], [ 77.626844689930593, 10.049863602323461, 0.0 ], [ 77.626547410934336, 10.049967679964491, 0.0 ], [ 77.626247929498405, 10.05006228234849, 0.0 ], [ 77.625944566588529, 10.050139224745459, 0.0 ], [ 77.625638874434586, 10.050210477131889, 0.0 ], [ 77.625331497850439, 10.05027629491512, 0.0 ], [ 77.625022682350945, 10.050333650977301, 0.0 ], [ 77.624712675249839, 10.050379511905041, 0.0 ], [ 77.624401721162556, 10.050410858674249, 0.0 ], [ 77.624089785015599, 10.050431885723, 0.0 ], [ 77.623776888392754, 10.050447908044591, 0.0 ], [ 77.623463300191176, 10.05045896341049, 0.0 ], [ 77.623149291106969, 10.05046508689429, 0.0 ], [ 77.62283513813118, 10.050466312670251, 0.0 ], [ 77.622521110161188, 10.050462674912589, 0.0 ], [ 77.622207477892871, 10.05045420959415, 0.0 ], [ 77.621894515619417, 10.0504409526879, 0.0 ], [ 77.621582302481315, 10.05042256694793, 0.0 ], [ 77.62127020625509, 10.05039767461305, 0.0 ], [ 77.620958276403385, 10.05036666419022, 0.0 ], [ 77.62064666221373, 10.05033014362129, 0.0 ], [ 77.620335511174957, 10.0502887145526, 0.0 ], [ 77.620024970775845, 10.05024298402655, 0.0 ], [ 77.619715188505197, 10.050193555488249, 0.0 ], [ 77.619406314549835, 10.050141035080751, 0.0 ], [ 77.61909825178293, 10.05008559817184, 0.0 ], [ 77.618790398558062, 10.05002566285413, 0.0 ], [ 77.6184832252207, 10.049960535750181, 0.0 ], [ 77.61817731273284, 10.04988966107901, 0.0 ], [ 77.617873236660628, 10.049812481261039, 0.0 ], [ 77.617571577066727, 10.04972843961583, 0.0 ], [ 77.617272912215199, 10.049636980362379, 0.0 ], [ 77.616980184687819, 10.049528923221271, 0.0 ], [ 77.616694055486334, 10.04940113945106, 0.0 ], [ 77.616410954302197, 10.049264673625821, 0.0 ], [ 77.616127309028158, 10.04913058380949, 0.0 ], [ 77.615839543959865, 10.049009930763781, 0.0 ], [ 77.615532506420081, 10.048952129537209, 0.0 ], [ 77.615216878556154, 10.048942683058449, 0.0 ], [ 77.614901998028856, 10.04894140062521, 0.0 ], [ 77.614608703029248, 10.048847641805271, 0.0 ], [ 77.614328544426812, 10.048698639430709, 0.0 ], [ 77.614040884579197, 10.04857762485754, 0.0 ], [ 77.613734081762516, 10.04853278466031, 0.0 ], [ 77.613418302812491, 10.04852237141033, 0.0 ], [ 77.613104675940136, 10.048497187695091, 0.0 ], [ 77.612796900956241, 10.048441111368231, 0.0 ], [ 77.612490278003975, 10.04837651486433, 0.0 ], [ 77.612184745029978, 10.048305758903719, 0.0 ], [ 77.611880249873721, 10.04823115654267, 0.0 ], [ 77.611577773695345, 10.0481511564508, 0.0 ], [ 77.611229501340461, 10.0480269465864, 0.0 ], [ 77.611173210974982, 10.04855684692097, 0.0 ], [ 77.611139167138901, 10.04886587106313, 0.0 ], [ 77.611108328486637, 10.04917500492256, 0.0 ], [ 77.611084008120557, 10.049484360914541, 0.0 ], [ 77.611071549812209, 10.04979410001779, 0.0 ], [ 77.611080355973684, 10.05010447584095, 0.0 ], [ 77.611096772198309, 10.05041515923228, 0.0 ], [ 77.611103737447607, 10.05072573920155, 0.0 ], [ 77.611094942077969, 10.05103611502471, 0.0 ], [ 77.611079915305865, 10.051346508834319, 0.0 ], [ 77.611061972931722, 10.05165689005349, 0.0 ], [ 77.611044383091851, 10.051967225407189, 0.0 ], [ 77.611030413023187, 10.052277476224621, 0.0 ], [ 77.611023331761416, 10.0525876110295, 0.0 ], [ 77.611032588483241, 10.052897684680421, 0.0 ], [ 77.611067174610483, 10.05320770437209, 0.0 ], [ 77.611102321914714, 10.05351715029626, 0.0 ], [ 77.611110447289363, 10.05382551883269, 0.0 ], [ 77.611055439357074, 10.054132097718201, 0.0 ], [ 77.610969609859652, 10.054433234805989, 0.0 ], [ 77.610840318825694, 10.05471605809965, 0.0 ], [ 77.610632134765254, 10.0549443204241, 0.0 ], [ 77.610397562797331, 10.05515434179951, 0.0 ], [ 77.61015829726766, 10.055356858332409, 0.0 ], [ 77.609909083437529, 10.05554740039226, 0.0 ], [ 77.609638542185053, 10.05570290846248, 0.0 ], [ 77.609345376687813, 10.05582002357529, 0.0 ], [ 77.609039226778989, 10.055859139587641, 0.0 ], [ 77.608723388473678, 10.05584701133056, 0.0 ], [ 77.608412227542331, 10.055893624990849, 0.0 ], [ 77.608107012928386, 10.05596831458608, 0.0 ], [ 77.607827256322864, 10.056102839674351, 0.0 ], [ 77.607589345172173, 10.05630905332019, 0.0 ], [ 77.607382563154815, 10.056546455454621, 0.0 ], [ 77.607258317317516, 10.056827007960131, 0.0 ], [ 77.607187413868132, 10.05713362101983, 0.0 ], [ 77.607153266609984, 10.057442503069129, 0.0 ], [ 77.607136832398965, 10.057753556081829, 0.0 ], [ 77.607128910271044, 10.058066130747379, 0.0 ], [ 77.60712134427466, 10.058378479683141, 0.0 ], [ 77.607105977558874, 10.058688854606981, 0.0 ], [ 77.607074652373342, 10.058995511733549, 0.0 ], [ 77.606994132473275, 10.05929004509953, 0.0 ], [ 77.606841224343086, 10.059566774587051, 0.0 ], [ 77.606730550174817, 10.05985661798861, 0.0 ], [ 77.606660207003003, 10.060158215529279, 0.0 ], [ 77.606600547777134, 10.060463133366969, 0.0 ], [ 77.606545813238782, 10.060769670883619, 0.0 ], [ 77.606490246827477, 10.06107612656206, 0.0 ], [ 77.606428086586959, 10.06138080068347, 0.0 ], [ 77.606361820941345, 10.061684820997749, 0.0 ], [ 77.606293448184132, 10.061988730695401, 0.0 ], [ 77.606215975187197, 10.062289785045611, 0.0 ], [ 77.606122439399158, 10.062585261800431, 0.0 ], [ 77.606011008901007, 10.062874996384039, 0.0 ], [ 77.605886325993211, 10.063160427711651, 0.0 ], [ 77.605752666952057, 10.063442214986329, 0.0 ], [ 77.605614125491556, 10.063720952659869, 0.0 ], [ 77.60545430157481, 10.063989722247941, 0.0 ], [ 77.605284538350816, 10.064253523081669, 0.0 ], [ 77.605139509181058, 10.06452660042229, 0.0 ], [ 77.605041134141061, 10.06481862557915, 0.0 ], [ 77.604973685886918, 10.065123083863289, 0.0 ], [ 77.604923990250043, 10.065432260890191, 0.0 ], [ 77.604884149384034, 10.065740467548631, 0.0 ], [ 77.60486481036277, 10.06605174719045, 0.0 ], [ 77.604849766503605, 10.0663632984275, 0.0 ], [ 77.604818640967537, 10.06667092142593, 0.0 ], [ 77.60473073133825, 10.06696929939371, 0.0 ], [ 77.604565140069226, 10.06723490786476, 0.0 ], [ 77.604322555141877, 10.067431460993181, 0.0 ], [ 77.604017303655709, 10.06748611998847, 0.0 ], [ 77.603699807899872, 10.06750901492917, 0.0 ], [ 77.603385484952241, 10.06752415411647, 0.0 ], [ 77.603075701782245, 10.067575828261919, 0.0 ], [ 77.602779950734188, 10.06768502034749, 0.0 ], [ 77.602549347474465, 10.067886311104431, 0.0 ], [ 77.602345258027285, 10.068126622545661, 0.0 ], [ 77.602149268773815, 10.06837256194423, 0.0 ], [ 77.601955245438262, 10.068622153489621, 0.0 ], [ 77.601822835555481, 10.068896246164851, 0.0 ], [ 77.601803005504323, 10.06921042522098, 0.0 ], [ 77.601812875563851, 10.069526264425621, 0.0 ], [ 77.601993186936113, 10.069768090325161, 0.0 ], [ 77.602224203883978, 10.06998744756269, 0.0 ], [ 77.602439177825815, 10.07021511723393, 0.0 ], [ 77.602656025055595, 10.07044144781465, 0.0 ], [ 77.602870359579484, 10.070669582435359, 0.0 ], [ 77.603074678353778, 10.07090425422804, 0.0 ], [ 77.603261396496293, 10.07115148595237, 0.0 ], [ 77.603414377471609, 10.07142907968829, 0.0 ], [ 77.603502034391454, 10.07172520485436, 0.0 ], [ 77.603525763003617, 10.072033159702579, 0.0 ], [ 77.603511890961059, 10.072347988069239, 0.0 ], [ 77.603475000770757, 10.072657019406, 0.0 ], [ 77.603373228991359, 10.07295380377508, 0.0 ], [ 77.603195181212712, 10.073205243427299, 0.0 ], [ 77.60296922295133, 10.0734246195506, 0.0 ], [ 77.60322605943513, 10.073601509901851, 0.0 ], [ 77.60351265088822, 10.07372583757741, 0.0 ], [ 77.603804729105036, 10.073840153999971, 0.0 ], [ 77.604096515042201, 10.07395588775403, 0.0 ], [ 77.604387026640026, 10.07408301861647, 0.0 ], [ 77.604681332477568, 10.074188821157239, 0.0 ], [ 77.604985746694922, 10.07423836301006, 0.0 ], [ 77.60530206074155, 10.074235008538841, 0.0 ], [ 77.605615997880079, 10.07419363972474, 0.0 ], [ 77.605916153807513, 10.074114655866691, 0.0 ], [ 77.606208591753173, 10.073998947293649, 0.0 ], [ 77.606501744659838, 10.073884726199189, 0.0 ], [ 77.606800478759183, 10.07379012471454, 0.0 ], [ 77.60709843404554, 10.0736938361017, 0.0 ], [ 77.607389233426431, 10.0735789549049, 0.0 ], [ 77.607676065897806, 10.073453444620849, 0.0 ], [ 77.607959501629736, 10.073320427695659, 0.0 ], [ 77.608239691708476, 10.073181507620539, 0.0 ], [ 77.608516891541356, 10.07303636063962, 0.0 ], [ 77.608790717117969, 10.072885055101279, 0.0 ], [ 77.609060298793793, 10.07272696687609, 0.0 ], [ 77.609323637376022, 10.07255854094393, 0.0 ], [ 77.609585503768031, 10.072387645473521, 0.0 ], [ 77.609851570893355, 10.072222940036671, 0.0 ], [ 77.610124492651266, 10.07206471151726, 0.0 ], [ 77.610420136680048, 10.071980635697869, 0.0 ], [ 77.61073673581177, 10.071971008455311, 0.0 ], [ 77.611050170229262, 10.07197004528145, 0.0 ], [ 77.611366559818904, 10.071977459292381, 0.0 ], [ 77.611635908570406, 10.07212629169506, 0.0 ], [ 77.611864688005014, 10.072339318604691, 0.0 ], [ 77.612084850135773, 10.072561247903311, 0.0 ], [ 77.612320101091811, 10.072765442571161, 0.0 ], [ 77.612570552389116, 10.072951730837779, 0.0 ], [ 77.61282652642312, 10.073131561972041, 0.0 ], [ 77.613080762067582, 10.073313520003, 0.0 ], [ 77.613333750352339, 10.07349700688145, 0.0 ], [ 77.613587424819855, 10.073679722141501, 0.0 ], [ 77.61384006956358, 10.07386368026471, 0.0 ], [ 77.614089965979176, 10.074050904725519, 0.0 ], [ 77.614334937707284, 10.07424396668574, 0.0 ], [ 77.614565518483957, 10.0744540833893, 0.0 ], [ 77.614790693435793, 10.074670669815569, 0.0 ], [ 77.615016395390398, 10.074888318341261, 0.0 ], [ 77.615251502454939, 10.075092369117611, 0.0 ], [ 77.615525110395609, 10.07524553445394, 0.0 ], [ 77.615823144822343, 10.07534074927621, 0.0 ], [ 77.616130569070563, 10.075399544253621, 0.0 ], [ 77.616442787604626, 10.075439872552121, 0.0 ], [ 77.616755414430898, 10.07546616693007, 0.0 ], [ 77.617070806672459, 10.07546722723076, 0.0 ], [ 77.617387213349275, 10.07545835451948, 0.0 ], [ 77.617700023637227, 10.07546578022165, 0.0 ], [ 77.618004973850546, 10.075514721327339, 0.0 ], [ 77.618303251094218, 10.07560634066018, 0.0 ], [ 77.618595424639167, 10.07572617981941, 0.0 ], [ 77.618880930610558, 10.07586105744188, 0.0 ], [ 77.619158679929185, 10.07600343810822, 0.0 ], [ 77.619428348839264, 10.076161309596779, 0.0 ], [ 77.619693449193377, 10.076328220171259, 0.0 ], [ 77.619957715875955, 10.076496343931179, 0.0 ], [ 77.620224648149076, 10.07665986945746, 0.0 ], [ 77.62048552438749, 10.07683201048893, 0.0 ], [ 77.620724182874824, 10.077033376788959, 0.0 ], [ 77.620950707709028, 10.07725103700581, 0.0 ], [ 77.621187840946149, 10.07745223603189, 0.0 ], [ 77.621458459540364, 10.07760273667704, 0.0 ], [ 77.621751545897155, 10.077719296008739, 0.0 ], [ 77.622035205560351, 10.07785310883397, 0.0 ], [ 77.622314385700392, 10.07799666851151, 0.0 ], [ 77.622578479713141, 10.078161580792379, 0.0 ], [ 77.622820112258424, 10.07836219885642, 0.0 ], [ 77.623026874490719, 10.07859425901791, 0.0 ], [ 77.623181864551427, 10.078866509881561, 0.0 ], [ 77.623287898217995, 10.07915791540551, 0.0 ], [ 77.623368791336716, 10.07945915771397, 0.0 ], [ 77.623426726562215, 10.07976461784288, 0.0 ], [ 77.623445827263197, 10.08007844346541, 0.0 ], [ 77.623513064176635, 10.08037673959489, 0.0 ], [ 77.623655041946691, 10.08065506897627, 0.0 ], [ 77.623834859591184, 10.080912061042859, 0.0 ], [ 77.624045213715704, 10.08114065341845, 0.0 ], [ 77.624271307774663, 10.0813578738668, 0.0 ], [ 77.624482156526369, 10.08158771000484, 0.0 ], [ 77.62468109465685, 10.08182776244133, 0.0 ], [ 77.624881504078189, 10.082066590001221, 0.0 ], [ 77.625084463976876, 10.082304751163409, 0.0 ], [ 77.625290737877322, 10.08254001111265, 0.0 ], [ 77.625515707783734, 10.08275349667656, 0.0 ], [ 77.62576878330276, 10.08293583961734, 0.0 ], [ 77.626039320058638, 10.08309618604024, 0.0 ], [ 77.626314768911527, 10.083244195563241, 0.0 ], [ 77.626595413147854, 10.08338225318845, 0.0 ], [ 77.62687952966661, 10.083514072216699, 0.0 ], [ 77.6271644843535, 10.08364389474999, 0.0 ], [ 77.627453531855068, 10.083765339199079, 0.0 ], [ 77.627743905856633, 10.083883567672579, 0.0 ], [ 77.628019348414227, 10.084028409783359, 0.0 ], [ 77.628275025671925, 10.084208170770539, 0.0 ], [ 77.628529732561177, 10.084390410289251, 0.0 ], [ 77.628790136655553, 10.084566656725899, 0.0 ], [ 77.629055739730688, 10.08473311044474, 0.0 ], [ 77.629339859846709, 10.084854883146351, 0.0 ], [ 77.62964683263526, 10.084922190206949, 0.0 ], [ 77.629956495296099, 10.084981395275239, 0.0 ], [ 77.630270779572868, 10.08502708263382, 0.0 ], [ 77.63056863323591, 10.08511099837393, 0.0 ], [ 77.63083570490393, 10.085267081110951, 0.0 ], [ 77.63109033984739, 10.08545267060428, 0.0 ], [ 77.631349564930545, 10.085630409016231, 0.0 ], [ 77.631621404804037, 10.08578650344441, 0.0 ], [ 77.631897127950154, 10.08593692764715, 0.0 ], [ 77.632167131408025, 10.08609423166352, 0.0 ], [ 77.632420304053824, 10.08627323272357, 0.0 ], [ 77.63263745075777, 10.08649900842255, 0.0 ], [ 77.632835501257446, 10.086742451303129, 0.0 ], [ 77.633001029573904, 10.087007147861639, 0.0 ], [ 77.6330488105542, 10.08731092086235, 0.0 ], [ 77.633067074885687, 10.08762705594394, 0.0 ], [ 77.633032473469953, 10.087929248835771, 0.0 ], [ 77.632882975568933, 10.088202304592739, 0.0 ], [ 77.632693228509751, 10.08845423707346, 0.0 ], [ 77.632485816966962, 10.08868595009659, 0.0 ], [ 77.632265536125672, 10.088907892885009, 0.0 ], [ 77.632044870374486, 10.089129294281591, 0.0 ], [ 77.631815998309705, 10.08934420437155, 0.0 ], [ 77.631601509102424, 10.08956930108242, 0.0 ], [ 77.631442861498897, 10.08983474138029, 0.0 ], [ 77.631306546759802, 10.09011675618344, 0.0 ], [ 77.631136390532049, 10.09037656852388, 0.0 ], [ 77.630946681244367, 10.090623852408889, 0.0 ], [ 77.630750084948531, 10.090866494892831, 0.0 ], [ 77.630554404162481, 10.09110919313482, 0.0 ], [ 77.630358471566254, 10.091351582009951, 0.0 ], [ 77.63016167022495, 10.09159330089018, 0.0 ], [ 77.629963928192794, 10.091834262541211, 0.0 ], [ 77.629765169926713, 10.092074381527549, 0.0 ], [ 77.629565312689067, 10.09231356701752, 0.0 ], [ 77.629359877856132, 10.09254814797869, 0.0 ], [ 77.629151182081429, 10.09278001748385, 0.0 ], [ 77.628948237471263, 10.093016519396871, 0.0 ], [ 77.628754750131677, 10.09326066195, 0.0 ], [ 77.628565637993844, 10.09350832175171, 0.0 ], [ 77.628378132944519, 10.09375728557035, 0.0 ], [ 77.628189474065039, 10.09400535096621, 0.0 ], [ 77.627997422942755, 10.09425079663704, 0.0 ], [ 77.627804672147946, 10.094496244106431, 0.0 ], [ 77.627606427394781, 10.094736993517481, 0.0 ], [ 77.627395724333255, 10.09496631164604, 0.0 ], [ 77.627174534277387, 10.095185944975411, 0.0 ], [ 77.626947949188533, 10.09540063922814, 0.0 ], [ 77.626719224612614, 10.095613406233801, 0.0 ], [ 77.626491614296626, 10.09582724972787, 0.0 ], [ 77.6262683782831, 10.096045185137269, 0.0 ], [ 77.626053097672369, 10.096270540852791, 0.0 ], [ 77.62584624910518, 10.09650379891122, 0.0 ], [ 77.625642906095308, 10.096740374568689, 0.0 ], [ 77.625437888547765, 10.096975444761039, 0.0 ], [ 77.62522989784155, 10.097210019426891, 0.0 ], [ 77.625023440479424, 10.09745048375286, 0.0 ], [ 77.62480373070764, 10.097670094599209, 0.0 ], [ 77.624543029837, 10.09782695075323, 0.0 ], [ 77.624227008969356, 10.09788378700722, 0.0 ], [ 77.623915576442755, 10.0978982840786, 0.0 ], [ 77.623601450446657, 10.097892360244259, 0.0 ], [ 77.623287006989827, 10.097884093676029, 0.0 ], [ 77.622969989673308, 10.097868073153119, 0.0 ], [ 77.622662336098017, 10.0979102981218, 0.0 ], [ 77.622365303516005, 10.098047532867369, 0.0 ], [ 77.622265962604146, 10.098316006578511, 0.0 ], [ 77.622475403017518, 10.0985458795887, 0.0 ], [ 77.622778322561601, 10.09863521734145, 0.0 ], [ 77.62308760121185, 10.09865403295732, 0.0 ], [ 77.623398923121826, 10.09866736720527, 0.0 ], [ 77.623711870106789, 10.09867583342303, 0.0 ], [ 77.624026027579191, 10.0986800494448, 0.0 ], [ 77.624340980052253, 10.098680629507481, 0.0 ], [ 77.62465630934129, 10.098678189646771, 0.0 ], [ 77.624971599959466, 10.098673344099611, 0.0 ], [ 77.62528643462133, 10.098666708901529, 0.0 ], [ 77.625600399638827, 10.09865890008818, 0.0 ], [ 77.625913608326414, 10.098648119015539, 0.0 ], [ 77.626227385385548, 10.09862090732908, 0.0 ], [ 77.626538556209496, 10.098574853047049, 0.0 ], [ 77.626843413792599, 10.098509321248221, 0.0 ], [ 77.627139557844359, 10.09840107345082, 0.0 ], [ 77.627409868870402, 10.09824370648192, 0.0 ], [ 77.627646725116335, 10.09804275656801, 0.0 ], [ 77.627872119502811, 10.09782390564879, 0.0 ], [ 77.628109304900534, 10.097620419646701, 0.0 ], [ 77.628358069968996, 10.097431546728551, 0.0 ], [ 77.628608815344577, 10.097244981470791, 0.0 ], [ 77.628848490065806, 10.09703980294462, 0.0 ], [ 77.629098117584149, 10.09686112743911, 0.0 ], [ 77.62940667317946, 10.09680954142725, 0.0 ], [ 77.629721589679662, 10.096779733398041, 0.0 ], [ 77.630033504242874, 10.09674590090264, 0.0 ], [ 77.630345994372206, 10.09672237643654, 0.0 ], [ 77.630658967437469, 10.09671625025482, 0.0 ], [ 77.630972265157993, 10.096720263029731, 0.0 ], [ 77.63128574094425, 10.096728977460391, 0.0 ], [ 77.631599245508838, 10.096737549798149, 0.0 ], [ 77.631912632262228, 10.09674113809309, 0.0 ], [ 77.632229064120068, 10.096745396382969, 0.0 ], [ 77.632543996808067, 10.09673362965334, 0.0 ], [ 77.63284178122332, 10.09665545338652, 0.0 ], [ 77.633128493185495, 10.09653209338143, 0.0 ], [ 77.63340960237133, 10.09638819735749, 0.0 ], [ 77.63368875463236, 10.09624301440363, 0.0 ], [ 77.633970823394876, 10.09610452600309, 0.0 ], [ 77.634250729287771, 10.09596133774556, 0.0 ], [ 77.634518498829721, 10.095801693693261, 0.0 ], [ 77.634763533510295, 10.095612427771361, 0.0 ], [ 77.634985980818428, 10.09539301027923, 0.0 ], [ 77.635201256033213, 10.095164429594769, 0.0 ], [ 77.635425297839276, 10.09494560385656, 0.0 ], [ 77.635650465596555, 10.09472730602039, 0.0 ], [ 77.635843841420183, 10.09448596755338, 0.0 ] ] ] } },
{ "type": "Feature", "properties": { "village": "A VADIPATTI", "gp_type": "VILLAGE PANCHAYAT" }, "geometry": { "type": "Polygon", "coordinates": [ [ [ 77.697851321281519, 10.087841655767861, 0.0 ], [ 77.697635503775544, 10.08736774992177, 0.0 ], [ 77.697327455397769, 10.08731022928372, 0.0 ], [ 77.697021481756067, 10.08724309759095, 0.0 ], [ 77.696714996400019, 10.087175670021219, 0.0 ], [ 77.696408322186358, 10.087108308101939, 0.0 ], [ 77.69610309947852, 10.087036325466091, 0.0 ], [ 77.695800969539178, 10.086955035746371, 0.0 ], [ 77.695503467511045, 10.08686002057356, 0.0 ], [ 77.695209350531158, 10.086754288179931, 0.0 ], [ 77.694917501641456, 10.08664125239191, 0.0 ], [ 77.694627613273781, 10.08652235212492, 0.0 ], [ 77.69433938145734, 10.086399028092741, 0.0 ], [ 77.694052499523323, 10.08627272010998, 0.0 ], [ 77.693766659903474, 10.086144867991329, 0.0 ], [ 77.693480136798954, 10.0860177200418, 0.0 ], [ 77.693191691843154, 10.08589075195672, 0.0 ], [ 77.692906720968452, 10.085757142378281, 0.0 ], [ 77.69263092407796, 10.08560983162848, 0.0 ], [ 77.692369993880163, 10.08544176902245, 0.0 ], [ 77.692123944764319, 10.085253016613461, 0.0 ], [ 77.691887477025489, 10.085050572925651, 0.0 ], [ 77.691657380084067, 10.084838953455019, 0.0 ], [ 77.691430433467801, 10.08462267729476, 0.0 ], [ 77.691203422100344, 10.084406259940961, 0.0 ], [ 77.690973131804625, 10.084194219587649, 0.0 ], [ 77.690737870956028, 10.08398890346518, 0.0 ], [ 77.690501643336233, 10.08378461167054, 0.0 ], [ 77.690264548769946, 10.08358124437898, 0.0 ], [ 77.690026142092862, 10.08337947608203, 0.0 ], [ 77.68978597903974, 10.08317998396916, 0.0 ], [ 77.689543613546945, 10.082983443431189, 0.0 ], [ 77.689291669375095, 10.082799634595521, 0.0 ], [ 77.689026847810851, 10.08263266286712, 0.0 ], [ 77.688772642743345, 10.08244810759413, 0.0 ], [ 77.68852434981892, 10.08225213272976, 0.0 ], [ 77.688263675028608, 10.08208513761906, 0.0 ], [ 77.687972095935535, 10.08198196559529, 0.0 ], [ 77.687657130871983, 10.081935339344509, 0.0 ], [ 77.687343145170075, 10.081919830535799, 0.0 ], [ 77.687025325658283, 10.08192095019176, 0.0 ], [ 77.686712406552374, 10.08195492837727, 0.0 ], [ 77.686416080837532, 10.08204045030657, 0.0 ], [ 77.686133314201143, 10.082174741571119, 0.0 ], [ 77.685856106274329, 10.082328799934221, 0.0 ], [ 77.685577061931895, 10.082472082620541, 0.0 ], [ 77.685274404090549, 10.0824888540774, 0.0 ], [ 77.684966195633478, 10.08243164550408, 0.0 ], [ 77.684658218302232, 10.08237300610938, 0.0 ], [ 77.684348561936645, 10.08232753009151, 0.0 ], [ 77.684035516026327, 10.082299083635879, 0.0 ], [ 77.683722514182762, 10.08229598097479, 0.0 ], [ 77.683412414451439, 10.08233786060384, 0.0 ], [ 77.683102428933978, 10.08238796273436, 0.0 ], [ 77.682787770539235, 10.082383671169501, 0.0 ], [ 77.682477231039442, 10.082398812155519, 0.0 ], [ 77.682177057125557, 10.0824841380326, 0.0 ], [ 77.681879788921151, 10.08258843330958, 0.0 ], [ 77.681580835387294, 10.082682361202041, 0.0 ], [ 77.681281553600869, 10.082774494047721, 0.0 ], [ 77.680983241283613, 10.0828743952372, 0.0 ], [ 77.680686357989103, 10.082986198953961, 0.0 ], [ 77.680377641415078, 10.08298992214724, 0.0 ], [ 77.680089699180314, 10.082864001772309, 0.0 ], [ 77.67987227818314, 10.08264311209, 0.0 ], [ 77.679661422236919, 10.082406528338661, 0.0 ], [ 77.679413543900026, 10.082218842525601, 0.0 ], [ 77.679153805303955, 10.082046282410049, 0.0 ], [ 77.678888539474613, 10.08188046001527, 0.0 ], [ 77.678620635933655, 10.081717801435429, 0.0 ], [ 77.678352986900919, 10.081554736362021, 0.0 ], [ 77.678087382926421, 10.081388473299461, 0.0 ], [ 77.677821378753663, 10.08121790338355, 0.0 ], [ 77.67769119109569, 10.0809437306687, 0.0 ], [ 77.677581578127388, 10.0806528692346, 0.0 ], [ 77.677484792189475, 10.08035333473868, 0.0 ], [ 77.677394647744848, 10.080051995303389, 0.0 ], [ 77.677306346011122, 10.07975375313327, 0.0 ], [ 77.677221404144504, 10.07945495518209, 0.0 ], [ 77.677139403061062, 10.07915525611025, 0.0 ], [ 77.677059520780304, 10.078854908627211, 0.0 ], [ 77.676980934422645, 10.07855416634173, 0.0 ], [ 77.676902822007676, 10.0782532801648, 0.0 ], [ 77.676824360655772, 10.07795250370514, 0.0 ], [ 77.676812673965799, 10.07790842073706, 0.0 ], [ 77.676592009113975, 10.07791975129555, 0.0 ], [ 77.673146230614122, 10.078858925898761, 0.0 ], [ 77.672347227042977, 10.08122046015615, 0.0 ], [ 77.672344047939546, 10.083005778094231, 0.0 ], [ 77.671972672001303, 10.083267676861871, 0.0 ], [ 77.671972391412794, 10.083425203910069, 0.0 ], [ 77.671653252595618, 10.08410727043425, 0.0 ], [ 77.671121693011798, 10.08505151001925, 0.0 ], [ 77.670749375483339, 10.08583850044648, 0.0 ], [ 77.670218187319577, 10.086572701568979, 0.0 ], [ 77.668786771492378, 10.086990260392261, 0.0 ], [ 77.668466584065655, 10.08824992279572, 0.0 ], [ 77.668198442204414, 10.090034774885011, 0.0 ], [ 77.666719213021352, 10.091203187577079, 0.0 ], [ 77.66672115735561, 10.09121129316668, 0.0 ], [ 77.666847351124446, 10.09149419919801, 0.0 ], [ 77.667002728792966, 10.091764651417581, 0.0 ], [ 77.667165232689385, 10.09203240297307, 0.0 ], [ 77.667314803435502, 10.09230552348116, 0.0 ], [ 77.66743481616389, 10.092590770447771, 0.0 ], [ 77.667539003522279, 10.09288302043506, 0.0 ], [ 77.667633601409634, 10.093179431585559, 0.0 ], [ 77.667720544267752, 10.093478743948941, 0.0 ], [ 77.667801773732947, 10.093779696675719, 0.0 ], [ 77.667879228743473, 10.09408102621844, 0.0 ], [ 77.66795452628044, 10.094382767650639, 0.0 ], [ 77.668024534005099, 10.0946870271846, 0.0 ], [ 77.668082884717435, 10.094993266126369, 0.0 ], [ 77.668123167150497, 10.0953008270716, 0.0 ], [ 77.668142397353776, 10.095609676745241, 0.0 ], [ 77.668151311433931, 10.095921409645371, 0.0 ], [ 77.668149502897293, 10.09623436022758, 0.0 ], [ 77.668134854739847, 10.09654648163486, 0.0 ], [ 77.668105240064847, 10.09685572611088, 0.0 ], [ 77.668057622761111, 10.097159946074751, 0.0 ], [ 77.667971874202692, 10.097456017281459, 0.0 ], [ 77.667856834725185, 10.09774647312128, 0.0 ], [ 77.667734358753705, 10.098035674406921, 0.0 ], [ 77.667624112662736, 10.098327627617961, 0.0 ], [ 77.667511225262899, 10.09862030028666, 0.0 ], [ 77.667423310237609, 10.09891728340596, 0.0 ], [ 77.667385865165599, 10.099224779599909, 0.0 ], [ 77.66737917061225, 10.099538929877779, 0.0 ], [ 77.667406295064495, 10.09984825529278, 0.0 ], [ 77.667476564491892, 10.100153819742999, 0.0 ], [ 77.667606238637063, 10.10044148138927, 0.0 ], [ 77.667802777376309, 10.10067460095212, 0.0 ], [ 77.668043789389415, 10.10087468032231, 0.0 ], [ 77.668296088793511, 10.101067386151, 0.0 ], [ 77.66852688540753, 10.101277412922339, 0.0 ], [ 77.66867582572884, 10.10155284738606, 0.0 ], [ 77.668695698048111, 10.101861433558391, 0.0 ], [ 77.668687299279512, 10.10217838612366, 0.0 ], [ 77.668685787519124, 10.10249200939878, 0.0 ], [ 77.668730057546156, 10.102789375629261, 0.0 ], [ 77.668939571703902, 10.103027218431389, 0.0 ], [ 77.669164020003578, 10.10324742732695, 0.0 ], [ 77.669392870484614, 10.10346215755259, 0.0 ], [ 77.669636307069993, 10.103654865179919, 0.0 ], [ 77.669918422597163, 10.10379397141469, 0.0 ], [ 77.670226432304062, 10.10386592077564, 0.0 ], [ 77.670512683813357, 10.10375856330713, 0.0 ], [ 77.670736904584558, 10.103537574699359, 0.0 ], [ 77.670914410072058, 10.10327970939113, 0.0 ], [ 77.671095395935836, 10.10302569857719, 0.0 ], [ 77.671335961885163, 10.10282332323782, 0.0 ], [ 77.671625197345065, 10.10280001101175, 0.0 ], [ 77.671719671125985, 10.103097314289711, 0.0 ], [ 77.671771043998532, 10.10340359100298, 0.0 ], [ 77.671817800650999, 10.10371136688612, 0.0 ], [ 77.6718667273676, 10.104018418815039, 0.0 ], [ 77.67190980579295, 10.104326853001909, 0.0 ], [ 77.671955112738303, 10.10463475299149, 0.0 ], [ 77.672014888876106, 10.10493908626983, 0.0 ], [ 77.672098354055834, 10.10523760992783, 0.0 ], [ 77.672198363163986, 10.10553218286403, 0.0 ], [ 77.672307312432551, 10.105824599225921, 0.0 ], [ 77.672418122398483, 10.10611650657161, 0.0 ], [ 77.672523718095178, 10.10640955335829, 0.0 ], [ 77.672617021858102, 10.106705388043279, 0.0 ], [ 77.672691361617126, 10.10700558264158, 0.0 ], [ 77.672749984824023, 10.10730967759959, 0.0 ], [ 77.672797377297158, 10.107616540670859, 0.0 ], [ 77.672835882669929, 10.107925375955411, 0.0 ], [ 77.672867840078808, 10.10823539204976, 0.0 ], [ 77.672895589559843, 10.1085457894567, 0.0 ], [ 77.672921470249719, 10.108855777672041, 0.0 ], [ 77.672944991118527, 10.10916521640168, 0.0 ], [ 77.672961712213279, 10.109475181234719, 0.0 ], [ 77.672973393507334, 10.10978555615856, 0.0 ], [ 77.672982050381393, 10.11009617389937, 0.0 ], [ 77.672989708108602, 10.110406866283871, 0.0 ], [ 77.672998389264308, 10.11071746244094, 0.0 ], [ 77.673000814735857, 10.11102980598082, 0.0 ], [ 77.672997161689707, 10.111343260183331, 0.0 ], [ 77.673076950441001, 10.111638123600571, 0.0 ], [ 77.673194815588317, 10.11192742111364, 0.0 ], [ 77.673335764533988, 10.11220869577472, 0.0 ], [ 77.67349585465, 10.112476034541441, 0.0 ], [ 77.673677966465064, 10.11272784741224, 0.0 ], [ 77.673883252010512, 10.11296542761243, 0.0 ], [ 77.674105052706082, 10.11318714557035, 0.0 ], [ 77.674338818881452, 10.11339278634807, 0.0 ], [ 77.674587257496015, 10.11358487524182, 0.0 ], [ 77.674848170606651, 10.11376009735068, 0.0 ], [ 77.675118865643199, 10.11391455501275, 0.0 ], [ 77.675403331098906, 10.11404296021446, 0.0 ], [ 77.675699576774107, 10.11414915575898, 0.0 ], [ 77.67600048723277, 10.114240733722911, 0.0 ], [ 77.676302114451062, 10.11432353520302, 0.0 ], [ 77.676605833492488, 10.11439947755391, 0.0 ], [ 77.676910936590517, 10.11447097635455, 0.0 ], [ 77.677216685401788, 10.11454046427105, 0.0 ], [ 77.677522339784232, 10.114610368573709, 0.0 ], [ 77.67782715779714, 10.114683121029261, 0.0 ], [ 77.678133668334169, 10.11475415308178, 0.0 ], [ 77.678436000620977, 10.11483683135476, 0.0 ], [ 77.678722738663524, 10.114961829025219, 0.0 ], [ 77.678998957336105, 10.115116137399861, 0.0 ], [ 77.679244335557726, 10.11530491139257, 0.0 ], [ 77.679450994367912, 10.115543867555511, 0.0 ], [ 77.679605004167698, 10.115814183078159, 0.0 ], [ 77.679664575260006, 10.11611799924634, 0.0 ], [ 77.679681725331406, 10.116430947130549, 0.0 ], [ 77.679675645015038, 10.116801963339981, 0.0 ], [ 77.680408847890092, 10.116527339165421, 0.0 ], [ 77.680509303961273, 10.116496453748359, 0.0 ], [ 77.681883007594749, 10.116140135159201, 0.0 ], [ 77.6833028356574, 10.115771843895519, 0.0 ], [ 77.6833173579098, 10.11576755233073, 0.0 ], [ 77.68460959016052, 10.11533198278482, 0.0 ], [ 77.68463587104867, 10.11532193016301, 0.0 ], [ 77.684650721553609, 10.115316248246311, 0.0 ], [ 77.685887242602249, 10.11479766767826, 0.0 ], [ 77.686023270457625, 10.11474061918425, 0.0 ], [ 77.686175522982055, 10.11467727093936, 0.0 ], [ 77.68909852467722, 10.113488987726649, 0.0 ], [ 77.68910185216879, 10.113487682810399, 0.0 ], [ 77.689602527234911, 10.113309813097439, 0.0 ], [ 77.690590563803553, 10.112958801407609, 0.0 ], [ 77.690593873308657, 10.11295736159302, 0.0 ], [ 77.692204197565715, 10.112188636396519, 0.0 ], [ 77.694725693336139, 10.11093614248905, 0.0 ], [ 77.694735442886426, 10.11093092911916, 0.0 ], [ 77.694740901771254, 10.11092800991976, 0.0 ], [ 77.696301739933403, 10.10997985198863, 0.0 ], [ 77.69632243783029, 10.109965113898919, 0.0 ], [ 77.697638653201338, 10.108834129191751, 0.0 ], [ 77.697638674785068, 10.1088341094067, 0.0 ], [ 77.697661270251487, 10.10880874133038, 0.0 ], [ 77.698784381394134, 10.10726294522882, 0.0 ], [ 77.698805875191042, 10.107230974330051, 0.0 ], [ 77.69913009247982, 10.106707638147061, 0.0 ], [ 77.699427125961151, 10.106228180785999, 0.0 ], [ 77.699444029618348, 10.10620271468362, 0.0 ], [ 77.699894527010898, 10.105626054099179, 0.0 ], [ 77.699916272617926, 10.105603114192441, 0.0 ], [ 77.701312326202938, 10.10458199156567, 0.0 ], [ 77.701401021839743, 10.104514740263101, 0.0 ], [ 77.701468479087126, 10.1044635895231, 0.0 ], [ 77.702228677811263, 10.103887173554259, 0.0 ], [ 77.702385421550048, 10.103785481814549, 0.0 ], [ 77.70250273271499, 10.10371632125127, 0.0 ], [ 77.702787726972062, 10.10354827123577, 0.0 ], [ 77.702873354122076, 10.10348245075455, 0.0 ], [ 77.702925909603081, 10.103442031624541, 0.0 ], [ 77.702971577176598, 10.103351903367679, 0.0 ], [ 77.702995437989088, 10.10315903476168, 0.0 ], [ 77.702961859102572, 10.10293465121322, 0.0 ], [ 77.702954502648254, 10.102902217163649, 0.0 ], [ 77.702862837450013, 10.102529699985711, 0.0 ], [ 77.702862832054095, 10.102529671207449, 0.0 ], [ 77.702732167755428, 10.101998678196489, 0.0 ], [ 77.702716001542299, 10.10192788266569, 0.0 ], [ 77.702690212583335, 10.10179031607025, 0.0 ], [ 77.702468786005738, 10.10060916268276, 0.0 ], [ 77.702463634689011, 10.100572553080889, 0.0 ], [ 77.702455846560142, 10.100517396760489, 0.0 ], [ 77.702404153528889, 10.100062171631979, 0.0 ], [ 77.702327606833634, 10.099388454413729, 0.0 ], [ 77.702325520406475, 10.09937622902982, 0.0 ], [ 77.702321936608143, 10.09935521547089, 0.0 ], [ 77.702167939398919, 10.098643669170009, 0.0 ], [ 77.702055040307926, 10.09812200122941, 0.0 ], [ 77.702045830350883, 10.09808925421579, 0.0 ], [ 77.701746985634955, 10.097287207338789, 0.0 ], [ 77.701723918024484, 10.09724622073656, 0.0 ], [ 77.701448341467838, 10.09685470717903, 0.0 ], [ 77.701150070519418, 10.09643095292618, 0.0 ], [ 77.701114079651134, 10.096388629032029, 0.0 ], [ 77.700686844122615, 10.09595640316553, 0.0 ], [ 77.700444847351875, 10.095711548349311, 0.0 ], [ 77.700166047625046, 10.09542947778824, 0.0 ], [ 77.700150350858038, 10.09540728072146, 0.0 ], [ 77.700133614474794, 10.09538361146458, 0.0 ], [ 77.699864051684713, 10.094894561035231, 0.0 ], [ 77.699848471829583, 10.09479167049926, 0.0 ], [ 77.699824221610598, 10.094516074157511, 0.0 ], [ 77.699825131724495, 10.09449931079461, 0.0 ], [ 77.699828402558822, 10.09443902653986, 0.0 ], [ 77.699867733509151, 10.09408410100054, 0.0 ], [ 77.699890606866049, 10.093877683208561, 0.0 ], [ 77.699907265008349, 10.093764934304311, 0.0 ], [ 77.699928230903211, 10.093629696053631, 0.0 ], [ 77.69992823450049, 10.093629669973341, 0.0 ], [ 77.700095575850185, 10.092550207426189, 0.0 ], [ 77.700102006002837, 10.0924913773752, 0.0 ], [ 77.70007012773425, 10.09203839515582, 0.0 ], [ 77.700058203623271, 10.09197682127331, 0.0 ], [ 77.699640638504718, 10.090209036517891, 0.0 ], [ 77.699637909961609, 10.09019949381166, 0.0 ], [ 77.699328928087596, 10.089447419562831, 0.0 ], [ 77.699327354274033, 10.089445710850899, 0.0 ], [ 77.699324975567208, 10.08944312709864, 0.0 ], [ 77.698700320863168, 10.08886802863667, 0.0 ], [ 77.698401830480108, 10.08859321560446, 0.0 ], [ 77.698383629101272, 10.08857155543296, 0.0 ], [ 77.697851321281519, 10.087841655767861, 0.0 ] ] ] } }
]
}
